<?xml version="1.0" encoding="UTF-8"?>
<!-- track-length = 93218 filtered ascend = 163 plain-ascend = 2 cost=94990 energy=1.1kwh time=2h 4m 17s -->
<gpx 
 xmlns="http://www.topografix.com/GPX/1/1" 
 xmlns:xsi="http://www.w3.org/2001/XMLSchema-instance" 
 xsi:schemaLocation="http://www.topografix.com/GPX/1/1 http://www.topografix.com/GPX/1/1/gpx.xsd" 
 version="1.1" 
 creator="BRouter-Web 99.71.0">
 <trk>
  <name>Cambridge-KX</name>
  <link href="https://brouter.damsy.net/latest/#map=9/51.7966/0.0742/standard&amp;lonlats=0.137694,52.193745;-0.123682,51.53136&amp;profile=rail&amp;alternativeidx=2">
   <text>BRouter-Web</text>
  </link>
  <trkseg>
   <trkpt lat="52.193741" lon="0.137703"><ele>15.25</ele></trkpt>
   <trkpt lat="52.193439" lon="0.137484"><ele>15.5</ele></trkpt>
   <trkpt lat="52.191966" lon="0.136422"><ele>15.75</ele></trkpt>
   <trkpt lat="52.190944" lon="0.135456"><ele>15.75</ele></trkpt>
   <trkpt lat="52.190662" lon="0.135183"><ele>15.5</ele></trkpt>
   <trkpt lat="52.190126" lon="0.134786"><ele>16</ele></trkpt>
   <trkpt lat="52.189871" lon="0.134606"><ele>15.75</ele></trkpt>
   <trkpt lat="52.189514" lon="0.134289"><ele>15.25</ele></trkpt>
   <trkpt lat="52.189246" lon="0.134084"><ele>15.5</ele></trkpt>
   <trkpt lat="52.188856" lon="0.13372"><ele>15</ele></trkpt>
   <trkpt lat="52.187568" lon="0.132828"><ele>14</ele></trkpt>
   <trkpt lat="52.186565" lon="0.132286"><ele>14</ele></trkpt>
   <trkpt lat="52.185809" lon="0.131898"><ele>13.75</ele></trkpt>
   <trkpt lat="52.184757" lon="0.131467"><ele>13</ele></trkpt>
   <trkpt lat="52.184295" lon="0.131314"><ele>13</ele></trkpt>
   <trkpt lat="52.18332" lon="0.131039"><ele>13.25</ele></trkpt>
   <trkpt lat="52.182199" lon="0.130807"><ele>13</ele></trkpt>
   <trkpt lat="52.181542" lon="0.13071"><ele>13.25</ele></trkpt>
   <trkpt lat="52.18067" lon="0.130653"><ele>13</ele></trkpt>
   <trkpt lat="52.180068" lon="0.13068"><ele>13</ele></trkpt>
   <trkpt lat="52.179466" lon="0.130686"><ele>13.5</ele></trkpt>
   <trkpt lat="52.178671" lon="0.130712"><ele>13.5</ele></trkpt>
   <trkpt lat="52.177581" lon="0.130814"><ele>13.75</ele></trkpt>
   <trkpt lat="52.176987" lon="0.130838"><ele>14</ele></trkpt>
   <trkpt lat="52.175939" lon="0.130947"><ele>14.25</ele></trkpt>
   <trkpt lat="52.175311" lon="0.131029"><ele>14</ele></trkpt>
   <trkpt lat="52.174202" lon="0.131174"><ele>14</ele></trkpt>
   <trkpt lat="52.171477" lon="0.13153"><ele>15</ele></trkpt>
   <trkpt lat="52.171116" lon="0.131582"><ele>15</ele></trkpt>
   <trkpt lat="52.169623" lon="0.131838"><ele>14.5</ele></trkpt>
   <trkpt lat="52.168646" lon="0.131965"><ele>14.75</ele></trkpt>
   <trkpt lat="52.166564" lon="0.132234"><ele>15.5</ele></trkpt>
   <trkpt lat="52.164743" lon="0.132455"><ele>15.75</ele></trkpt>
   <trkpt lat="52.162984" lon="0.132791"><ele>16</ele></trkpt>
   <trkpt lat="52.162292" lon="0.132985"><ele>16</ele></trkpt>
   <trkpt lat="52.161867" lon="0.133053"><ele>16</ele></trkpt>
   <trkpt lat="52.161595" lon="0.133122"><ele>16</ele></trkpt>
   <trkpt lat="52.16122" lon="0.133233"><ele>16</ele></trkpt>
   <trkpt lat="52.160802" lon="0.133375"><ele>16</ele></trkpt>
   <trkpt lat="52.16007" lon="0.133642"><ele>16</ele></trkpt>
   <trkpt lat="52.159459" lon="0.133889"><ele>16</ele></trkpt>
   <trkpt lat="52.159054" lon="0.134068"><ele>16</ele></trkpt>
   <trkpt lat="52.157521" lon="0.134816"><ele>15.25</ele></trkpt>
   <trkpt lat="52.157049" lon="0.135062"><ele>15</ele></trkpt>
   <trkpt lat="52.156718" lon="0.135173"><ele>15</ele></trkpt>
   <trkpt lat="52.156407" lon="0.13524"><ele>15</ele></trkpt>
   <trkpt lat="52.15613" lon="0.135271"><ele>15</ele></trkpt>
   <trkpt lat="52.155943" lon="0.135278"><ele>15</ele></trkpt>
   <trkpt lat="52.155733" lon="0.135268"><ele>14.75</ele></trkpt>
   <trkpt lat="52.155526" lon="0.135247"><ele>14.75</ele></trkpt>
   <trkpt lat="52.155224" lon="0.135181"><ele>14.5</ele></trkpt>
   <trkpt lat="52.154931" lon="0.135085"><ele>15</ele></trkpt>
   <trkpt lat="52.154633" lon="0.134942"><ele>14.5</ele></trkpt>
   <trkpt lat="52.154281" lon="0.134748"><ele>14.75</ele></trkpt>
   <trkpt lat="52.153924" lon="0.134492"><ele>15</ele></trkpt>
   <trkpt lat="52.153614" lon="0.134185"><ele>15</ele></trkpt>
   <trkpt lat="52.153132" lon="0.13361"><ele>16.25</ele></trkpt>
   <trkpt lat="52.152895" lon="0.133275"><ele>15.5</ele></trkpt>
   <trkpt lat="52.152714" lon="0.132997"><ele>15</ele></trkpt>
   <trkpt lat="52.152545" lon="0.132694"><ele>15.5</ele></trkpt>
   <trkpt lat="52.15226" lon="0.132089"><ele>15.75</ele></trkpt>
   <trkpt lat="52.151421" lon="0.129956"><ele>17.25</ele></trkpt>
   <trkpt lat="52.149818" lon="0.125861"><ele>17.75</ele></trkpt>
   <trkpt lat="52.149362" lon="0.124707"><ele>15</ele></trkpt>
   <trkpt lat="52.14887" lon="0.123459"><ele>13.25</ele></trkpt>
   <trkpt lat="52.148794" lon="0.123263"><ele>12</ele></trkpt>
   <trkpt lat="52.148191" lon="0.121688"><ele>13.5</ele></trkpt>
   <trkpt lat="52.147877" lon="0.120891"><ele>14.5</ele></trkpt>
   <trkpt lat="52.146484" lon="0.117393"><ele>15</ele></trkpt>
   <trkpt lat="52.145682" lon="0.115347"><ele>14.5</ele></trkpt>
   <trkpt lat="52.145119" lon="0.11384"><ele>15</ele></trkpt>
   <trkpt lat="52.144909" lon="0.113359"><ele>15</ele></trkpt>
   <trkpt lat="52.144807" lon="0.113105"><ele>14.5</ele></trkpt>
   <trkpt lat="52.143869" lon="0.110707"><ele>15</ele></trkpt>
   <trkpt lat="52.143031" lon="0.108593"><ele>15.75</ele></trkpt>
   <trkpt lat="52.141736" lon="0.105252"><ele>15.75</ele></trkpt>
   <trkpt lat="52.139946" lon="0.100683"><ele>14.25</ele></trkpt>
   <trkpt lat="52.13745" lon="0.094343"><ele>16</ele></trkpt>
   <trkpt lat="52.136748" lon="0.092539"><ele>15.5</ele></trkpt>
   <trkpt lat="52.135732" lon="0.089948"><ele>14.75</ele></trkpt>
   <trkpt lat="52.135071" lon="0.088359"><ele>14.75</ele></trkpt>
   <trkpt lat="52.13446" lon="0.087008"><ele>14.5</ele></trkpt>
   <trkpt lat="52.134208" lon="0.086466"><ele>14.5</ele></trkpt>
   <trkpt lat="52.133734" lon="0.085516"><ele>14.5</ele></trkpt>
   <trkpt lat="52.133704" lon="0.08546"><ele>14.75</ele></trkpt>
   <trkpt lat="52.133061" lon="0.084258"><ele>15.5</ele></trkpt>
   <trkpt lat="52.131922" lon="0.082333"><ele>16</ele></trkpt>
   <trkpt lat="52.131015" lon="0.080938"><ele>16.5</ele></trkpt>
   <trkpt lat="52.130133" lon="0.079707"><ele>18.25</ele></trkpt>
   <trkpt lat="52.129218" lon="0.078551"><ele>19.5</ele></trkpt>
   <trkpt lat="52.127832" lon="0.076931"><ele>19</ele></trkpt>
   <trkpt lat="52.126653" lon="0.075533"><ele>17.75</ele></trkpt>
   <trkpt lat="52.1262" lon="0.074923"><ele>18.25</ele></trkpt>
   <trkpt lat="52.125919" lon="0.074545"><ele>18</ele></trkpt>
   <trkpt lat="52.12527" lon="0.073596"><ele>17</ele></trkpt>
   <trkpt lat="52.124868" lon="0.072968"><ele>17</ele></trkpt>
   <trkpt lat="52.12448" lon="0.072324"><ele>16.75</ele></trkpt>
   <trkpt lat="52.124125" lon="0.071714"><ele>16.25</ele></trkpt>
   <trkpt lat="52.123598" lon="0.070721"><ele>15.5</ele></trkpt>
   <trkpt lat="52.123022" lon="0.069558"><ele>15.25</ele></trkpt>
   <trkpt lat="52.122589" lon="0.068594"><ele>14.5</ele></trkpt>
   <trkpt lat="52.122086" lon="0.06739"><ele>14</ele></trkpt>
   <trkpt lat="52.121851" lon="0.066738"><ele>14</ele></trkpt>
   <trkpt lat="52.12156" lon="0.065961"><ele>14.25</ele></trkpt>
   <trkpt lat="52.12128" lon="0.06511"><ele>15</ele></trkpt>
   <trkpt lat="52.121004" lon="0.064233"><ele>15.75</ele></trkpt>
   <trkpt lat="52.120733" lon="0.063305"><ele>17</ele></trkpt>
   <trkpt lat="52.120445" lon="0.062249"><ele>17</ele></trkpt>
   <trkpt lat="52.12011" lon="0.060889"><ele>17</ele></trkpt>
   <trkpt lat="52.119892" lon="0.059799"><ele>17</ele></trkpt>
   <trkpt lat="52.119669" lon="0.058617"><ele>16</ele></trkpt>
   <trkpt lat="52.119511" lon="0.057749"><ele>16</ele></trkpt>
   <trkpt lat="52.119224" lon="0.056177"><ele>16.75</ele></trkpt>
   <trkpt lat="52.119196" lon="0.05603"><ele>16.75</ele></trkpt>
   <trkpt lat="52.119179" lon="0.055937"><ele>17</ele></trkpt>
   <trkpt lat="52.119149" lon="0.055778"><ele>17</ele></trkpt>
   <trkpt lat="52.118986" lon="0.054922"><ele>17</ele></trkpt>
   <trkpt lat="52.118924" lon="0.054595"><ele>17</ele></trkpt>
   <trkpt lat="52.118437" lon="0.051948"><ele>17</ele></trkpt>
   <trkpt lat="52.117209" lon="0.04535"><ele>17</ele></trkpt>
   <trkpt lat="52.116688" lon="0.042585"><ele>16.75</ele></trkpt>
   <trkpt lat="52.115636" lon="0.036856"><ele>17.5</ele></trkpt>
   <trkpt lat="52.115261" lon="0.034823"><ele>18</ele></trkpt>
   <trkpt lat="52.115055" lon="0.033758"><ele>17.75</ele></trkpt>
   <trkpt lat="52.11489" lon="0.033037"><ele>17.25</ele></trkpt>
   <trkpt lat="52.114806" lon="0.032705"><ele>17.5</ele></trkpt>
   <trkpt lat="52.114659" lon="0.032194"><ele>18</ele></trkpt>
   <trkpt lat="52.114545" lon="0.031839"><ele>18</ele></trkpt>
   <trkpt lat="52.114349" lon="0.031326"><ele>18</ele></trkpt>
   <trkpt lat="52.114162" lon="0.03087"><ele>18</ele></trkpt>
   <trkpt lat="52.113982" lon="0.030461"><ele>18</ele></trkpt>
   <trkpt lat="52.113788" lon="0.030058"><ele>18</ele></trkpt>
   <trkpt lat="52.113559" lon="0.029632"><ele>18</ele></trkpt>
   <trkpt lat="52.113379" lon="0.029319"><ele>18</ele></trkpt>
   <trkpt lat="52.113131" lon="0.028925"><ele>18.5</ele></trkpt>
   <trkpt lat="52.112863" lon="0.028553"><ele>18</ele></trkpt>
   <trkpt lat="52.112581" lon="0.028189"><ele>18.5</ele></trkpt>
   <trkpt lat="52.112293" lon="0.027841"><ele>18.5</ele></trkpt>
   <trkpt lat="52.111784" lon="0.027329"><ele>19</ele></trkpt>
   <trkpt lat="52.110286" lon="0.026016"><ele>18.75</ele></trkpt>
   <trkpt lat="52.109383" lon="0.025242"><ele>18</ele></trkpt>
   <trkpt lat="52.108675" lon="0.024636"><ele>17.5</ele></trkpt>
   <trkpt lat="52.105136" lon="0.021548"><ele>19</ele></trkpt>
   <trkpt lat="52.098423" lon="0.015709"><ele>20.5</ele></trkpt>
   <trkpt lat="52.094365" lon="0.012187"><ele>21.5</ele></trkpt>
   <trkpt lat="52.093585" lon="0.011491"><ele>21.25</ele></trkpt>
   <trkpt lat="52.09328" lon="0.011243"><ele>21.75</ele></trkpt>
   <trkpt lat="52.092153" lon="0.010261"><ele>22.5</ele></trkpt>
   <trkpt lat="52.091168" lon="0.009416"><ele>22.5</ele></trkpt>
   <trkpt lat="52.089946" lon="0.00834"><ele>22.75</ele></trkpt>
   <trkpt lat="52.088864" lon="0.007413"><ele>24.25</ele></trkpt>
   <trkpt lat="52.087781" lon="0.006458"><ele>23</ele></trkpt>
   <trkpt lat="52.087088" lon="0.005874"><ele>23.75</ele></trkpt>
   <trkpt lat="52.08362" lon="0.002858"><ele>25.5</ele></trkpt>
   <trkpt lat="52.080571" lon="0.000206"><ele>28.25</ele></trkpt>
   <trkpt lat="52.07881" lon="-0.001298"><ele>29.5</ele></trkpt>
   <trkpt lat="52.076602" lon="-0.003205"><ele>30.75</ele></trkpt>
   <trkpt lat="52.075339" lon="-0.004315"><ele>32</ele></trkpt>
   <trkpt lat="52.072756" lon="-0.006561"><ele>37</ele></trkpt>
   <trkpt lat="52.065384" lon="-0.012934"><ele>48</ele></trkpt>
   <trkpt lat="52.062549" lon="-0.015416"><ele>44</ele></trkpt>
   <trkpt lat="52.062225" lon="-0.015684"><ele>43.25</ele></trkpt>
   <trkpt lat="52.060344" lon="-0.01731"><ele>47.5</ele></trkpt>
   <trkpt lat="52.058715" lon="-0.018732"><ele>49.5</ele></trkpt>
   <trkpt lat="52.058576" lon="-0.018863"><ele>50</ele></trkpt>
   <trkpt lat="52.05776" lon="-0.019572"><ele>50.5</ele></trkpt>
   <trkpt lat="52.057379" lon="-0.019892"><ele>51</ele></trkpt>
   <trkpt lat="52.057143" lon="-0.020096"><ele>51.25</ele></trkpt>
   <trkpt lat="52.056423" lon="-0.02072"><ele>51.75</ele></trkpt>
   <trkpt lat="52.056096" lon="-0.021016"><ele>52</ele></trkpt>
   <trkpt lat="52.055841" lon="-0.021276"><ele>51.75</ele></trkpt>
   <trkpt lat="52.05537" lon="-0.021906"><ele>52.5</ele></trkpt>
   <trkpt lat="52.055109" lon="-0.022267"><ele>53</ele></trkpt>
   <trkpt lat="52.054896" lon="-0.022615"><ele>53.25</ele></trkpt>
   <trkpt lat="52.054653" lon="-0.023042"><ele>54</ele></trkpt>
   <trkpt lat="52.054478" lon="-0.023373"><ele>54</ele></trkpt>
   <trkpt lat="52.054317" lon="-0.023701"><ele>55.25</ele></trkpt>
   <trkpt lat="52.054149" lon="-0.024071"><ele>55</ele></trkpt>
   <trkpt lat="52.053895" lon="-0.024686"><ele>55.75</ele></trkpt>
   <trkpt lat="52.053665" lon="-0.025338"><ele>56</ele></trkpt>
   <trkpt lat="52.053616" lon="-0.025498"><ele>56</ele></trkpt>
   <trkpt lat="52.053554" lon="-0.025699"><ele>56.75</ele></trkpt>
   <trkpt lat="52.053338" lon="-0.02657"><ele>56</ele></trkpt>
   <trkpt lat="52.053055" lon="-0.027853"><ele>56</ele></trkpt>
   <trkpt lat="52.0524" lon="-0.030848"><ele>56.25</ele></trkpt>
   <trkpt lat="52.052161" lon="-0.031884"><ele>57</ele></trkpt>
   <trkpt lat="52.052088" lon="-0.032237"><ele>57.25</ele></trkpt>
   <trkpt lat="52.051937" lon="-0.032957"><ele>58</ele></trkpt>
   <trkpt lat="52.051803" lon="-0.033401"><ele>58.5</ele></trkpt>
   <trkpt lat="52.051272" lon="-0.035775"><ele>59</ele></trkpt>
   <trkpt lat="52.050108" lon="-0.041069"><ele>60.5</ele></trkpt>
   <trkpt lat="52.049941" lon="-0.041878"><ele>61</ele></trkpt>
   <trkpt lat="52.048807" lon="-0.047038"><ele>64</ele></trkpt>
   <trkpt lat="52.048202" lon="-0.049774"><ele>65</ele></trkpt>
   <trkpt lat="52.047686" lon="-0.052024"><ele>67</ele></trkpt>
   <trkpt lat="52.047183" lon="-0.054337"><ele>66.75</ele></trkpt>
   <trkpt lat="52.046714" lon="-0.056479"><ele>66.75</ele></trkpt>
   <trkpt lat="52.046563" lon="-0.057139"><ele>66.25</ele></trkpt>
   <trkpt lat="52.046401" lon="-0.057779"><ele>65.75</ele></trkpt>
   <trkpt lat="52.045993" lon="-0.059322"><ele>65.75</ele></trkpt>
   <trkpt lat="52.044907" lon="-0.062921"><ele>65.25</ele></trkpt>
   <trkpt lat="52.044417" lon="-0.064533"><ele>66.5</ele></trkpt>
   <trkpt lat="52.043655" lon="-0.067068"><ele>66.25</ele></trkpt>
   <trkpt lat="52.04304" lon="-0.069063"><ele>68</ele></trkpt>
   <trkpt lat="52.042323" lon="-0.07144"><ele>68.5</ele></trkpt>
   <trkpt lat="52.041422" lon="-0.074372"><ele>67.75</ele></trkpt>
   <trkpt lat="52.040072" lon="-0.078838"><ele>69.5</ele></trkpt>
   <trkpt lat="52.037627" lon="-0.086839"><ele>67.5</ele></trkpt>
   <trkpt lat="52.037533" lon="-0.087153"><ele>69.5</ele></trkpt>
   <trkpt lat="52.035348" lon="-0.094333"><ele>73</ele></trkpt>
   <trkpt lat="52.034536" lon="-0.097031"><ele>79</ele></trkpt>
   <trkpt lat="52.033787" lon="-0.099457"><ele>78.25</ele></trkpt>
   <trkpt lat="52.032338" lon="-0.104242"><ele>80</ele></trkpt>
   <trkpt lat="52.031896" lon="-0.105676"><ele>79</ele></trkpt>
   <trkpt lat="52.030657" lon="-0.10975"><ele>81.75</ele></trkpt>
   <trkpt lat="52.030448" lon="-0.110438"><ele>82.25</ele></trkpt>
   <trkpt lat="52.0289" lon="-0.115553"><ele>78.75</ele></trkpt>
   <trkpt lat="52.028361" lon="-0.11686"><ele>75.5</ele></trkpt>
   <trkpt lat="52.028195" lon="-0.117257"><ele>73.25</ele></trkpt>
   <trkpt lat="52.028061" lon="-0.11757"><ele>77.75</ele></trkpt>
   <trkpt lat="52.027809" lon="-0.11812"><ele>77.5</ele></trkpt>
   <trkpt lat="52.027478" lon="-0.118768"><ele>77.75</ele></trkpt>
   <trkpt lat="52.026789" lon="-0.11996"><ele>79</ele></trkpt>
   <trkpt lat="52.026319" lon="-0.120734"><ele>80</ele></trkpt>
   <trkpt lat="52.025771" lon="-0.121567"><ele>80.25</ele></trkpt>
   <trkpt lat="52.024478" lon="-0.123169"><ele>79</ele></trkpt>
   <trkpt lat="52.022462" lon="-0.125636"><ele>78.75</ele></trkpt>
   <trkpt lat="52.017472" lon="-0.131674"><ele>75</ele></trkpt>
   <trkpt lat="52.017195" lon="-0.13203"><ele>72.75</ele></trkpt>
   <trkpt lat="52.013284" lon="-0.136794"><ele>72.5</ele></trkpt>
   <trkpt lat="52.013123" lon="-0.136984"><ele>72.25</ele></trkpt>
   <trkpt lat="52.010962" lon="-0.139644"><ele>77.5</ele></trkpt>
   <trkpt lat="52.010153" lon="-0.140582"><ele>79.25</ele></trkpt>
   <trkpt lat="52.009746" lon="-0.141017"><ele>79</ele></trkpt>
   <trkpt lat="52.009361" lon="-0.141391"><ele>78.75</ele></trkpt>
   <trkpt lat="52.008554" lon="-0.142088"><ele>79.5</ele></trkpt>
   <trkpt lat="52.008146" lon="-0.142426"><ele>79.25</ele></trkpt>
   <trkpt lat="52.007351" lon="-0.143009"><ele>76</ele></trkpt>
   <trkpt lat="52.007144" lon="-0.143163"><ele>75</ele></trkpt>
   <trkpt lat="52.006393" lon="-0.143764"><ele>75</ele></trkpt>
   <trkpt lat="52.005909" lon="-0.14421"><ele>75.75</ele></trkpt>
   <trkpt lat="52.005304" lon="-0.144786"><ele>76.75</ele></trkpt>
   <trkpt lat="52.004866" lon="-0.145237"><ele>77.75</ele></trkpt>
   <trkpt lat="52.004365" lon="-0.145808"><ele>78.75</ele></trkpt>
   <trkpt lat="52.003625" lon="-0.146701"><ele>80</ele></trkpt>
   <trkpt lat="52.002972" lon="-0.147593"><ele>79.75</ele></trkpt>
   <trkpt lat="52.001886" lon="-0.14929"><ele>80.25</ele></trkpt>
   <trkpt lat="52.001661" lon="-0.149669"><ele>80</ele></trkpt>
   <trkpt lat="52.001359" lon="-0.150221"><ele>79.25</ele></trkpt>
   <trkpt lat="52.001062" lon="-0.150794"><ele>79</ele></trkpt>
   <trkpt lat="52.000716" lon="-0.151496"><ele>79</ele></trkpt>
   <trkpt lat="52.000425" lon="-0.15215"><ele>78.5</ele></trkpt>
   <trkpt lat="51.999789" lon="-0.153751"><ele>79.75</ele></trkpt>
   <trkpt lat="51.999554" lon="-0.154426"><ele>80.5</ele></trkpt>
   <trkpt lat="51.999376" lon="-0.154982"><ele>79.5</ele></trkpt>
   <trkpt lat="51.999073" lon="-0.15599"><ele>79</ele></trkpt>
   <trkpt lat="51.998817" lon="-0.157004"><ele>79</ele></trkpt>
   <trkpt lat="51.996897" lon="-0.164463"><ele>73.75</ele></trkpt>
   <trkpt lat="51.996527" lon="-0.165928"><ele>71.25</ele></trkpt>
   <trkpt lat="51.99576" lon="-0.168881"><ele>70.25</ele></trkpt>
   <trkpt lat="51.995207" lon="-0.171138"><ele>68</ele></trkpt>
   <trkpt lat="51.99489" lon="-0.172573"><ele>66.75</ele></trkpt>
   <trkpt lat="51.994691" lon="-0.17355"><ele>68.75</ele></trkpt>
   <trkpt lat="51.994456" lon="-0.174794"><ele>68.75</ele></trkpt>
   <trkpt lat="51.994335" lon="-0.175484"><ele>66.25</ele></trkpt>
   <trkpt lat="51.994104" lon="-0.176865"><ele>66.75</ele></trkpt>
   <trkpt lat="51.993954" lon="-0.177853"><ele>66.5</ele></trkpt>
   <trkpt lat="51.993725" lon="-0.179497"><ele>66</ele></trkpt>
   <trkpt lat="51.993599" lon="-0.180518"><ele>67</ele></trkpt>
   <trkpt lat="51.993479" lon="-0.181602"><ele>65.5</ele></trkpt>
   <trkpt lat="51.993383" lon="-0.182554"><ele>67.25</ele></trkpt>
   <trkpt lat="51.993299" lon="-0.183581"><ele>68</ele></trkpt>
   <trkpt lat="51.993218" lon="-0.184643"><ele>68</ele></trkpt>
   <trkpt lat="51.993187" lon="-0.185131"><ele>67.5</ele></trkpt>
   <trkpt lat="51.993114" lon="-0.186019"><ele>67.25</ele></trkpt>
   <trkpt lat="51.993039" lon="-0.186864"><ele>66.75</ele></trkpt>
   <trkpt lat="51.992948" lon="-0.187613"><ele>66</ele></trkpt>
   <trkpt lat="51.992917" lon="-0.187868"><ele>65.75</ele></trkpt>
   <trkpt lat="51.992874" lon="-0.188215"><ele>63.75</ele></trkpt>
   <trkpt lat="51.992834" lon="-0.188478"><ele>63.75</ele></trkpt>
   <trkpt lat="51.992686" lon="-0.189459"><ele>63.25</ele></trkpt>
   <trkpt lat="51.992584" lon="-0.190059"><ele>63</ele></trkpt>
   <trkpt lat="51.992389" lon="-0.191081"><ele>61.75</ele></trkpt>
   <trkpt lat="51.992122" lon="-0.192293"><ele>62.5</ele></trkpt>
   <trkpt lat="51.991873" lon="-0.193257"><ele>64.25</ele></trkpt>
   <trkpt lat="51.991667" lon="-0.194012"><ele>64.5</ele></trkpt>
   <trkpt lat="51.991604" lon="-0.194236"><ele>63</ele></trkpt>
   <trkpt lat="51.991381" lon="-0.19497"><ele>67.5</ele></trkpt>
   <trkpt lat="51.99113" lon="-0.195752"><ele>67.5</ele></trkpt>
   <trkpt lat="51.990703" lon="-0.196955"><ele>66.75</ele></trkpt>
   <trkpt lat="51.990414" lon="-0.197677"><ele>66.5</ele></trkpt>
   <trkpt lat="51.990042" lon="-0.198563"><ele>68</ele></trkpt>
   <trkpt lat="51.989732" lon="-0.199255"><ele>69.75</ele></trkpt>
   <trkpt lat="51.989431" lon="-0.199901"><ele>70</ele></trkpt>
   <trkpt lat="51.989112" lon="-0.200542"><ele>71.5</ele></trkpt>
   <trkpt lat="51.988541" lon="-0.201651"><ele>73.5</ele></trkpt>
   <trkpt lat="51.988018" lon="-0.202703"><ele>74.25</ele></trkpt>
   <trkpt lat="51.987539" lon="-0.203723"><ele>72.75</ele></trkpt>
   <trkpt lat="51.98686" lon="-0.205385"><ele>75.5</ele></trkpt>
   <trkpt lat="51.986645" lon="-0.205941"><ele>73.75</ele></trkpt>
   <trkpt lat="51.986247" lon="-0.20704"><ele>76.75</ele></trkpt>
   <trkpt lat="51.985989" lon="-0.207873"><ele>77</ele></trkpt>
   <trkpt lat="51.985852" lon="-0.208315"><ele>73.5</ele></trkpt>
   <trkpt lat="51.984991" lon="-0.211539"><ele>73.5</ele></trkpt>
   <trkpt lat="51.98488" lon="-0.211936"><ele>73.5</ele></trkpt>
   <trkpt lat="51.983914" lon="-0.215574"><ele>74.75</ele></trkpt>
   <trkpt lat="51.98366" lon="-0.216497"><ele>75</ele></trkpt>
   <trkpt lat="51.982877" lon="-0.21945"><ele>76.25</ele></trkpt>
   <trkpt lat="51.982636" lon="-0.220366"><ele>77.5</ele></trkpt>
   <trkpt lat="51.981701" lon="-0.22383"><ele>71.5</ele></trkpt>
   <trkpt lat="51.981589" lon="-0.224266"><ele>73.5</ele></trkpt>
   <trkpt lat="51.981073" lon="-0.226154"><ele>78</ele></trkpt>
   <trkpt lat="51.980847" lon="-0.227033"><ele>78.25</ele></trkpt>
   <trkpt lat="51.980717" lon="-0.227486"><ele>79.75</ele></trkpt>
   <trkpt lat="51.979967" lon="-0.230279"><ele>80.25</ele></trkpt>
   <trkpt lat="51.979211" lon="-0.233011"><ele>78.25</ele></trkpt>
   <trkpt lat="51.978474" lon="-0.235375"><ele>79.5</ele></trkpt>
   <trkpt lat="51.978206" lon="-0.236254"><ele>77</ele></trkpt>
   <trkpt lat="51.978016" lon="-0.236825"><ele>77.75</ele></trkpt>
   <trkpt lat="51.97775" lon="-0.237572"><ele>76.5</ele></trkpt>
   <trkpt lat="51.9777" lon="-0.23771"><ele>76</ele></trkpt>
   <trkpt lat="51.97703" lon="-0.239389"><ele>79.5</ele></trkpt>
   <trkpt lat="51.975861" lon="-0.242216"><ele>80.5</ele></trkpt>
   <trkpt lat="51.975348" lon="-0.243359"><ele>81.75</ele></trkpt>
   <trkpt lat="51.973706" lon="-0.246613"><ele>76.75</ele></trkpt>
   <trkpt lat="51.973359" lon="-0.247274"><ele>74.5</ele></trkpt>
   <trkpt lat="51.972201" lon="-0.249317"><ele>72.75</ele></trkpt>
   <trkpt lat="51.970871" lon="-0.251628"><ele>65.75</ele></trkpt>
   <trkpt lat="51.970613" lon="-0.252061"><ele>66.25</ele></trkpt>
   <trkpt lat="51.969703" lon="-0.253523"><ele>69.25</ele></trkpt>
   <trkpt lat="51.968227" lon="-0.255431"><ele>67</ele></trkpt>
   <trkpt lat="51.966741" lon="-0.257234"><ele>67.5</ele></trkpt>
   <trkpt lat="51.9664" lon="-0.257596"><ele>67.75</ele></trkpt>
   <trkpt lat="51.965714" lon="-0.258323"><ele>68.75</ele></trkpt>
   <trkpt lat="51.962029" lon="-0.262838"><ele>65.75</ele></trkpt>
   <trkpt lat="51.961018" lon="-0.264039"><ele>61.75</ele></trkpt>
   <trkpt lat="51.960614" lon="-0.264581"><ele>61.5</ele></trkpt>
   <trkpt lat="51.960417" lon="-0.264815"><ele>61</ele></trkpt>
   <trkpt lat="51.960037" lon="-0.265206"><ele>60.25</ele></trkpt>
   <trkpt lat="51.959961" lon="-0.265297"><ele>60.25</ele></trkpt>
   <trkpt lat="51.95983" lon="-0.265451"><ele>59.75</ele></trkpt>
   <trkpt lat="51.959557" lon="-0.265738"><ele>60</ele></trkpt>
   <trkpt lat="51.959317" lon="-0.26597"><ele>59.25</ele></trkpt>
   <trkpt lat="51.959078" lon="-0.266184"><ele>59.75</ele></trkpt>
   <trkpt lat="51.958954" lon="-0.266281"><ele>59.75</ele></trkpt>
   <trkpt lat="51.958562" lon="-0.266471"><ele>61.5</ele></trkpt>
   <trkpt lat="51.958397" lon="-0.266532"><ele>62.5</ele></trkpt>
   <trkpt lat="51.958242" lon="-0.266565"><ele>63</ele></trkpt>
   <trkpt lat="51.957611" lon="-0.266526"><ele>64</ele></trkpt>
   <trkpt lat="51.957349" lon="-0.266494"><ele>64</ele></trkpt>
   <trkpt lat="51.957107" lon="-0.26643"><ele>64</ele></trkpt>
   <trkpt lat="51.956778" lon="-0.266307"><ele>64.5</ele></trkpt>
   <trkpt lat="51.956509" lon="-0.26617"><ele>65</ele></trkpt>
   <trkpt lat="51.95626" lon="-0.265995"><ele>65</ele></trkpt>
   <trkpt lat="51.955878" lon="-0.265633"><ele>65</ele></trkpt>
   <trkpt lat="51.95501" lon="-0.264667"><ele>65.25</ele></trkpt>
   <trkpt lat="51.954765" lon="-0.264474"><ele>65.5</ele></trkpt>
   <trkpt lat="51.954361" lon="-0.264137"><ele>65</ele></trkpt>
   <trkpt lat="51.954254" lon="-0.264029"><ele>63.75</ele></trkpt>
   <trkpt lat="51.954169" lon="-0.263931"><ele>63</ele></trkpt>
   <trkpt lat="51.954028" lon="-0.263761"><ele>65</ele></trkpt>
   <trkpt lat="51.953596" lon="-0.263353"><ele>66</ele></trkpt>
   <trkpt lat="51.953228" lon="-0.262954"><ele>66</ele></trkpt>
   <trkpt lat="51.951716" lon="-0.26125"><ele>67</ele></trkpt>
   <trkpt lat="51.950499" lon="-0.259872"><ele>68</ele></trkpt>
   <trkpt lat="51.949409" lon="-0.25856"><ele>70</ele></trkpt>
   <trkpt lat="51.948772" lon="-0.257723"><ele>70</ele></trkpt>
   <trkpt lat="51.945967" lon="-0.253621"><ele>71.25</ele></trkpt>
   <trkpt lat="51.945216" lon="-0.252539"><ele>71</ele></trkpt>
   <trkpt lat="51.945049" lon="-0.25228"><ele>67.75</ele></trkpt>
   <trkpt lat="51.944833" lon="-0.251939"><ele>69.5</ele></trkpt>
   <trkpt lat="51.941454" lon="-0.246561"><ele>73.5</ele></trkpt>
   <trkpt lat="51.940695" lon="-0.245394"><ele>73.5</ele></trkpt>
   <trkpt lat="51.940424" lon="-0.244963"><ele>74.25</ele></trkpt>
   <trkpt lat="51.934433" lon="-0.235509"><ele>80.25</ele></trkpt>
   <trkpt lat="51.933369" lon="-0.233838"><ele>80</ele></trkpt>
   <trkpt lat="51.933204" lon="-0.233579"><ele>77.5</ele></trkpt>
   <trkpt lat="51.932225" lon="-0.232022"><ele>80.75</ele></trkpt>
   <trkpt lat="51.932015" lon="-0.231687"><ele>80.5</ele></trkpt>
   <trkpt lat="51.929453" lon="-0.227762"><ele>83.75</ele></trkpt>
   <trkpt lat="51.928906" lon="-0.227032"><ele>83.75</ele></trkpt>
   <trkpt lat="51.928238" lon="-0.226201"><ele>85</ele></trkpt>
   <trkpt lat="51.927531" lon="-0.225403"><ele>85.5</ele></trkpt>
   <trkpt lat="51.926887" lon="-0.224736"><ele>86.25</ele></trkpt>
   <trkpt lat="51.926117" lon="-0.22399"><ele>86.25</ele></trkpt>
   <trkpt lat="51.9251" lon="-0.223055"><ele>87.25</ele></trkpt>
   <trkpt lat="51.920703" lon="-0.219096"><ele>91</ele></trkpt>
   <trkpt lat="51.918421" lon="-0.216979"><ele>92.25</ele></trkpt>
   <trkpt lat="51.917234" lon="-0.216013"><ele>92.75</ele></trkpt>
   <trkpt lat="51.916011" lon="-0.215106"><ele>92.75</ele></trkpt>
   <trkpt lat="51.914633" lon="-0.214195"><ele>93</ele></trkpt>
   <trkpt lat="51.913228" lon="-0.213363"><ele>94</ele></trkpt>
   <trkpt lat="51.911815" lon="-0.212606"><ele>95</ele></trkpt>
   <trkpt lat="51.910378" lon="-0.211818"><ele>94.5</ele></trkpt>
   <trkpt lat="51.90469" lon="-0.208658"><ele>91.25</ele></trkpt>
   <trkpt lat="51.904152" lon="-0.20839"><ele>90.25</ele></trkpt>
   <trkpt lat="51.903974" lon="-0.208292"><ele>91.25</ele></trkpt>
   <trkpt lat="51.901659" lon="-0.207036"><ele>91</ele></trkpt>
   <trkpt lat="51.900703" lon="-0.20653"><ele>91</ele></trkpt>
   <trkpt lat="51.898898" lon="-0.205541"><ele>90</ele></trkpt>
   <trkpt lat="51.894872" lon="-0.203285"><ele>89.5</ele></trkpt>
   <trkpt lat="51.893374" lon="-0.202423"><ele>89.5</ele></trkpt>
   <trkpt lat="51.891396" lon="-0.20099"><ele>89</ele></trkpt>
   <trkpt lat="51.890182" lon="-0.200036"><ele>88</ele></trkpt>
   <trkpt lat="51.887709" lon="-0.197812"><ele>88.75</ele></trkpt>
   <trkpt lat="51.885508" lon="-0.195928"><ele>89.5</ele></trkpt>
   <trkpt lat="51.884523" lon="-0.195203"><ele>87.5</ele></trkpt>
   <trkpt lat="51.884198" lon="-0.19498"><ele>89.5</ele></trkpt>
   <trkpt lat="51.882762" lon="-0.194098"><ele>87.75</ele></trkpt>
   <trkpt lat="51.882621" lon="-0.194022"><ele>89</ele></trkpt>
   <trkpt lat="51.881677" lon="-0.19355"><ele>91.75</ele></trkpt>
   <trkpt lat="51.880741" lon="-0.19311"><ele>92.5</ele></trkpt>
   <trkpt lat="51.878849" lon="-0.192287"><ele>93.75</ele></trkpt>
   <trkpt lat="51.874672" lon="-0.190445"><ele>96</ele></trkpt>
   <trkpt lat="51.871617" lon="-0.189036"><ele>99</ele></trkpt>
   <trkpt lat="51.869502" lon="-0.188106"><ele>99</ele></trkpt>
   <trkpt lat="51.86893" lon="-0.187872"><ele>99</ele></trkpt>
   <trkpt lat="51.867959" lon="-0.187435"><ele>98.25</ele></trkpt>
   <trkpt lat="51.866571" lon="-0.186822"><ele>97.25</ele></trkpt>
   <trkpt lat="51.866385" lon="-0.186739"><ele>95.5</ele></trkpt>
   <trkpt lat="51.866313" lon="-0.18671"><ele>95.75</ele></trkpt>
   <trkpt lat="51.865548" lon="-0.186415"><ele>97.5</ele></trkpt>
   <trkpt lat="51.865063" lon="-0.186238"><ele>97.75</ele></trkpt>
   <trkpt lat="51.864084" lon="-0.185943"><ele>98</ele></trkpt>
   <trkpt lat="51.861827" lon="-0.185632"><ele>97.5</ele></trkpt>
   <trkpt lat="51.861696" lon="-0.185639"><ele>97.25</ele></trkpt>
   <trkpt lat="51.858465" lon="-0.185408"><ele>98.75</ele></trkpt>
   <trkpt lat="51.856903" lon="-0.185198"><ele>99</ele></trkpt>
   <trkpt lat="51.856103" lon="-0.185057"><ele>100.25</ele></trkpt>
   <trkpt lat="51.855302" lon="-0.184881"><ele>99.75</ele></trkpt>
   <trkpt lat="51.85361" lon="-0.184488"><ele>98.75</ele></trkpt>
   <trkpt lat="51.853508" lon="-0.184465"><ele>99.5</ele></trkpt>
   <trkpt lat="51.850124" lon="-0.183627"><ele>101</ele></trkpt>
   <trkpt lat="51.849216" lon="-0.183416"><ele>102</ele></trkpt>
   <trkpt lat="51.8482" lon="-0.183163"><ele>102.25</ele></trkpt>
   <trkpt lat="51.847489" lon="-0.182986"><ele>101.75</ele></trkpt>
   <trkpt lat="51.846164" lon="-0.182698"><ele>100.5</ele></trkpt>
   <trkpt lat="51.84503" lon="-0.182601"><ele>98.5</ele></trkpt>
   <trkpt lat="51.844404" lon="-0.182604"><ele>98</ele></trkpt>
   <trkpt lat="51.844013" lon="-0.182627"><ele>97</ele></trkpt>
   <trkpt lat="51.843315" lon="-0.182719"><ele>94.5</ele></trkpt>
   <trkpt lat="51.842831" lon="-0.182874"><ele>96.75</ele></trkpt>
   <trkpt lat="51.842242" lon="-0.183013"><ele>96.75</ele></trkpt>
   <trkpt lat="51.841636" lon="-0.183208"><ele>96.5</ele></trkpt>
   <trkpt lat="51.839919" lon="-0.183929"><ele>96.5</ele></trkpt>
   <trkpt lat="51.839715" lon="-0.184041"><ele>96.5</ele></trkpt>
   <trkpt lat="51.837013" lon="-0.185223"><ele>96.5</ele></trkpt>
   <trkpt lat="51.831734" lon="-0.188119"><ele>96.75</ele></trkpt>
   <trkpt lat="51.829589" lon="-0.189167"><ele>96.75</ele></trkpt>
   <trkpt lat="51.826032" lon="-0.190972"><ele>96</ele></trkpt>
   <trkpt lat="51.824879" lon="-0.191537"><ele>91</ele></trkpt>
   <trkpt lat="51.823557" lon="-0.192207"><ele>88</ele></trkpt>
   <trkpt lat="51.822902" lon="-0.192506"><ele>86.25</ele></trkpt>
   <trkpt lat="51.822736" lon="-0.192587"><ele>84.75</ele></trkpt>
   <trkpt lat="51.821726" lon="-0.1931"><ele>87.75</ele></trkpt>
   <trkpt lat="51.820842" lon="-0.193534"><ele>82.75</ele></trkpt>
   <trkpt lat="51.816849" lon="-0.195557"><ele>82.5</ele></trkpt>
   <trkpt lat="51.816248" lon="-0.195844"><ele>87.75</ele></trkpt>
   <trkpt lat="51.812255" lon="-0.197856"><ele>91.25</ele></trkpt>
   <trkpt lat="51.805715" lon="-0.201137"><ele>88</ele></trkpt>
   <trkpt lat="51.804443" lon="-0.201777"><ele>87.25</ele></trkpt>
   <trkpt lat="51.804048" lon="-0.201973"><ele>87</ele></trkpt>
   <trkpt lat="51.803496" lon="-0.20218"><ele>86.75</ele></trkpt>
   <trkpt lat="51.802666" lon="-0.202595"><ele>86</ele></trkpt>
   <trkpt lat="51.800863" lon="-0.203498"><ele>85.25</ele></trkpt>
   <trkpt lat="51.800201" lon="-0.203828"><ele>85</ele></trkpt>
   <trkpt lat="51.799359" lon="-0.204255"><ele>84.75</ele></trkpt>
   <trkpt lat="51.798837" lon="-0.204511"><ele>84</ele></trkpt>
   <trkpt lat="51.798168" lon="-0.204849"><ele>84</ele></trkpt>
   <trkpt lat="51.79667" lon="-0.205633"><ele>83</ele></trkpt>
   <trkpt lat="51.795849" lon="-0.206082"><ele>83.25</ele></trkpt>
   <trkpt lat="51.792754" lon="-0.20781"><ele>81</ele></trkpt>
   <trkpt lat="51.787736" lon="-0.210611"><ele>78</ele></trkpt>
   <trkpt lat="51.781806" lon="-0.213921"><ele>71</ele></trkpt>
   <trkpt lat="51.781645" lon="-0.214015"><ele>69.75</ele></trkpt>
   <trkpt lat="51.780353" lon="-0.214742"><ele>73</ele></trkpt>
   <trkpt lat="51.779629" lon="-0.215115"><ele>71.5</ele></trkpt>
   <trkpt lat="51.779233" lon="-0.215338"><ele>68.5</ele></trkpt>
   <trkpt lat="51.778345" lon="-0.215651"><ele>71.5</ele></trkpt>
   <trkpt lat="51.777752" lon="-0.215842"><ele>72</ele></trkpt>
   <trkpt lat="51.776743" lon="-0.216012"><ele>72.25</ele></trkpt>
   <trkpt lat="51.776237" lon="-0.216066"><ele>73</ele></trkpt>
   <trkpt lat="51.774945" lon="-0.216068"><ele>73.25</ele></trkpt>
   <trkpt lat="51.767814" lon="-0.215686"><ele>77</ele></trkpt>
   <trkpt lat="51.766785" lon="-0.215654"><ele>77</ele></trkpt>
   <trkpt lat="51.766237" lon="-0.215621"><ele>77</ele></trkpt>
   <trkpt lat="51.765826" lon="-0.215615"><ele>77</ele></trkpt>
   <trkpt lat="51.76506" lon="-0.215628"><ele>77.25</ele></trkpt>
   <trkpt lat="51.764388" lon="-0.215692"><ele>77.25</ele></trkpt>
   <trkpt lat="51.763369" lon="-0.215853"><ele>77.75</ele></trkpt>
   <trkpt lat="51.762953" lon="-0.215961"><ele>78.5</ele></trkpt>
   <trkpt lat="51.762262" lon="-0.216141"><ele>78</ele></trkpt>
   <trkpt lat="51.76181" lon="-0.216325"><ele>77.25</ele></trkpt>
   <trkpt lat="51.761418" lon="-0.216485"><ele>76</ele></trkpt>
   <trkpt lat="51.760311" lon="-0.217054"><ele>78.75</ele></trkpt>
   <trkpt lat="51.759782" lon="-0.217427"><ele>79</ele></trkpt>
   <trkpt lat="51.758702" lon="-0.218297"><ele>79.5</ele></trkpt>
   <trkpt lat="51.757599" lon="-0.219239"><ele>81.5</ele></trkpt>
   <trkpt lat="51.75653" lon="-0.220112"><ele>82.25</ele></trkpt>
   <trkpt lat="51.755928" lon="-0.220552"><ele>82</ele></trkpt>
   <trkpt lat="51.755149" lon="-0.220972"><ele>83</ele></trkpt>
   <trkpt lat="51.754312" lon="-0.221365"><ele>83</ele></trkpt>
   <trkpt lat="51.753369" lon="-0.221693"><ele>84</ele></trkpt>
   <trkpt lat="51.752168" lon="-0.221936"><ele>84.25</ele></trkpt>
   <trkpt lat="51.750929" lon="-0.221998"><ele>85.75</ele></trkpt>
   <trkpt lat="51.749837" lon="-0.22191"><ele>85.5</ele></trkpt>
   <trkpt lat="51.748685" lon="-0.221663"><ele>85.5</ele></trkpt>
   <trkpt lat="51.747356" lon="-0.221192"><ele>86.5</ele></trkpt>
   <trkpt lat="51.745818" lon="-0.220301"><ele>87</ele></trkpt>
   <trkpt lat="51.744325" lon="-0.21915"><ele>88</ele></trkpt>
   <trkpt lat="51.742169" lon="-0.216846"><ele>89</ele></trkpt>
   <trkpt lat="51.739292" lon="-0.213641"><ele>88</ele></trkpt>
   <trkpt lat="51.736425" lon="-0.210472"><ele>87.25</ele></trkpt>
   <trkpt lat="51.735663" lon="-0.209665"><ele>87</ele></trkpt>
   <trkpt lat="51.73503" lon="-0.209011"><ele>88.25</ele></trkpt>
   <trkpt lat="51.73381" lon="-0.207968"><ele>87.75</ele></trkpt>
   <trkpt lat="51.733194" lon="-0.207526"><ele>87.75</ele></trkpt>
   <trkpt lat="51.732532" lon="-0.207103"><ele>85.25</ele></trkpt>
   <trkpt lat="51.732427" lon="-0.207042"><ele>85.5</ele></trkpt>
   <trkpt lat="51.731553" lon="-0.206539"><ele>87.5</ele></trkpt>
   <trkpt lat="51.730174" lon="-0.205921"><ele>88</ele></trkpt>
   <trkpt lat="51.729023" lon="-0.205526"><ele>88.5</ele></trkpt>
   <trkpt lat="51.727893" lon="-0.20528"><ele>88.75</ele></trkpt>
   <trkpt lat="51.72688" lon="-0.205141"><ele>88.5</ele></trkpt>
   <trkpt lat="51.723877" lon="-0.204919"><ele>89.5</ele></trkpt>
   <trkpt lat="51.721787" lon="-0.204778"><ele>91.25</ele></trkpt>
   <trkpt lat="51.721175" lon="-0.204663"><ele>91</ele></trkpt>
   <trkpt lat="51.720741" lon="-0.204585"><ele>91</ele></trkpt>
   <trkpt lat="51.720452" lon="-0.204571"><ele>91</ele></trkpt>
   <trkpt lat="51.72031" lon="-0.204564"><ele>91</ele></trkpt>
   <trkpt lat="51.718956" lon="-0.204582"><ele>92</ele></trkpt>
   <trkpt lat="51.718475" lon="-0.20454"><ele>92</ele></trkpt>
   <trkpt lat="51.71646" lon="-0.204392"><ele>91.5</ele></trkpt>
   <trkpt lat="51.715449" lon="-0.204269"><ele>92.5</ele></trkpt>
   <trkpt lat="51.714448" lon="-0.204096"><ele>93.75</ele></trkpt>
   <trkpt lat="51.713581" lon="-0.203896"><ele>94</ele></trkpt>
   <trkpt lat="51.711891" lon="-0.203404"><ele>95.25</ele></trkpt>
   <trkpt lat="51.710561" lon="-0.202901"><ele>96</ele></trkpt>
   <trkpt lat="51.709576" lon="-0.202449"><ele>95.5</ele></trkpt>
   <trkpt lat="51.709169" lon="-0.20225"><ele>95</ele></trkpt>
   <trkpt lat="51.707401" lon="-0.20128"><ele>93.5</ele></trkpt>
   <trkpt lat="51.707309" lon="-0.201229"><ele>93.5</ele></trkpt>
   <trkpt lat="51.706421" lon="-0.200654"><ele>94</ele></trkpt>
   <trkpt lat="51.704861" lon="-0.199522"><ele>95.75</ele></trkpt>
   <trkpt lat="51.704039" lon="-0.198834"><ele>96</ele></trkpt>
   <trkpt lat="51.702402" lon="-0.197541"><ele>96.75</ele></trkpt>
   <trkpt lat="51.701157" lon="-0.196472"><ele>96.75</ele></trkpt>
   <trkpt lat="51.699821" lon="-0.195258"><ele>97.25</ele></trkpt>
   <trkpt lat="51.699165" lon="-0.194618"><ele>97</ele></trkpt>
   <trkpt lat="51.698835" lon="-0.194285"><ele>97.5</ele></trkpt>
   <trkpt lat="51.698514" lon="-0.193937"><ele>97.25</ele></trkpt>
   <trkpt lat="51.697888" lon="-0.193229"><ele>97.5</ele></trkpt>
   <trkpt lat="51.697638" lon="-0.19296"><ele>97.5</ele></trkpt>
   <trkpt lat="51.697251" lon="-0.192568"><ele>97.75</ele></trkpt>
   <trkpt lat="51.696882" lon="-0.1922"><ele>96.5</ele></trkpt>
   <trkpt lat="51.696666" lon="-0.191983"><ele>97.25</ele></trkpt>
   <trkpt lat="51.696426" lon="-0.191718"><ele>97.75</ele></trkpt>
   <trkpt lat="51.694946" lon="-0.190052"><ele>98.5</ele></trkpt>
   <trkpt lat="51.694357" lon="-0.189357"><ele>98.75</ele></trkpt>
   <trkpt lat="51.691968" lon="-0.186663"><ele>97.5</ele></trkpt>
   <trkpt lat="51.69109" lon="-0.185696"><ele>97.25</ele></trkpt>
   <trkpt lat="51.690153" lon="-0.184818"><ele>97</ele></trkpt>
   <trkpt lat="51.689304" lon="-0.184155"><ele>95.5</ele></trkpt>
   <trkpt lat="51.68858" lon="-0.183663"><ele>95</ele></trkpt>
   <trkpt lat="51.684364" lon="-0.181027"><ele>92.25</ele></trkpt>
   <trkpt lat="51.679231" lon="-0.17785"><ele>89.25</ele></trkpt>
   <trkpt lat="51.678552" lon="-0.177463"><ele>89.25</ele></trkpt>
   <trkpt lat="51.678128" lon="-0.177249"><ele>88.75</ele></trkpt>
   <trkpt lat="51.677773" lon="-0.17709"><ele>89.25</ele></trkpt>
   <trkpt lat="51.677444" lon="-0.176954"><ele>88</ele></trkpt>
   <trkpt lat="51.677151" lon="-0.176846"><ele>88.5</ele></trkpt>
   <trkpt lat="51.676737" lon="-0.176715"><ele>87.25</ele></trkpt>
   <trkpt lat="51.676311" lon="-0.176603"><ele>87</ele></trkpt>
   <trkpt lat="51.675844" lon="-0.176507"><ele>86.25</ele></trkpt>
   <trkpt lat="51.675403" lon="-0.176438"><ele>86</ele></trkpt>
   <trkpt lat="51.674481" lon="-0.176355"><ele>86</ele></trkpt>
   <trkpt lat="51.673032" lon="-0.176269"><ele>88</ele></trkpt>
   <trkpt lat="51.67112" lon="-0.17615"><ele>88.25</ele></trkpt>
   <trkpt lat="51.668239" lon="-0.175976"><ele>83.75</ele></trkpt>
   <trkpt lat="51.667387" lon="-0.175923"><ele>87.75</ele></trkpt>
   <trkpt lat="51.66423" lon="-0.175735"><ele>84.75</ele></trkpt>
   <trkpt lat="51.662498" lon="-0.175632"><ele>79.5</ele></trkpt>
   <trkpt lat="51.661605" lon="-0.175563"><ele>79</ele></trkpt>
   <trkpt lat="51.658877" lon="-0.175321"><ele>78.75</ele></trkpt>
   <trkpt lat="51.656272" lon="-0.175178"><ele>74.25</ele></trkpt>
   <trkpt lat="51.65566" lon="-0.175157"><ele>74</ele></trkpt>
   <trkpt lat="51.654954" lon="-0.175076"><ele>74</ele></trkpt>
   <trkpt lat="51.654206" lon="-0.17495"><ele>73.25</ele></trkpt>
   <trkpt lat="51.653606" lon="-0.174825"><ele>73.25</ele></trkpt>
   <trkpt lat="51.652998" lon="-0.174664"><ele>72.25</ele></trkpt>
   <trkpt lat="51.652328" lon="-0.174454"><ele>72.5</ele></trkpt>
   <trkpt lat="51.651661" lon="-0.174183"><ele>71.75</ele></trkpt>
   <trkpt lat="51.65101" lon="-0.17391"><ele>71.25</ele></trkpt>
   <trkpt lat="51.650347" lon="-0.173554"><ele>69.5</ele></trkpt>
   <trkpt lat="51.650023" lon="-0.173391"><ele>70.5</ele></trkpt>
   <trkpt lat="51.648969" lon="-0.172771"><ele>71</ele></trkpt>
   <trkpt lat="51.648411" lon="-0.172459"><ele>71</ele></trkpt>
   <trkpt lat="51.647731" lon="-0.172148"><ele>70.5</ele></trkpt>
   <trkpt lat="51.646668" lon="-0.171698"><ele>69.75</ele></trkpt>
   <trkpt lat="51.645894" lon="-0.171322"><ele>69.25</ele></trkpt>
   <trkpt lat="51.64445" lon="-0.170597"><ele>68.75</ele></trkpt>
   <trkpt lat="51.643701" lon="-0.170156"><ele>64.25</ele></trkpt>
   <trkpt lat="51.643224" lon="-0.16991"><ele>63.75</ele></trkpt>
   <trkpt lat="51.642603" lon="-0.169631"><ele>67.5</ele></trkpt>
   <trkpt lat="51.641538" lon="-0.169041"><ele>67</ele></trkpt>
   <trkpt lat="51.640734" lon="-0.168556"><ele>67</ele></trkpt>
   <trkpt lat="51.640284" lon="-0.16825"><ele>66</ele></trkpt>
   <trkpt lat="51.639745" lon="-0.167856"><ele>66</ele></trkpt>
   <trkpt lat="51.639224" lon="-0.167434"><ele>66</ele></trkpt>
   <trkpt lat="51.638426" lon="-0.166694"><ele>65.5</ele></trkpt>
   <trkpt lat="51.637348" lon="-0.165719"><ele>65.5</ele></trkpt>
   <trkpt lat="51.637111" lon="-0.165517"><ele>65</ele></trkpt>
   <trkpt lat="51.636006" lon="-0.164531"><ele>64.75</ele></trkpt>
   <trkpt lat="51.63557" lon="-0.164128"><ele>64.25</ele></trkpt>
   <trkpt lat="51.634989" lon="-0.163559"><ele>63.5</ele></trkpt>
   <trkpt lat="51.634185" lon="-0.162677"><ele>63.75</ele></trkpt>
   <trkpt lat="51.632728" lon="-0.161228"><ele>63</ele></trkpt>
   <trkpt lat="51.631663" lon="-0.160111"><ele>65.75</ele></trkpt>
   <trkpt lat="51.627413" lon="-0.155951"><ele>65</ele></trkpt>
   <trkpt lat="51.625794" lon="-0.154461"><ele>57</ele></trkpt>
   <trkpt lat="51.623024" lon="-0.15174"><ele>56</ele></trkpt>
   <trkpt lat="51.619444" lon="-0.148237"><ele>52.75</ele></trkpt>
   <trkpt lat="51.615857" lon="-0.144702"><ele>51.25</ele></trkpt>
   <trkpt lat="51.61489" lon="-0.143699"><ele>51.75</ele></trkpt>
   <trkpt lat="51.614514" lon="-0.14329"><ele>51.25</ele></trkpt>
   <trkpt lat="51.613846" lon="-0.142591"><ele>49.5</ele></trkpt>
   <trkpt lat="51.613414" lon="-0.142194"><ele>49</ele></trkpt>
   <trkpt lat="51.613206" lon="-0.142009"><ele>49</ele></trkpt>
   <trkpt lat="51.612611" lon="-0.141525"><ele>48</ele></trkpt>
   <trkpt lat="51.611339" lon="-0.140147"><ele>46.5</ele></trkpt>
   <trkpt lat="51.610151" lon="-0.138586"><ele>42</ele></trkpt>
   <trkpt lat="51.60805" lon="-0.135184"><ele>41.5</ele></trkpt>
   <trkpt lat="51.604139" lon="-0.128876"><ele>41</ele></trkpt>
   <trkpt lat="51.603956" lon="-0.128559"><ele>41</ele></trkpt>
   <trkpt lat="51.602443" lon="-0.126235"><ele>41</ele></trkpt>
   <trkpt lat="51.601315" lon="-0.124444"><ele>40</ele></trkpt>
   <trkpt lat="51.600642" lon="-0.123468"><ele>39.25</ele></trkpt>
   <trkpt lat="51.600259" lon="-0.122956"><ele>39.25</ele></trkpt>
   <trkpt lat="51.59978" lon="-0.122332"><ele>39</ele></trkpt>
   <trkpt lat="51.599504" lon="-0.122006"><ele>39</ele></trkpt>
   <trkpt lat="51.599188" lon="-0.121613"><ele>38</ele></trkpt>
   <trkpt lat="51.5987" lon="-0.121038"><ele>38</ele></trkpt>
   <trkpt lat="51.59814" lon="-0.120413"><ele>37.5</ele></trkpt>
   <trkpt lat="51.59785" lon="-0.120113"><ele>37.25</ele></trkpt>
   <trkpt lat="51.597641" lon="-0.119919"><ele>37</ele></trkpt>
   <trkpt lat="51.597159" lon="-0.119521"><ele>37</ele></trkpt>
   <trkpt lat="51.596607" lon="-0.1191"><ele>36</ele></trkpt>
   <trkpt lat="51.596251" lon="-0.118819"><ele>36</ele></trkpt>
   <trkpt lat="51.595704" lon="-0.118451"><ele>35.75</ele></trkpt>
   <trkpt lat="51.595302" lon="-0.118119"><ele>35</ele></trkpt>
   <trkpt lat="51.594294" lon="-0.117338"><ele>35</ele></trkpt>
   <trkpt lat="51.593487" lon="-0.1167"><ele>34</ele></trkpt>
   <trkpt lat="51.592366" lon="-0.115806"><ele>34</ele></trkpt>
   <trkpt lat="51.591749" lon="-0.115324"><ele>34</ele></trkpt>
   <trkpt lat="51.590081" lon="-0.11399"><ele>34.25</ele></trkpt>
   <trkpt lat="51.58875" lon="-0.112953"><ele>35.25</ele></trkpt>
   <trkpt lat="51.588307" lon="-0.112652"><ele>30.75</ele></trkpt>
   <trkpt lat="51.588159" lon="-0.112553"><ele>33</ele></trkpt>
   <trkpt lat="51.587976" lon="-0.11244"><ele>36</ele></trkpt>
   <trkpt lat="51.587613" lon="-0.112241"><ele>35.75</ele></trkpt>
   <trkpt lat="51.586808" lon="-0.11182"><ele>36</ele></trkpt>
   <trkpt lat="51.586135" lon="-0.111495"><ele>36</ele></trkpt>
   <trkpt lat="51.585418" lon="-0.111128"><ele>36</ele></trkpt>
   <trkpt lat="51.584979" lon="-0.110873"><ele>36</ele></trkpt>
   <trkpt lat="51.584683" lon="-0.110688"><ele>36.5</ele></trkpt>
   <trkpt lat="51.584277" lon="-0.110398"><ele>36.75</ele></trkpt>
   <trkpt lat="51.583911" lon="-0.110115"><ele>36.75</ele></trkpt>
   <trkpt lat="51.583267" lon="-0.109551"><ele>37</ele></trkpt>
   <trkpt lat="51.582633" lon="-0.108928"><ele>37.5</ele></trkpt>
   <trkpt lat="51.581833" lon="-0.108109"><ele>38</ele></trkpt>
   <trkpt lat="51.580984" lon="-0.107305"><ele>39</ele></trkpt>
   <trkpt lat="51.580315" lon="-0.106758"><ele>39</ele></trkpt>
   <trkpt lat="51.579853" lon="-0.106429"><ele>39</ele></trkpt>
   <trkpt lat="51.579516" lon="-0.106215"><ele>39.25</ele></trkpt>
   <trkpt lat="51.579222" lon="-0.106041"><ele>39.75</ele></trkpt>
   <trkpt lat="51.578666" lon="-0.105756"><ele>40</ele></trkpt>
   <trkpt lat="51.578346" lon="-0.105611"><ele>39.75</ele></trkpt>
   <trkpt lat="51.577718" lon="-0.105361"><ele>40</ele></trkpt>
   <trkpt lat="51.577478" lon="-0.105282"><ele>40</ele></trkpt>
   <trkpt lat="51.576909" lon="-0.10514"><ele>40</ele></trkpt>
   <trkpt lat="51.576775" lon="-0.105115"><ele>40</ele></trkpt>
   <trkpt lat="51.576572" lon="-0.105078"><ele>39.5</ele></trkpt>
   <trkpt lat="51.57619" lon="-0.105028"><ele>39</ele></trkpt>
   <trkpt lat="51.575824" lon="-0.105001"><ele>39</ele></trkpt>
   <trkpt lat="51.575397" lon="-0.104986"><ele>37.75</ele></trkpt>
   <trkpt lat="51.575252" lon="-0.10499"><ele>37</ele></trkpt>
   <trkpt lat="51.574366" lon="-0.105042"><ele>38.75</ele></trkpt>
   <trkpt lat="51.573125" lon="-0.105183"><ele>38.25</ele></trkpt>
   <trkpt lat="51.569696" lon="-0.105632"><ele>37</ele></trkpt>
   <trkpt lat="51.568987" lon="-0.105734"><ele>37</ele></trkpt>
   <trkpt lat="51.568848" lon="-0.105752"><ele>37</ele></trkpt>
   <trkpt lat="51.56884" lon="-0.105753"><ele>37</ele></trkpt>
   <trkpt lat="51.566591" lon="-0.106041"><ele>36.75</ele></trkpt>
   <trkpt lat="51.565616" lon="-0.106172"><ele>33</ele></trkpt>
   <trkpt lat="51.565362" lon="-0.1062"><ele>35.25</ele></trkpt>
   <trkpt lat="51.564055" lon="-0.106374"><ele>34.25</ele></trkpt>
   <trkpt lat="51.563857" lon="-0.1064"><ele>32.25</ele></trkpt>
   <trkpt lat="51.563638" lon="-0.106434"><ele>34</ele></trkpt>
   <trkpt lat="51.562856" lon="-0.106566"><ele>35</ele></trkpt>
   <trkpt lat="51.56248" lon="-0.106639"><ele>35</ele></trkpt>
   <trkpt lat="51.562004" lon="-0.106751"><ele>35</ele></trkpt>
   <trkpt lat="51.561129" lon="-0.106991"><ele>34</ele></trkpt>
   <trkpt lat="51.560541" lon="-0.107199"><ele>34.5</ele></trkpt>
   <trkpt lat="51.560033" lon="-0.107402"><ele>33.5</ele></trkpt>
   <trkpt lat="51.559742" lon="-0.107533"><ele>34.75</ele></trkpt>
   <trkpt lat="51.559306" lon="-0.107737"><ele>34.75</ele></trkpt>
   <trkpt lat="51.5589" lon="-0.107944"><ele>34.75</ele></trkpt>
   <trkpt lat="51.558543" lon="-0.108146"><ele>32.75</ele></trkpt>
   <trkpt lat="51.55825" lon="-0.108319"><ele>31.75</ele></trkpt>
   <trkpt lat="51.557913" lon="-0.108528"><ele>34.5</ele></trkpt>
   <trkpt lat="51.557482" lon="-0.108827"><ele>34.75</ele></trkpt>
   <trkpt lat="51.557205" lon="-0.109022"><ele>34.75</ele></trkpt>
   <trkpt lat="51.556719" lon="-0.109393"><ele>34.75</ele></trkpt>
   <trkpt lat="51.556009" lon="-0.109985"><ele>34.5</ele></trkpt>
   <trkpt lat="51.555874" lon="-0.110113"><ele>34.25</ele></trkpt>
   <trkpt lat="51.555643" lon="-0.110327"><ele>34.75</ele></trkpt>
   <trkpt lat="51.555114" lon="-0.110843"><ele>29.75</ele></trkpt>
   <trkpt lat="51.554866" lon="-0.11109"><ele>29.5</ele></trkpt>
   <trkpt lat="51.554805" lon="-0.111149"><ele>31</ele></trkpt>
   <trkpt lat="51.554303" lon="-0.111706"><ele>34.75</ele></trkpt>
   <trkpt lat="51.554116" lon="-0.111922"><ele>34.5</ele></trkpt>
   <trkpt lat="51.553598" lon="-0.112556"><ele>34.75</ele></trkpt>
   <trkpt lat="51.553383" lon="-0.112834"><ele>31</ele></trkpt>
   <trkpt lat="51.553354" lon="-0.112871"><ele>30</ele></trkpt>
   <trkpt lat="51.553141" lon="-0.113158"><ele>31.25</ele></trkpt>
   <trkpt lat="51.552974" lon="-0.113383"><ele>32.75</ele></trkpt>
   <trkpt lat="51.552963" lon="-0.113399"><ele>32.5</ele></trkpt>
   <trkpt lat="51.552518" lon="-0.113972"><ele>33.75</ele></trkpt>
   <trkpt lat="51.552255" lon="-0.114336"><ele>33</ele></trkpt>
   <trkpt lat="51.552019" lon="-0.114693"><ele>32.75</ele></trkpt>
   <trkpt lat="51.552008" lon="-0.114709"><ele>32.75</ele></trkpt>
   <trkpt lat="51.551529" lon="-0.115442"><ele>32</ele></trkpt>
   <trkpt lat="51.551104" lon="-0.116067"><ele>32</ele></trkpt>
   <trkpt lat="51.550782" lon="-0.116504"><ele>31.5</ele></trkpt>
   <trkpt lat="51.550625" lon="-0.116706"><ele>31</ele></trkpt>
   <trkpt lat="51.55033" lon="-0.117057"><ele>30.5</ele></trkpt>
   <trkpt lat="51.549895" lon="-0.117528"><ele>30.25</ele></trkpt>
   <trkpt lat="51.549166" lon="-0.118245"><ele>29.75</ele></trkpt>
   <trkpt lat="51.548648" lon="-0.118725"><ele>28.5</ele></trkpt>
   <trkpt lat="51.548543" lon="-0.118823"><ele>28.5</ele></trkpt>
   <trkpt lat="51.547902" lon="-0.11941"><ele>28.75</ele></trkpt>
   <trkpt lat="51.547694" lon="-0.119588"><ele>28.75</ele></trkpt>
   <trkpt lat="51.547494" lon="-0.119735"><ele>28.5</ele></trkpt>
   <trkpt lat="51.547352" lon="-0.119827"><ele>28.25</ele></trkpt>
   <trkpt lat="51.545284" lon="-0.120908"><ele>26.25</ele></trkpt>
   <trkpt lat="51.543865" lon="-0.121649"><ele>24.75</ele></trkpt>
   <trkpt lat="51.543418" lon="-0.121882"><ele>24.25</ele></trkpt>
   <trkpt lat="51.542714" lon="-0.122245"><ele>23.75</ele></trkpt>
   <trkpt lat="51.542333" lon="-0.122429"><ele>23.75</ele></trkpt>
   <trkpt lat="51.542023" lon="-0.122537"><ele>23.5</ele></trkpt>
   <trkpt lat="51.541648" lon="-0.122642"><ele>22.75</ele></trkpt>
   <trkpt lat="51.541618" lon="-0.122651"><ele>22.75</ele></trkpt>
   <trkpt lat="51.541369" lon="-0.122724"><ele>22.5</ele></trkpt>
   <trkpt lat="51.541061" lon="-0.122852"><ele>22.25</ele></trkpt>
   <trkpt lat="51.540881" lon="-0.122896"><ele>22</ele></trkpt>
   <trkpt lat="51.540403" lon="-0.122976"><ele>20.75</ele></trkpt>
   <trkpt lat="51.539971" lon="-0.123024"><ele>19.75</ele></trkpt>
   <trkpt lat="51.539267" lon="-0.123079"><ele>19.25</ele></trkpt>
   <trkpt lat="51.538177" lon="-0.123159"><ele>18.5</ele></trkpt>
   <trkpt lat="51.535906" lon="-0.123327"><ele>17</ele></trkpt>
   <trkpt lat="51.535196" lon="-0.123359"><ele>16.5</ele></trkpt>
   <trkpt lat="51.53492" lon="-0.123376"><ele>16.5</ele></trkpt>
   <trkpt lat="51.534775" lon="-0.123399"><ele>16.5</ele></trkpt>
   <trkpt lat="51.534719" lon="-0.123411"><ele>15.25</ele></trkpt>
   <trkpt lat="51.534366" lon="-0.123433"><ele>15.25</ele></trkpt>
   <trkpt lat="51.534704" lon="-0.123365"><ele>15</ele></trkpt>
   <trkpt lat="51.53442" lon="-0.123381"><ele>15</ele></trkpt>
   <trkpt lat="51.534063" lon="-0.123401"><ele>15</ele></trkpt>
   <trkpt lat="51.533657" lon="-0.123418"><ele>15</ele></trkpt>
   <trkpt lat="51.533219" lon="-0.123449"><ele>15</ele></trkpt>
   <trkpt lat="51.531356" lon="-0.123547"><ele>16.75</ele></trkpt>
  </trkseg>
 </trk>
</gpx>