<?xml version="1.0" encoding="UTF-8"?>
<!-- track-length = 85385 filtered ascend = 70 plain-ascend = 33 cost=85385 energy=1.1kwh time=1h 53m 51s -->
<gpx 
 xmlns="http://www.topografix.com/GPX/1/1" 
 xmlns:xsi="http://www.w3.org/2001/XMLSchema-instance" 
 xsi:schemaLocation="http://www.topografix.com/GPX/1/1 http://www.topografix.com/GPX/1/1/gpx.xsd" 
 version="1.1" 
 creator="BRouter-Web 99.71.0">
 <trk>
  <name>Paddington-Didcot</name>
  <link href="https://brouter.damsy.net/latest/#map=9/51.6962/-0.9036/standard&amp;lonlats=-0.177605,51.517288;-1.244202,51.613001&amp;profile=rail">
   <text>BRouter-Web</text>
  </link>
  <trkseg>
   <trkpt lat="51.517279" lon="-0.177621"><ele>23</ele></trkpt>
   <trkpt lat="51.517794" lon="-0.178314"><ele>23</ele></trkpt>
   <trkpt lat="51.517969" lon="-0.178631"><ele>23</ele></trkpt>
   <trkpt lat="51.518117" lon="-0.178969"><ele>23</ele></trkpt>
   <trkpt lat="51.518213" lon="-0.179246"><ele>23</ele></trkpt>
   <trkpt lat="51.518306" lon="-0.179562"><ele>23</ele></trkpt>
   <trkpt lat="51.518361" lon="-0.179794"><ele>22.75</ele></trkpt>
   <trkpt lat="51.518407" lon="-0.180052"><ele>23</ele></trkpt>
   <trkpt lat="51.518441" lon="-0.180339"><ele>23</ele></trkpt>
   <trkpt lat="51.518489" lon="-0.180958"><ele>22.25</ele></trkpt>
   <trkpt lat="51.518517" lon="-0.181422"><ele>22</ele></trkpt>
   <trkpt lat="51.518525" lon="-0.181574"><ele>22</ele></trkpt>
   <trkpt lat="51.518654" lon="-0.183543"><ele>21</ele></trkpt>
   <trkpt lat="51.518688" lon="-0.184472"><ele>21.25</ele></trkpt>
   <trkpt lat="51.518721" lon="-0.185066"><ele>21.25</ele></trkpt>
   <trkpt lat="51.518825" lon="-0.186655"><ele>21.75</ele></trkpt>
   <trkpt lat="51.51885" lon="-0.187092"><ele>21.75</ele></trkpt>
   <trkpt lat="51.518851" lon="-0.187109"><ele>21.75</ele></trkpt>
   <trkpt lat="51.518854" lon="-0.18716"><ele>21.75</ele></trkpt>
   <trkpt lat="51.518874" lon="-0.187482"><ele>21.75</ele></trkpt>
   <trkpt lat="51.518912" lon="-0.188008"><ele>21</ele></trkpt>
   <trkpt lat="51.519024" lon="-0.18943"><ele>21.25</ele></trkpt>
   <trkpt lat="51.519151" lon="-0.190805"><ele>22</ele></trkpt>
   <trkpt lat="51.519302" lon="-0.192148"><ele>21.75</ele></trkpt>
   <trkpt lat="51.519401" lon="-0.192843"><ele>23</ele></trkpt>
   <trkpt lat="51.519537" lon="-0.193605"><ele>22.5</ele></trkpt>
   <trkpt lat="51.519673" lon="-0.194311"><ele>23</ele></trkpt>
   <trkpt lat="51.519852" lon="-0.195094"><ele>22.25</ele></trkpt>
   <trkpt lat="51.520015" lon="-0.195737"><ele>23</ele></trkpt>
   <trkpt lat="51.520141" lon="-0.196324"><ele>22.5</ele></trkpt>
   <trkpt lat="51.520232" lon="-0.196752"><ele>22.5</ele></trkpt>
   <trkpt lat="51.520517" lon="-0.198053"><ele>22.75</ele></trkpt>
   <trkpt lat="51.520658" lon="-0.198668"><ele>22.5</ele></trkpt>
   <trkpt lat="51.521028" lon="-0.200141"><ele>22</ele></trkpt>
   <trkpt lat="51.521177" lon="-0.20069"><ele>22.5</ele></trkpt>
   <trkpt lat="51.521252" lon="-0.200968"><ele>23</ele></trkpt>
   <trkpt lat="51.521684" lon="-0.202571"><ele>22</ele></trkpt>
   <trkpt lat="51.521691" lon="-0.202597"><ele>22</ele></trkpt>
   <trkpt lat="51.521721" lon="-0.202701"><ele>22</ele></trkpt>
   <trkpt lat="51.521755" lon="-0.202829"><ele>22.25</ele></trkpt>
   <trkpt lat="51.522214" lon="-0.204616"><ele>22.75</ele></trkpt>
   <trkpt lat="51.522284" lon="-0.204867"><ele>23.25</ele></trkpt>
   <trkpt lat="51.522696" lon="-0.206445"><ele>23</ele></trkpt>
   <trkpt lat="51.522932" lon="-0.207292"><ele>24.25</ele></trkpt>
   <trkpt lat="51.523136" lon="-0.208005"><ele>23.25</ele></trkpt>
   <trkpt lat="51.523296" lon="-0.20859"><ele>23.25</ele></trkpt>
   <trkpt lat="51.523302" lon="-0.208611"><ele>23</ele></trkpt>
   <trkpt lat="51.52339" lon="-0.208935"><ele>23.5</ele></trkpt>
   <trkpt lat="51.523629" lon="-0.209849"><ele>23</ele></trkpt>
   <trkpt lat="51.524039" lon="-0.21163"><ele>23.25</ele></trkpt>
   <trkpt lat="51.524206" lon="-0.212493"><ele>23</ele></trkpt>
   <trkpt lat="51.524409" lon="-0.213681"><ele>22.5</ele></trkpt>
   <trkpt lat="51.524635" lon="-0.214962"><ele>22.5</ele></trkpt>
   <trkpt lat="51.524732" lon="-0.215628"><ele>23</ele></trkpt>
   <trkpt lat="51.524917" lon="-0.217028"><ele>23</ele></trkpt>
   <trkpt lat="51.524939" lon="-0.217175"><ele>23</ele></trkpt>
   <trkpt lat="51.525081" lon="-0.218197"><ele>23</ele></trkpt>
   <trkpt lat="51.525111" lon="-0.218418"><ele>23</ele></trkpt>
   <trkpt lat="51.525212" lon="-0.219261"><ele>24</ele></trkpt>
   <trkpt lat="51.525322" lon="-0.220324"><ele>24</ele></trkpt>
   <trkpt lat="51.525391" lon="-0.220992"><ele>24.25</ele></trkpt>
   <trkpt lat="51.525457" lon="-0.22174"><ele>24.25</ele></trkpt>
   <trkpt lat="51.525574" lon="-0.223213"><ele>23.75</ele></trkpt>
   <trkpt lat="51.525649" lon="-0.224286"><ele>25.5</ele></trkpt>
   <trkpt lat="51.525693" lon="-0.225044"><ele>26</ele></trkpt>
   <trkpt lat="51.525735" lon="-0.225942"><ele>25.5</ele></trkpt>
   <trkpt lat="51.525771" lon="-0.22698"><ele>24.25</ele></trkpt>
   <trkpt lat="51.525786" lon="-0.227754"><ele>24</ele></trkpt>
   <trkpt lat="51.525796" lon="-0.228588"><ele>25</ele></trkpt>
   <trkpt lat="51.525793" lon="-0.229574"><ele>25</ele></trkpt>
   <trkpt lat="51.525786" lon="-0.230166"><ele>25</ele></trkpt>
   <trkpt lat="51.525768" lon="-0.230835"><ele>25</ele></trkpt>
   <trkpt lat="51.525732" lon="-0.231907"><ele>25</ele></trkpt>
   <trkpt lat="51.525675" lon="-0.233244"><ele>24.25</ele></trkpt>
   <trkpt lat="51.525572" lon="-0.234999"><ele>24</ele></trkpt>
   <trkpt lat="51.525438" lon="-0.236635"><ele>24.5</ele></trkpt>
   <trkpt lat="51.525257" lon="-0.238224"><ele>24.75</ele></trkpt>
   <trkpt lat="51.525129" lon="-0.239189"><ele>25</ele></trkpt>
   <trkpt lat="51.52501" lon="-0.239979"><ele>25</ele></trkpt>
   <trkpt lat="51.52482" lon="-0.241129"><ele>25</ele></trkpt>
   <trkpt lat="51.524548" lon="-0.242548"><ele>25</ele></trkpt>
   <trkpt lat="51.524391" lon="-0.243278"><ele>25</ele></trkpt>
   <trkpt lat="51.523955" lon="-0.24519"><ele>25</ele></trkpt>
   <trkpt lat="51.523702" lon="-0.246238"><ele>25</ele></trkpt>
   <trkpt lat="51.523475" lon="-0.247137"><ele>25</ele></trkpt>
   <trkpt lat="51.523118" lon="-0.248474"><ele>25</ele></trkpt>
   <trkpt lat="51.522902" lon="-0.249241"><ele>25</ele></trkpt>
   <trkpt lat="51.522728" lon="-0.249828"><ele>25</ele></trkpt>
   <trkpt lat="51.522653" lon="-0.25008"><ele>25.25</ele></trkpt>
   <trkpt lat="51.522254" lon="-0.251341"><ele>25</ele></trkpt>
   <trkpt lat="51.521779" lon="-0.252724"><ele>22.75</ele></trkpt>
   <trkpt lat="51.521674" lon="-0.25301"><ele>24.25</ele></trkpt>
   <trkpt lat="51.521335" lon="-0.253903"><ele>25.75</ele></trkpt>
   <trkpt lat="51.52028" lon="-0.256496"><ele>27</ele></trkpt>
   <trkpt lat="51.519983" lon="-0.257253"><ele>27</ele></trkpt>
   <trkpt lat="51.519599" lon="-0.258266"><ele>28.5</ele></trkpt>
   <trkpt lat="51.519335" lon="-0.258985"><ele>28.5</ele></trkpt>
   <trkpt lat="51.518465" lon="-0.261431"><ele>29.75</ele></trkpt>
   <trkpt lat="51.518123" lon="-0.262531"><ele>29.5</ele></trkpt>
   <trkpt lat="51.517902" lon="-0.263331"><ele>29.75</ele></trkpt>
   <trkpt lat="51.517745" lon="-0.263922"><ele>28.5</ele></trkpt>
   <trkpt lat="51.517409" lon="-0.265349"><ele>27.75</ele></trkpt>
   <trkpt lat="51.516879" lon="-0.267762"><ele>26.25</ele></trkpt>
   <trkpt lat="51.516669" lon="-0.268775"><ele>25.75</ele></trkpt>
   <trkpt lat="51.516474" lon="-0.269797"><ele>26.5</ele></trkpt>
   <trkpt lat="51.516295" lon="-0.2708"><ele>27</ele></trkpt>
   <trkpt lat="51.516003" lon="-0.272571"><ele>28</ele></trkpt>
   <trkpt lat="51.515947" lon="-0.272907"><ele>27.75</ele></trkpt>
   <trkpt lat="51.515739" lon="-0.274297"><ele>28</ele></trkpt>
   <trkpt lat="51.51563" lon="-0.275082"><ele>28</ele></trkpt>
   <trkpt lat="51.515376" lon="-0.277133"><ele>28.5</ele></trkpt>
   <trkpt lat="51.515246" lon="-0.278421"><ele>27.25</ele></trkpt>
   <trkpt lat="51.51513" lon="-0.279655"><ele>28.25</ele></trkpt>
   <trkpt lat="51.515012" lon="-0.281481"><ele>26.75</ele></trkpt>
   <trkpt lat="51.514967" lon="-0.282266"><ele>27.5</ele></trkpt>
   <trkpt lat="51.514918" lon="-0.283328"><ele>27.75</ele></trkpt>
   <trkpt lat="51.514884" lon="-0.284383"><ele>28.25</ele></trkpt>
   <trkpt lat="51.514862" lon="-0.286217"><ele>28.25</ele></trkpt>
   <trkpt lat="51.514854" lon="-0.289101"><ele>28.5</ele></trkpt>
   <trkpt lat="51.514839" lon="-0.294154"><ele>30.25</ele></trkpt>
   <trkpt lat="51.514822" lon="-0.296007"><ele>29.25</ele></trkpt>
   <trkpt lat="51.514804" lon="-0.296946"><ele>29.25</ele></trkpt>
   <trkpt lat="51.514756" lon="-0.298446"><ele>28.75</ele></trkpt>
   <trkpt lat="51.51474" lon="-0.298954"><ele>28</ele></trkpt>
   <trkpt lat="51.514685" lon="-0.300234"><ele>28.25</ele></trkpt>
   <trkpt lat="51.514621" lon="-0.301517"><ele>29.75</ele></trkpt>
   <trkpt lat="51.514544" lon="-0.302812"><ele>30</ele></trkpt>
   <trkpt lat="51.514506" lon="-0.30342"><ele>28.75</ele></trkpt>
   <trkpt lat="51.514422" lon="-0.304764"><ele>29</ele></trkpt>
   <trkpt lat="51.514325" lon="-0.306154"><ele>29.75</ele></trkpt>
   <trkpt lat="51.513805" lon="-0.314478"><ele>29.75</ele></trkpt>
   <trkpt lat="51.513644" lon="-0.317003"><ele>29.75</ele></trkpt>
   <trkpt lat="51.513481" lon="-0.319308"><ele>30</ele></trkpt>
   <trkpt lat="51.513462" lon="-0.319587"><ele>31</ele></trkpt>
   <trkpt lat="51.513438" lon="-0.319852"><ele>30.5</ele></trkpt>
   <trkpt lat="51.513339" lon="-0.321193"><ele>29</ele></trkpt>
   <trkpt lat="51.513192" lon="-0.323"><ele>29</ele></trkpt>
   <trkpt lat="51.513141" lon="-0.323772"><ele>29</ele></trkpt>
   <trkpt lat="51.512891" lon="-0.32668"><ele>28.25</ele></trkpt>
   <trkpt lat="51.512627" lon="-0.329504"><ele>28.25</ele></trkpt>
   <trkpt lat="51.512436" lon="-0.331413"><ele>29</ele></trkpt>
   <trkpt lat="51.512373" lon="-0.3321"><ele>28</ele></trkpt>
   <trkpt lat="51.512025" lon="-0.335385"><ele>27.75</ele></trkpt>
   <trkpt lat="51.511932" lon="-0.336247"><ele>26.25</ele></trkpt>
   <trkpt lat="51.511895" lon="-0.336553"><ele>25.75</ele></trkpt>
   <trkpt lat="51.511641" lon="-0.338674"><ele>29.25</ele></trkpt>
   <trkpt lat="51.511355" lon="-0.340846"><ele>26</ele></trkpt>
   <trkpt lat="51.511266" lon="-0.341486"><ele>22</ele></trkpt>
   <trkpt lat="51.511022" lon="-0.343239"><ele>13.5</ele></trkpt>
   <trkpt lat="51.510554" lon="-0.346694"><ele>29.75</ele></trkpt>
   <trkpt lat="51.510388" lon="-0.347881"><ele>26</ele></trkpt>
   <trkpt lat="51.510103" lon="-0.349836"><ele>26.25</ele></trkpt>
   <trkpt lat="51.509817" lon="-0.351723"><ele>28.25</ele></trkpt>
   <trkpt lat="51.509665" lon="-0.352687"><ele>29.5</ele></trkpt>
   <trkpt lat="51.509494" lon="-0.35371"><ele>29.25</ele></trkpt>
   <trkpt lat="51.509419" lon="-0.354154"><ele>27.5</ele></trkpt>
   <trkpt lat="51.509334" lon="-0.354663"><ele>24.5</ele></trkpt>
   <trkpt lat="51.509054" lon="-0.356326"><ele>29.25</ele></trkpt>
   <trkpt lat="51.508691" lon="-0.35869"><ele>29.25</ele></trkpt>
   <trkpt lat="51.508187" lon="-0.362145"><ele>29.25</ele></trkpt>
   <trkpt lat="51.507153" lon="-0.369465"><ele>31.75</ele></trkpt>
   <trkpt lat="51.506453" lon="-0.37444"><ele>32</ele></trkpt>
   <trkpt lat="51.506433" lon="-0.37457"><ele>32</ele></trkpt>
   <trkpt lat="51.506174" lon="-0.376406"><ele>32</ele></trkpt>
   <trkpt lat="51.505894" lon="-0.37838"><ele>32</ele></trkpt>
   <trkpt lat="51.505802" lon="-0.379043"><ele>32</ele></trkpt>
   <trkpt lat="51.504472" lon="-0.388416"><ele>32.75</ele></trkpt>
   <trkpt lat="51.504435" lon="-0.388676"><ele>33</ele></trkpt>
   <trkpt lat="51.504004" lon="-0.392139"><ele>32.5</ele></trkpt>
   <trkpt lat="51.503959" lon="-0.39249"><ele>32.5</ele></trkpt>
   <trkpt lat="51.503805" lon="-0.394041"><ele>33</ele></trkpt>
   <trkpt lat="51.503685" lon="-0.394998"><ele>33.25</ele></trkpt>
   <trkpt lat="51.503555" lon="-0.396377"><ele>33</ele></trkpt>
   <trkpt lat="51.503464" lon="-0.39748"><ele>32.5</ele></trkpt>
   <trkpt lat="51.503395" lon="-0.398177"><ele>33.25</ele></trkpt>
   <trkpt lat="51.503352" lon="-0.398702"><ele>33.75</ele></trkpt>
   <trkpt lat="51.503272" lon="-0.399863"><ele>32</ele></trkpt>
   <trkpt lat="51.503247" lon="-0.400134"><ele>31.75</ele></trkpt>
   <trkpt lat="51.503186" lon="-0.401334"><ele>32.75</ele></trkpt>
   <trkpt lat="51.503182" lon="-0.401404"><ele>33</ele></trkpt>
   <trkpt lat="51.503065" lon="-0.403493"><ele>32</ele></trkpt>
   <trkpt lat="51.503044" lon="-0.403947"><ele>31.75</ele></trkpt>
   <trkpt lat="51.50295" lon="-0.405959"><ele>31</ele></trkpt>
   <trkpt lat="51.502905" lon="-0.406929"><ele>31.75</ele></trkpt>
   <trkpt lat="51.502904" lon="-0.407253"><ele>33</ele></trkpt>
   <trkpt lat="51.502921" lon="-0.407618"><ele>33</ele></trkpt>
   <trkpt lat="51.502913" lon="-0.408067"><ele>33</ele></trkpt>
   <trkpt lat="51.502934" lon="-0.408575"><ele>32.75</ele></trkpt>
   <trkpt lat="51.502977" lon="-0.409308"><ele>33.25</ele></trkpt>
   <trkpt lat="51.502976" lon="-0.4101"><ele>33.25</ele></trkpt>
   <trkpt lat="51.502966" lon="-0.410625"><ele>33</ele></trkpt>
   <trkpt lat="51.502967" lon="-0.410832"><ele>32.5</ele></trkpt>
   <trkpt lat="51.502966" lon="-0.411834"><ele>32.5</ele></trkpt>
   <trkpt lat="51.502973" lon="-0.412285"><ele>32.25</ele></trkpt>
   <trkpt lat="51.502959" lon="-0.41265"><ele>32</ele></trkpt>
   <trkpt lat="51.50295" lon="-0.412783"><ele>32</ele></trkpt>
   <trkpt lat="51.502877" lon="-0.413323"><ele>32.5</ele></trkpt>
   <trkpt lat="51.502856" lon="-0.413594"><ele>32.75</ele></trkpt>
   <trkpt lat="51.502848" lon="-0.413888"><ele>32.75</ele></trkpt>
   <trkpt lat="51.502848" lon="-0.413952"><ele>32.75</ele></trkpt>
   <trkpt lat="51.502847" lon="-0.414246"><ele>33</ele></trkpt>
   <trkpt lat="51.502832" lon="-0.4146"><ele>33.25</ele></trkpt>
   <trkpt lat="51.502833" lon="-0.414953"><ele>32.5</ele></trkpt>
   <trkpt lat="51.502839" lon="-0.415196"><ele>31</ele></trkpt>
   <trkpt lat="51.502857" lon="-0.415686"><ele>33</ele></trkpt>
   <trkpt lat="51.502863" lon="-0.415855"><ele>32.75</ele></trkpt>
   <trkpt lat="51.502917" lon="-0.417172"><ele>34</ele></trkpt>
   <trkpt lat="51.502921" lon="-0.417267"><ele>33.75</ele></trkpt>
   <trkpt lat="51.503058" lon="-0.420615"><ele>33</ele></trkpt>
   <trkpt lat="51.503092" lon="-0.421366"><ele>32.75</ele></trkpt>
   <trkpt lat="51.503141" lon="-0.422269"><ele>32.5</ele></trkpt>
   <trkpt lat="51.503255" lon="-0.423745"><ele>32.25</ele></trkpt>
   <trkpt lat="51.503443" lon="-0.425908"><ele>32</ele></trkpt>
   <trkpt lat="51.503612" lon="-0.427887"><ele>32.75</ele></trkpt>
   <trkpt lat="51.503723" lon="-0.429069"><ele>32.5</ele></trkpt>
   <trkpt lat="51.503832" lon="-0.430108"><ele>33</ele></trkpt>
   <trkpt lat="51.504063" lon="-0.432097"><ele>33</ele></trkpt>
   <trkpt lat="51.504331" lon="-0.434079"><ele>33</ele></trkpt>
   <trkpt lat="51.504503" lon="-0.435318"><ele>33</ele></trkpt>
   <trkpt lat="51.504815" lon="-0.43736"><ele>32.5</ele></trkpt>
   <trkpt lat="51.504998" lon="-0.438463"><ele>33</ele></trkpt>
   <trkpt lat="51.505198" lon="-0.439572"><ele>33</ele></trkpt>
   <trkpt lat="51.505593" lon="-0.441643"><ele>32.75</ele></trkpt>
   <trkpt lat="51.505959" lon="-0.44348"><ele>32.75</ele></trkpt>
   <trkpt lat="51.506549" lon="-0.446331"><ele>32</ele></trkpt>
   <trkpt lat="51.506769" lon="-0.447399"><ele>33</ele></trkpt>
   <trkpt lat="51.507032" lon="-0.448727"><ele>32.5</ele></trkpt>
   <trkpt lat="51.507162" lon="-0.449418"><ele>32</ele></trkpt>
   <trkpt lat="51.507454" lon="-0.451067"><ele>32.25</ele></trkpt>
   <trkpt lat="51.50772" lon="-0.452626"><ele>31.75</ele></trkpt>
   <trkpt lat="51.50777" lon="-0.452913"><ele>31.75</ele></trkpt>
   <trkpt lat="51.507888" lon="-0.453672"><ele>32.5</ele></trkpt>
   <trkpt lat="51.508249" lon="-0.456073"><ele>32</ele></trkpt>
   <trkpt lat="51.508495" lon="-0.457843"><ele>30.75</ele></trkpt>
   <trkpt lat="51.508695" lon="-0.459396"><ele>31.5</ele></trkpt>
   <trkpt lat="51.508873" lon="-0.460857"><ele>31.75</ele></trkpt>
   <trkpt lat="51.509039" lon="-0.462364"><ele>31.25</ele></trkpt>
   <trkpt lat="51.509179" lon="-0.463757"><ele>30.75</ele></trkpt>
   <trkpt lat="51.50937" lon="-0.465883"><ele>30.75</ele></trkpt>
   <trkpt lat="51.509812" lon="-0.471021"><ele>30.5</ele></trkpt>
   <trkpt lat="51.509865" lon="-0.471885"><ele>31</ele></trkpt>
   <trkpt lat="51.509892" lon="-0.472425"><ele>31</ele></trkpt>
   <trkpt lat="51.509945" lon="-0.473967"><ele>28.5</ele></trkpt>
   <trkpt lat="51.50996" lon="-0.474359"><ele>28.75</ele></trkpt>
   <trkpt lat="51.510044" lon="-0.477353"><ele>29</ele></trkpt>
   <trkpt lat="51.51005" lon="-0.477604"><ele>28.25</ele></trkpt>
   <trkpt lat="51.510068" lon="-0.478168"><ele>31</ele></trkpt>
   <trkpt lat="51.510102" lon="-0.480132"><ele>31</ele></trkpt>
   <trkpt lat="51.510117" lon="-0.481967"><ele>30.25</ele></trkpt>
   <trkpt lat="51.510112" lon="-0.482765"><ele>30.25</ele></trkpt>
   <trkpt lat="51.51011" lon="-0.48338"><ele>31</ele></trkpt>
   <trkpt lat="51.510099" lon="-0.484628"><ele>30.75</ele></trkpt>
   <trkpt lat="51.510081" lon="-0.485834"><ele>29.25</ele></trkpt>
   <trkpt lat="51.510015" lon="-0.487321"><ele>29</ele></trkpt>
   <trkpt lat="51.509985" lon="-0.488344"><ele>30.75</ele></trkpt>
   <trkpt lat="51.509851" lon="-0.49163"><ele>29</ele></trkpt>
   <trkpt lat="51.509759" lon="-0.493321"><ele>30.25</ele></trkpt>
   <trkpt lat="51.509655" lon="-0.495008"><ele>31</ele></trkpt>
   <trkpt lat="51.509549" lon="-0.496586"><ele>31.75</ele></trkpt>
   <trkpt lat="51.509435" lon="-0.498164"><ele>30.5</ele></trkpt>
   <trkpt lat="51.509299" lon="-0.499723"><ele>32.25</ele></trkpt>
   <trkpt lat="51.509212" lon="-0.500623"><ele>31.25</ele></trkpt>
   <trkpt lat="51.508855" lon="-0.504156"><ele>30.5</ele></trkpt>
   <trkpt lat="51.508804" lon="-0.504709"><ele>31.25</ele></trkpt>
   <trkpt lat="51.508719" lon="-0.50581"><ele>31.75</ele></trkpt>
   <trkpt lat="51.508646" lon="-0.506847"><ele>30.25</ele></trkpt>
   <trkpt lat="51.508549" lon="-0.507961"><ele>31</ele></trkpt>
   <trkpt lat="51.508389" lon="-0.509771"><ele>31</ele></trkpt>
   <trkpt lat="51.508282" lon="-0.511311"><ele>30</ele></trkpt>
   <trkpt lat="51.50819" lon="-0.51277"><ele>30.75</ele></trkpt>
   <trkpt lat="51.508107" lon="-0.514225"><ele>31</ele></trkpt>
   <trkpt lat="51.508034" lon="-0.515653"><ele>31</ele></trkpt>
   <trkpt lat="51.507797" lon="-0.521038"><ele>31</ele></trkpt>
   <trkpt lat="51.507728" lon="-0.522941"><ele>29.5</ele></trkpt>
   <trkpt lat="51.50767" lon="-0.525182"><ele>29</ele></trkpt>
   <trkpt lat="51.507645" lon="-0.526571"><ele>28.25</ele></trkpt>
   <trkpt lat="51.507666" lon="-0.527455"><ele>27.75</ele></trkpt>
   <trkpt lat="51.507652" lon="-0.528905"><ele>27.5</ele></trkpt>
   <trkpt lat="51.507651" lon="-0.529242"><ele>26.75</ele></trkpt>
   <trkpt lat="51.507652" lon="-0.529386"><ele>27.75</ele></trkpt>
   <trkpt lat="51.507655" lon="-0.530621"><ele>28.25</ele></trkpt>
   <trkpt lat="51.507727" lon="-0.534801"><ele>30</ele></trkpt>
   <trkpt lat="51.507758" lon="-0.53692"><ele>29.75</ele></trkpt>
   <trkpt lat="51.507772" lon="-0.537327"><ele>29.75</ele></trkpt>
   <trkpt lat="51.507764" lon="-0.538199"><ele>29.75</ele></trkpt>
   <trkpt lat="51.507845" lon="-0.539885"><ele>31</ele></trkpt>
   <trkpt lat="51.507875" lon="-0.540639"><ele>30.5</ele></trkpt>
   <trkpt lat="51.507905" lon="-0.542072"><ele>31</ele></trkpt>
   <trkpt lat="51.507911" lon="-0.542558"><ele>28.5</ele></trkpt>
   <trkpt lat="51.507913" lon="-0.542684"><ele>28.75</ele></trkpt>
   <trkpt lat="51.507923" lon="-0.543552"><ele>29.5</ele></trkpt>
   <trkpt lat="51.507962" lon="-0.544592"><ele>29.5</ele></trkpt>
   <trkpt lat="51.508192" lon="-0.548359"><ele>29.5</ele></trkpt>
   <trkpt lat="51.508481" lon="-0.552403"><ele>29.5</ele></trkpt>
   <trkpt lat="51.508694" lon="-0.555587"><ele>29.5</ele></trkpt>
   <trkpt lat="51.509096" lon="-0.561808"><ele>29</ele></trkpt>
   <trkpt lat="51.509123" lon="-0.562189"><ele>29</ele></trkpt>
   <trkpt lat="51.509244" lon="-0.564059"><ele>29.5</ele></trkpt>
   <trkpt lat="51.509366" lon="-0.565881"><ele>28.25</ele></trkpt>
   <trkpt lat="51.509384" lon="-0.566191"><ele>28</ele></trkpt>
   <trkpt lat="51.509618" lon="-0.569779"><ele>29</ele></trkpt>
   <trkpt lat="51.509756" lon="-0.571733"><ele>28</ele></trkpt>
   <trkpt lat="51.509932" lon="-0.5739"><ele>28</ele></trkpt>
   <trkpt lat="51.51008" lon="-0.575561"><ele>27.5</ele></trkpt>
   <trkpt lat="51.510278" lon="-0.577615"><ele>28.25</ele></trkpt>
   <trkpt lat="51.510559" lon="-0.580229"><ele>28</ele></trkpt>
   <trkpt lat="51.51073" lon="-0.5817"><ele>28</ele></trkpt>
   <trkpt lat="51.51088" lon="-0.582921"><ele>28.5</ele></trkpt>
   <trkpt lat="51.511008" lon="-0.583839"><ele>29</ele></trkpt>
   <trkpt lat="51.511431" lon="-0.58663"><ele>28</ele></trkpt>
   <trkpt lat="51.511483" lon="-0.586969"><ele>28.25</ele></trkpt>
   <trkpt lat="51.511947" lon="-0.589988"><ele>28</ele></trkpt>
   <trkpt lat="51.51233" lon="-0.5924"><ele>29</ele></trkpt>
   <trkpt lat="51.512438" lon="-0.593109"><ele>28</ele></trkpt>
   <trkpt lat="51.512586" lon="-0.594169"><ele>28.75</ele></trkpt>
   <trkpt lat="51.512696" lon="-0.594946"><ele>28.5</ele></trkpt>
   <trkpt lat="51.512806" lon="-0.595648"><ele>29</ele></trkpt>
   <trkpt lat="51.512985" lon="-0.596678"><ele>29</ele></trkpt>
   <trkpt lat="51.513204" lon="-0.597851"><ele>29</ele></trkpt>
   <trkpt lat="51.513413" lon="-0.598893"><ele>29</ele></trkpt>
   <trkpt lat="51.514309" lon="-0.603197"><ele>29</ele></trkpt>
   <trkpt lat="51.514771" lon="-0.605352"><ele>29</ele></trkpt>
   <trkpt lat="51.514979" lon="-0.606245"><ele>28.5</ele></trkpt>
   <trkpt lat="51.515099" lon="-0.606765"><ele>29</ele></trkpt>
   <trkpt lat="51.515375" lon="-0.607927"><ele>29</ele></trkpt>
   <trkpt lat="51.51572" lon="-0.609509"><ele>29</ele></trkpt>
   <trkpt lat="51.51581" lon="-0.60987"><ele>29</ele></trkpt>
   <trkpt lat="51.516427" lon="-0.612291"><ele>29</ele></trkpt>
   <trkpt lat="51.516754" lon="-0.613543"><ele>31.75</ele></trkpt>
   <trkpt lat="51.517156" lon="-0.615007"><ele>29.25</ele></trkpt>
   <trkpt lat="51.51822" lon="-0.618835"><ele>30.75</ele></trkpt>
   <trkpt lat="51.51855" lon="-0.620047"><ele>30.25</ele></trkpt>
   <trkpt lat="51.518987" lon="-0.621737"><ele>30.25</ele></trkpt>
   <trkpt lat="51.519438" lon="-0.623628"><ele>29</ele></trkpt>
   <trkpt lat="51.519523" lon="-0.623911"><ele>31.25</ele></trkpt>
   <trkpt lat="51.519712" lon="-0.624707"><ele>29</ele></trkpt>
   <trkpt lat="51.519944" lon="-0.625682"><ele>30.25</ele></trkpt>
   <trkpt lat="51.520144" lon="-0.626565"><ele>31</ele></trkpt>
   <trkpt lat="51.520456" lon="-0.628018"><ele>30.75</ele></trkpt>
   <trkpt lat="51.520688" lon="-0.629132"><ele>30.75</ele></trkpt>
   <trkpt lat="51.52095" lon="-0.630473"><ele>30.75</ele></trkpt>
   <trkpt lat="51.521538" lon="-0.633963"><ele>30.75</ele></trkpt>
   <trkpt lat="51.521755" lon="-0.635224"><ele>30.25</ele></trkpt>
   <trkpt lat="51.52199" lon="-0.636644"><ele>30.25</ele></trkpt>
   <trkpt lat="51.522181" lon="-0.637951"><ele>29.75</ele></trkpt>
   <trkpt lat="51.522369" lon="-0.639156"><ele>28</ele></trkpt>
   <trkpt lat="51.522584" lon="-0.640692"><ele>27.5</ele></trkpt>
   <trkpt lat="51.522631" lon="-0.641062"><ele>27.25</ele></trkpt>
   <trkpt lat="51.522771" lon="-0.642131"><ele>29.75</ele></trkpt>
   <trkpt lat="51.522906" lon="-0.643274"><ele>28</ele></trkpt>
   <trkpt lat="51.522985" lon="-0.643964"><ele>29</ele></trkpt>
   <trkpt lat="51.523129" lon="-0.645406"><ele>28.5</ele></trkpt>
   <trkpt lat="51.523149" lon="-0.645626"><ele>27.75</ele></trkpt>
   <trkpt lat="51.523153" lon="-0.645664"><ele>28</ele></trkpt>
   <trkpt lat="51.523334" lon="-0.647571"><ele>30</ele></trkpt>
   <trkpt lat="51.523547" lon="-0.650057"><ele>30.25</ele></trkpt>
   <trkpt lat="51.523708" lon="-0.652447"><ele>30.25</ele></trkpt>
   <trkpt lat="51.523845" lon="-0.654877"><ele>31</ele></trkpt>
   <trkpt lat="51.523912" lon="-0.656175"><ele>31</ele></trkpt>
   <trkpt lat="51.523997" lon="-0.658204"><ele>30</ele></trkpt>
   <trkpt lat="51.524035" lon="-0.659707"><ele>29.5</ele></trkpt>
   <trkpt lat="51.524043" lon="-0.660012"><ele>28.5</ele></trkpt>
   <trkpt lat="51.524063" lon="-0.660892"><ele>30.5</ele></trkpt>
   <trkpt lat="51.52407" lon="-0.661579"><ele>31</ele></trkpt>
   <trkpt lat="51.524092" lon="-0.662332"><ele>31.75</ele></trkpt>
   <trkpt lat="51.524099" lon="-0.663445"><ele>32</ele></trkpt>
   <trkpt lat="51.524096" lon="-0.665621"><ele>31.5</ele></trkpt>
   <trkpt lat="51.524074" lon="-0.667246"><ele>29</ele></trkpt>
   <trkpt lat="51.524069" lon="-0.667448"><ele>29</ele></trkpt>
   <trkpt lat="51.523981" lon="-0.670968"><ele>29.5</ele></trkpt>
   <trkpt lat="51.52396" lon="-0.671515"><ele>29.5</ele></trkpt>
   <trkpt lat="51.523951" lon="-0.671718"><ele>29.5</ele></trkpt>
   <trkpt lat="51.523915" lon="-0.672584"><ele>31.75</ele></trkpt>
   <trkpt lat="51.523769" lon="-0.675145"><ele>30</ele></trkpt>
   <trkpt lat="51.523761" lon="-0.675287"><ele>28.5</ele></trkpt>
   <trkpt lat="51.523703" lon="-0.676363"><ele>31.5</ele></trkpt>
   <trkpt lat="51.523605" lon="-0.677844"><ele>32</ele></trkpt>
   <trkpt lat="51.523533" lon="-0.678859"><ele>32</ele></trkpt>
   <trkpt lat="51.523433" lon="-0.680014"><ele>31.75</ele></trkpt>
   <trkpt lat="51.523432" lon="-0.680025"><ele>31.75</ele></trkpt>
   <trkpt lat="51.523401" lon="-0.680351"><ele>30.25</ele></trkpt>
   <trkpt lat="51.52318" lon="-0.682668"><ele>31.75</ele></trkpt>
   <trkpt lat="51.52306" lon="-0.683801"><ele>31.75</ele></trkpt>
   <trkpt lat="51.522948" lon="-0.684977"><ele>29.75</ele></trkpt>
   <trkpt lat="51.522778" lon="-0.686602"><ele>31.75</ele></trkpt>
   <trkpt lat="51.522513" lon="-0.689314"><ele>29.5</ele></trkpt>
   <trkpt lat="51.52248" lon="-0.689632"><ele>28</ele></trkpt>
   <trkpt lat="51.522255" lon="-0.691592"><ele>32</ele></trkpt>
   <trkpt lat="51.522147" lon="-0.692486"><ele>28</ele></trkpt>
   <trkpt lat="51.522121" lon="-0.692734"><ele>25.75</ele></trkpt>
   <trkpt lat="51.521991" lon="-0.693945"><ele>28</ele></trkpt>
   <trkpt lat="51.521946" lon="-0.694361"><ele>29.25</ele></trkpt>
   <trkpt lat="51.521646" lon="-0.69699"><ele>32.25</ele></trkpt>
   <trkpt lat="51.521314" lon="-0.700241"><ele>29.25</ele></trkpt>
   <trkpt lat="51.520959" lon="-0.703461"><ele>29.25</ele></trkpt>
   <trkpt lat="51.520894" lon="-0.704058"><ele>31</ele></trkpt>
   <trkpt lat="51.520328" lon="-0.709324"><ele>28.25</ele></trkpt>
   <trkpt lat="51.520278" lon="-0.709755"><ele>26.75</ele></trkpt>
   <trkpt lat="51.520003" lon="-0.71204"><ele>32.75</ele></trkpt>
   <trkpt lat="51.519902" lon="-0.712928"><ele>26.5</ele></trkpt>
   <trkpt lat="51.519659" lon="-0.714748"><ele>31</ele></trkpt>
   <trkpt lat="51.519516" lon="-0.715737"><ele>30</ele></trkpt>
   <trkpt lat="51.51933" lon="-0.716906"><ele>30.75</ele></trkpt>
   <trkpt lat="51.519128" lon="-0.718107"><ele>32.75</ele></trkpt>
   <trkpt lat="51.518622" lon="-0.720903"><ele>32.5</ele></trkpt>
   <trkpt lat="51.518617" lon="-0.72093"><ele>32</ele></trkpt>
   <trkpt lat="51.518519" lon="-0.721484"><ele>29</ele></trkpt>
   <trkpt lat="51.518107" lon="-0.72388"><ele>34</ele></trkpt>
   <trkpt lat="51.517763" lon="-0.725841"><ele>34</ele></trkpt>
   <trkpt lat="51.517497" lon="-0.727296"><ele>34</ele></trkpt>
   <trkpt lat="51.516873" lon="-0.730525"><ele>35</ele></trkpt>
   <trkpt lat="51.516205" lon="-0.733794"><ele>36.25</ele></trkpt>
   <trkpt lat="51.515964" lon="-0.734884"><ele>37.75</ele></trkpt>
   <trkpt lat="51.515156" lon="-0.738275"><ele>33.75</ele></trkpt>
   <trkpt lat="51.514546" lon="-0.740679"><ele>34</ele></trkpt>
   <trkpt lat="51.514272" lon="-0.741709"><ele>32.5</ele></trkpt>
   <trkpt lat="51.514233" lon="-0.741866"><ele>33.5</ele></trkpt>
   <trkpt lat="51.513539" lon="-0.744419"><ele>36.75</ele></trkpt>
   <trkpt lat="51.513008" lon="-0.746251"><ele>37</ele></trkpt>
   <trkpt lat="51.512291" lon="-0.748672"><ele>38.25</ele></trkpt>
   <trkpt lat="51.511594" lon="-0.750914"><ele>38.75</ele></trkpt>
   <trkpt lat="51.50776" lon="-0.762835"><ele>35.25</ele></trkpt>
   <trkpt lat="51.507645" lon="-0.763192"><ele>34</ele></trkpt>
   <trkpt lat="51.505884" lon="-0.768676"><ele>38.25</ele></trkpt>
   <trkpt lat="51.500978" lon="-0.78391"><ele>41</ele></trkpt>
   <trkpt lat="51.496808" lon="-0.796837"><ele>41.75</ele></trkpt>
   <trkpt lat="51.49196" lon="-0.811944"><ele>40.5</ele></trkpt>
   <trkpt lat="51.487503" lon="-0.825667"><ele>41</ele></trkpt>
   <trkpt lat="51.487098" lon="-0.826937"><ele>41.25</ele></trkpt>
   <trkpt lat="51.484572" lon="-0.834742"><ele>40.25</ele></trkpt>
   <trkpt lat="51.481822" lon="-0.843272"><ele>40</ele></trkpt>
   <trkpt lat="51.481741" lon="-0.843516"><ele>40.5</ele></trkpt>
   <trkpt lat="51.481603" lon="-0.843929"><ele>41.75</ele></trkpt>
   <trkpt lat="51.477987" lon="-0.855078"><ele>44.75</ele></trkpt>
   <trkpt lat="51.476728" lon="-0.858993"><ele>43.5</ele></trkpt>
   <trkpt lat="51.47546" lon="-0.86267"><ele>42.75</ele></trkpt>
   <trkpt lat="51.475103" lon="-0.86381"><ele>42.5</ele></trkpt>
   <trkpt lat="51.474772" lon="-0.864939"><ele>42.25</ele></trkpt>
   <trkpt lat="51.474234" lon="-0.866776"><ele>42.5</ele></trkpt>
   <trkpt lat="51.473936" lon="-0.867747"><ele>38.75</ele></trkpt>
   <trkpt lat="51.473717" lon="-0.868414"><ele>39.5</ele></trkpt>
   <trkpt lat="51.473316" lon="-0.86963"><ele>42.5</ele></trkpt>
   <trkpt lat="51.473044" lon="-0.870505"><ele>39.5</ele></trkpt>
   <trkpt lat="51.472907" lon="-0.870942"><ele>37.75</ele></trkpt>
   <trkpt lat="51.471858" lon="-0.874277"><ele>35.25</ele></trkpt>
   <trkpt lat="51.471677" lon="-0.87484"><ele>41</ele></trkpt>
   <trkpt lat="51.47039" lon="-0.878822"><ele>41.5</ele></trkpt>
   <trkpt lat="51.469894" lon="-0.880304"><ele>40.75</ele></trkpt>
   <trkpt lat="51.469826" lon="-0.880544"><ele>40</ele></trkpt>
   <trkpt lat="51.468564" lon="-0.884545"><ele>44</ele></trkpt>
   <trkpt lat="51.467243" lon="-0.888705"><ele>44</ele></trkpt>
   <trkpt lat="51.466429" lon="-0.891468"><ele>45</ele></trkpt>
   <trkpt lat="51.465868" lon="-0.893508"><ele>45.75</ele></trkpt>
   <trkpt lat="51.465601" lon="-0.894427"><ele>46.75</ele></trkpt>
   <trkpt lat="51.465295" lon="-0.8956"><ele>46</ele></trkpt>
   <trkpt lat="51.464562" lon="-0.898575"><ele>48</ele></trkpt>
   <trkpt lat="51.464245" lon="-0.899958"><ele>47.25</ele></trkpt>
   <trkpt lat="51.463942" lon="-0.901323"><ele>47</ele></trkpt>
   <trkpt lat="51.463698" lon="-0.902532"><ele>48.75</ele></trkpt>
   <trkpt lat="51.463679" lon="-0.902627"><ele>48.5</ele></trkpt>
   <trkpt lat="51.463369" lon="-0.90413"><ele>47</ele></trkpt>
   <trkpt lat="51.46302" lon="-0.90595"><ele>47</ele></trkpt>
   <trkpt lat="51.462718" lon="-0.907592"><ele>48</ele></trkpt>
   <trkpt lat="51.462027" lon="-0.911474"><ele>49.25</ele></trkpt>
   <trkpt lat="51.461634" lon="-0.913769"><ele>48</ele></trkpt>
   <trkpt lat="51.461205" lon="-0.916424"><ele>49</ele></trkpt>
   <trkpt lat="51.460714" lon="-0.919217"><ele>50</ele></trkpt>
   <trkpt lat="51.460574" lon="-0.920029"><ele>47.5</ele></trkpt>
   <trkpt lat="51.460207" lon="-0.922332"><ele>49</ele></trkpt>
   <trkpt lat="51.460091" lon="-0.923109"><ele>48.75</ele></trkpt>
   <trkpt lat="51.459825" lon="-0.92501"><ele>47.25</ele></trkpt>
   <trkpt lat="51.45959" lon="-0.926947"><ele>45.75</ele></trkpt>
   <trkpt lat="51.45947" lon="-0.927988"><ele>45</ele></trkpt>
   <trkpt lat="51.459359" lon="-0.929015"><ele>44.25</ele></trkpt>
   <trkpt lat="51.45928" lon="-0.929828"><ele>45</ele></trkpt>
   <trkpt lat="51.459116" lon="-0.931644"><ele>44.75</ele></trkpt>
   <trkpt lat="51.459052" lon="-0.932449"><ele>44.5</ele></trkpt>
   <trkpt lat="51.458967" lon="-0.93364"><ele>42.75</ele></trkpt>
   <trkpt lat="51.458922" lon="-0.934378"><ele>43.25</ele></trkpt>
   <trkpt lat="51.45882" lon="-0.936337"><ele>43</ele></trkpt>
   <trkpt lat="51.458768" lon="-0.937854"><ele>43</ele></trkpt>
   <trkpt lat="51.458742" lon="-0.939057"><ele>43.25</ele></trkpt>
   <trkpt lat="51.458683" lon="-0.941205"><ele>39.75</ele></trkpt>
   <trkpt lat="51.45867" lon="-0.941681"><ele>41.75</ele></trkpt>
   <trkpt lat="51.458635" lon="-0.944856"><ele>43.5</ele></trkpt>
   <trkpt lat="51.458616" lon="-0.946053"><ele>43.75</ele></trkpt>
   <trkpt lat="51.458593" lon="-0.946964"><ele>43.5</ele></trkpt>
   <trkpt lat="51.458563" lon="-0.948549"><ele>43</ele></trkpt>
   <trkpt lat="51.458555" lon="-0.949238"><ele>40.75</ele></trkpt>
   <trkpt lat="51.458547" lon="-0.950329"><ele>40.25</ele></trkpt>
   <trkpt lat="51.458539" lon="-0.950682"><ele>41.25</ele></trkpt>
   <trkpt lat="51.458548" lon="-0.952149"><ele>42</ele></trkpt>
   <trkpt lat="51.458514" lon="-0.953563"><ele>42.25</ele></trkpt>
   <trkpt lat="51.458499" lon="-0.954405"><ele>41.75</ele></trkpt>
   <trkpt lat="51.458485" lon="-0.956167"><ele>41.75</ele></trkpt>
   <trkpt lat="51.458492" lon="-0.95741"><ele>41.75</ele></trkpt>
   <trkpt lat="51.458555" lon="-0.961555"><ele>42</ele></trkpt>
   <trkpt lat="51.458576" lon="-0.962098"><ele>42.25</ele></trkpt>
   <trkpt lat="51.458598" lon="-0.962642"><ele>40.75</ele></trkpt>
   <trkpt lat="51.458646" lon="-0.963844"><ele>42.25</ele></trkpt>
   <trkpt lat="51.458696" lon="-0.964707"><ele>41.75</ele></trkpt>
   <trkpt lat="51.458831" lon="-0.966659"><ele>42</ele></trkpt>
   <trkpt lat="51.458893" lon="-0.967334"><ele>42.75</ele></trkpt>
   <trkpt lat="51.458996" lon="-0.968176"><ele>38.75</ele></trkpt>
   <trkpt lat="51.459044" lon="-0.968677"><ele>38.25</ele></trkpt>
   <trkpt lat="51.459059" lon="-0.968818"><ele>41</ele></trkpt>
   <trkpt lat="51.459224" lon="-0.970472"><ele>42.75</ele></trkpt>
   <trkpt lat="51.459226" lon="-0.970498"><ele>42.75</ele></trkpt>
   <trkpt lat="51.459442" lon="-0.972675"><ele>43.75</ele></trkpt>
   <trkpt lat="51.459457" lon="-0.972826"><ele>43.75</ele></trkpt>
   <trkpt lat="51.459595" lon="-0.974212"><ele>44</ele></trkpt>
   <trkpt lat="51.459636" lon="-0.974674"><ele>44</ele></trkpt>
   <trkpt lat="51.459654" lon="-0.974947"><ele>43.75</ele></trkpt>
   <trkpt lat="51.459663" lon="-0.975081"><ele>43.75</ele></trkpt>
   <trkpt lat="51.459664" lon="-0.9751"><ele>43.75</ele></trkpt>
   <trkpt lat="51.459734" lon="-0.976132"><ele>40.5</ele></trkpt>
   <trkpt lat="51.459763" lon="-0.976436"><ele>39.5</ele></trkpt>
   <trkpt lat="51.459791" lon="-0.976796"><ele>42.75</ele></trkpt>
   <trkpt lat="51.459945" lon="-0.978218"><ele>43.75</ele></trkpt>
   <trkpt lat="51.460129" lon="-0.979803"><ele>44</ele></trkpt>
   <trkpt lat="51.460212" lon="-0.980529"><ele>44</ele></trkpt>
   <trkpt lat="51.460322" lon="-0.981435"><ele>43</ele></trkpt>
   <trkpt lat="51.460594" lon="-0.983787"><ele>42.25</ele></trkpt>
   <trkpt lat="51.460665" lon="-0.984404"><ele>41.75</ele></trkpt>
   <trkpt lat="51.461016" lon="-0.987391"><ele>42.75</ele></trkpt>
   <trkpt lat="51.461124" lon="-0.988369"><ele>41.25</ele></trkpt>
   <trkpt lat="51.461189" lon="-0.988955"><ele>40.5</ele></trkpt>
   <trkpt lat="51.461311" lon="-0.989938"><ele>43</ele></trkpt>
   <trkpt lat="51.461406" lon="-0.990796"><ele>43</ele></trkpt>
   <trkpt lat="51.461696" lon="-0.993626"><ele>43</ele></trkpt>
   <trkpt lat="51.461883" lon="-0.995323"><ele>42.5</ele></trkpt>
   <trkpt lat="51.462283" lon="-0.998887"><ele>43</ele></trkpt>
   <trkpt lat="51.46238" lon="-0.99975"><ele>42</ele></trkpt>
   <trkpt lat="51.46249" lon="-1.000745"><ele>40</ele></trkpt>
   <trkpt lat="51.462598" lon="-1.001726"><ele>42.75</ele></trkpt>
   <trkpt lat="51.462799" lon="-1.003409"><ele>43</ele></trkpt>
   <trkpt lat="51.46297" lon="-1.004688"><ele>42.5</ele></trkpt>
   <trkpt lat="51.463207" lon="-1.006179"><ele>42.5</ele></trkpt>
   <trkpt lat="51.463342" lon="-1.006944"><ele>42.75</ele></trkpt>
   <trkpt lat="51.463498" lon="-1.007787"><ele>41.75</ele></trkpt>
   <trkpt lat="51.463808" lon="-1.009351"><ele>41.75</ele></trkpt>
   <trkpt lat="51.463975" lon="-1.010125"><ele>41.5</ele></trkpt>
   <trkpt lat="51.464151" lon="-1.010901"><ele>42.75</ele></trkpt>
   <trkpt lat="51.464436" lon="-1.012096"><ele>42.75</ele></trkpt>
   <trkpt lat="51.464774" lon="-1.013369"><ele>42</ele></trkpt>
   <trkpt lat="51.464978" lon="-1.014099"><ele>42</ele></trkpt>
   <trkpt lat="51.465457" lon="-1.015692"><ele>42.25</ele></trkpt>
   <trkpt lat="51.465894" lon="-1.017039"><ele>42</ele></trkpt>
   <trkpt lat="51.46635" lon="-1.01833"><ele>42.75</ele></trkpt>
   <trkpt lat="51.466599" lon="-1.018981"><ele>41.75</ele></trkpt>
   <trkpt lat="51.466843" lon="-1.019597"><ele>41</ele></trkpt>
   <trkpt lat="51.467104" lon="-1.02024"><ele>41</ele></trkpt>
   <trkpt lat="51.467503" lon="-1.021194"><ele>43</ele></trkpt>
   <trkpt lat="51.467927" lon="-1.022113"><ele>42.5</ele></trkpt>
   <trkpt lat="51.469061" lon="-1.024436"><ele>43.25</ele></trkpt>
   <trkpt lat="51.469442" lon="-1.025221"><ele>43.75</ele></trkpt>
   <trkpt lat="51.470292" lon="-1.026968"><ele>43.75</ele></trkpt>
   <trkpt lat="51.470649" lon="-1.027665"><ele>43</ele></trkpt>
   <trkpt lat="51.471373" lon="-1.029003"><ele>44</ele></trkpt>
   <trkpt lat="51.471616" lon="-1.029467"><ele>44</ele></trkpt>
   <trkpt lat="51.472151" lon="-1.03056"><ele>44.25</ele></trkpt>
   <trkpt lat="51.472567" lon="-1.031495"><ele>43.25</ele></trkpt>
   <trkpt lat="51.472865" lon="-1.032164"><ele>43.25</ele></trkpt>
   <trkpt lat="51.473447" lon="-1.033407"><ele>44</ele></trkpt>
   <trkpt lat="51.474365" lon="-1.035275"><ele>46.25</ele></trkpt>
   <trkpt lat="51.475241" lon="-1.037011"><ele>44.25</ele></trkpt>
   <trkpt lat="51.475655" lon="-1.037778"><ele>42.75</ele></trkpt>
   <trkpt lat="51.476213" lon="-1.038725"><ele>43</ele></trkpt>
   <trkpt lat="51.477065" lon="-1.040034"><ele>44.75</ele></trkpt>
   <trkpt lat="51.477453" lon="-1.040644"><ele>45</ele></trkpt>
   <trkpt lat="51.477706" lon="-1.041061"><ele>45.25</ele></trkpt>
   <trkpt lat="51.47815" lon="-1.041855"><ele>43.25</ele></trkpt>
   <trkpt lat="51.478409" lon="-1.042366"><ele>44.5</ele></trkpt>
   <trkpt lat="51.478702" lon="-1.042915"><ele>45</ele></trkpt>
   <trkpt lat="51.479018" lon="-1.043537"><ele>45.25</ele></trkpt>
   <trkpt lat="51.47922" lon="-1.043945"><ele>44.5</ele></trkpt>
   <trkpt lat="51.479464" lon="-1.044465"><ele>44.75</ele></trkpt>
   <trkpt lat="51.479755" lon="-1.045109"><ele>45.25</ele></trkpt>
   <trkpt lat="51.480026" lon="-1.04575"><ele>45.25</ele></trkpt>
   <trkpt lat="51.480351" lon="-1.046566"><ele>46.25</ele></trkpt>
   <trkpt lat="51.480838" lon="-1.047885"><ele>45.5</ele></trkpt>
   <trkpt lat="51.48107" lon="-1.04856"><ele>47.25</ele></trkpt>
   <trkpt lat="51.481333" lon="-1.049366"><ele>48.25</ele></trkpt>
   <trkpt lat="51.481578" lon="-1.050193"><ele>49.5</ele></trkpt>
   <trkpt lat="51.481759" lon="-1.050856"><ele>48.25</ele></trkpt>
   <trkpt lat="51.48212" lon="-1.052268"><ele>49.25</ele></trkpt>
   <trkpt lat="51.48226" lon="-1.052884"><ele>46.75</ele></trkpt>
   <trkpt lat="51.482548" lon="-1.054251"><ele>47</ele></trkpt>
   <trkpt lat="51.482775" lon="-1.055284"><ele>46</ele></trkpt>
   <trkpt lat="51.482891" lon="-1.055949"><ele>48.75</ele></trkpt>
   <trkpt lat="51.483234" lon="-1.057757"><ele>48.75</ele></trkpt>
   <trkpt lat="51.483366" lon="-1.058527"><ele>46.25</ele></trkpt>
   <trkpt lat="51.483477" lon="-1.059278"><ele>46.75</ele></trkpt>
   <trkpt lat="51.483659" lon="-1.060694"><ele>45.25</ele></trkpt>
   <trkpt lat="51.483757" lon="-1.061598"><ele>43.25</ele></trkpt>
   <trkpt lat="51.483894" lon="-1.062591"><ele>45.75</ele></trkpt>
   <trkpt lat="51.484072" lon="-1.064291"><ele>43</ele></trkpt>
   <trkpt lat="51.484256" lon="-1.066418"><ele>44.25</ele></trkpt>
   <trkpt lat="51.484324" lon="-1.067364"><ele>43.25</ele></trkpt>
   <trkpt lat="51.484381" lon="-1.068452"><ele>43.75</ele></trkpt>
   <trkpt lat="51.484422" lon="-1.069408"><ele>45.5</ele></trkpt>
   <trkpt lat="51.484471" lon="-1.071282"><ele>46.25</ele></trkpt>
   <trkpt lat="51.484479" lon="-1.072214"><ele>46</ele></trkpt>
   <trkpt lat="51.484469" lon="-1.072883"><ele>45.5</ele></trkpt>
   <trkpt lat="51.484471" lon="-1.073409"><ele>45</ele></trkpt>
   <trkpt lat="51.484452" lon="-1.074444"><ele>46.75</ele></trkpt>
   <trkpt lat="51.484362" lon="-1.077432"><ele>44.25</ele></trkpt>
   <trkpt lat="51.484345" lon="-1.078294"><ele>44.75</ele></trkpt>
   <trkpt lat="51.484339" lon="-1.079246"><ele>44.75</ele></trkpt>
   <trkpt lat="51.484346" lon="-1.079843"><ele>44.75</ele></trkpt>
   <trkpt lat="51.484366" lon="-1.080819"><ele>44.25</ele></trkpt>
   <trkpt lat="51.484397" lon="-1.081677"><ele>45.25</ele></trkpt>
   <trkpt lat="51.48444" lon="-1.082526"><ele>46.75</ele></trkpt>
   <trkpt lat="51.484587" lon="-1.084667"><ele>43.75</ele></trkpt>
   <trkpt lat="51.484727" lon="-1.086167"><ele>46</ele></trkpt>
   <trkpt lat="51.484745" lon="-1.086348"><ele>46.25</ele></trkpt>
   <trkpt lat="51.484865" lon="-1.087375"><ele>43.25</ele></trkpt>
   <trkpt lat="51.48494" lon="-1.087942"><ele>45</ele></trkpt>
   <trkpt lat="51.48508" lon="-1.088812"><ele>43.25</ele></trkpt>
   <trkpt lat="51.485126" lon="-1.0891"><ele>43.5</ele></trkpt>
   <trkpt lat="51.485328" lon="-1.090256"><ele>46.5</ele></trkpt>
   <trkpt lat="51.485589" lon="-1.091714"><ele>47.75</ele></trkpt>
   <trkpt lat="51.485738" lon="-1.092442"><ele>48.5</ele></trkpt>
   <trkpt lat="51.485934" lon="-1.093296"><ele>48</ele></trkpt>
   <trkpt lat="51.486069" lon="-1.093819"><ele>48.5</ele></trkpt>
   <trkpt lat="51.486217" lon="-1.094377"><ele>48.5</ele></trkpt>
   <trkpt lat="51.486437" lon="-1.095112"><ele>48.5</ele></trkpt>
   <trkpt lat="51.486551" lon="-1.095478"><ele>49.5</ele></trkpt>
   <trkpt lat="51.486828" lon="-1.096289"><ele>49.75</ele></trkpt>
   <trkpt lat="51.487252" lon="-1.097467"><ele>48.5</ele></trkpt>
   <trkpt lat="51.487623" lon="-1.098459"><ele>50.75</ele></trkpt>
   <trkpt lat="51.487888" lon="-1.099133"><ele>50</ele></trkpt>
   <trkpt lat="51.488176" lon="-1.09983"><ele>51.25</ele></trkpt>
   <trkpt lat="51.488323" lon="-1.10017"><ele>48.75</ele></trkpt>
   <trkpt lat="51.488834" lon="-1.101292"><ele>50.25</ele></trkpt>
   <trkpt lat="51.489049" lon="-1.101734"><ele>50.25</ele></trkpt>
   <trkpt lat="51.489691" lon="-1.102998"><ele>48.75</ele></trkpt>
   <trkpt lat="51.490063" lon="-1.103661"><ele>47.25</ele></trkpt>
   <trkpt lat="51.490338" lon="-1.104138"><ele>48</ele></trkpt>
   <trkpt lat="51.490559" lon="-1.104506"><ele>48.25</ele></trkpt>
   <trkpt lat="51.490867" lon="-1.105012"><ele>48.25</ele></trkpt>
   <trkpt lat="51.491321" lon="-1.105704"><ele>49</ele></trkpt>
   <trkpt lat="51.491897" lon="-1.106528"><ele>48.5</ele></trkpt>
   <trkpt lat="51.492539" lon="-1.107375"><ele>48.5</ele></trkpt>
   <trkpt lat="51.493126" lon="-1.108095"><ele>49.5</ele></trkpt>
   <trkpt lat="51.493695" lon="-1.108739"><ele>49.75</ele></trkpt>
   <trkpt lat="51.493915" lon="-1.108995"><ele>49.5</ele></trkpt>
   <trkpt lat="51.494907" lon="-1.109999"><ele>49.5</ele></trkpt>
   <trkpt lat="51.495944" lon="-1.110951"><ele>50.5</ele></trkpt>
   <trkpt lat="51.496629" lon="-1.11156"><ele>50.5</ele></trkpt>
   <trkpt lat="51.496951" lon="-1.111861"><ele>49.5</ele></trkpt>
   <trkpt lat="51.498365" lon="-1.113109"><ele>49.75</ele></trkpt>
   <trkpt lat="51.499309" lon="-1.114036"><ele>49</ele></trkpt>
   <trkpt lat="51.499526" lon="-1.114265"><ele>48.25</ele></trkpt>
   <trkpt lat="51.499948" lon="-1.114735"><ele>48</ele></trkpt>
   <trkpt lat="51.500316" lon="-1.115167"><ele>48.25</ele></trkpt>
   <trkpt lat="51.50068" lon="-1.115604"><ele>47.5</ele></trkpt>
   <trkpt lat="51.501031" lon="-1.116042"><ele>48.25</ele></trkpt>
   <trkpt lat="51.501845" lon="-1.117062"><ele>48.5</ele></trkpt>
   <trkpt lat="51.501918" lon="-1.117169"><ele>48.75</ele></trkpt>
   <trkpt lat="51.502272" lon="-1.117589"><ele>48.75</ele></trkpt>
   <trkpt lat="51.50425" lon="-1.12008"><ele>48.5</ele></trkpt>
   <trkpt lat="51.504893" lon="-1.120871"><ele>49</ele></trkpt>
   <trkpt lat="51.505258" lon="-1.121306"><ele>48.75</ele></trkpt>
   <trkpt lat="51.506388" lon="-1.122616"><ele>49</ele></trkpt>
   <trkpt lat="51.507045" lon="-1.123353"><ele>49</ele></trkpt>
   <trkpt lat="51.507827" lon="-1.124196"><ele>48.75</ele></trkpt>
   <trkpt lat="51.508282" lon="-1.124673"><ele>49</ele></trkpt>
   <trkpt lat="51.508737" lon="-1.125132"><ele>49.25</ele></trkpt>
   <trkpt lat="51.509637" lon="-1.12603"><ele>49.25</ele></trkpt>
   <trkpt lat="51.51069" lon="-1.126989"><ele>48</ele></trkpt>
   <trkpt lat="51.511048" lon="-1.127299"><ele>48</ele></trkpt>
   <trkpt lat="51.51131" lon="-1.127512"><ele>42.25</ele></trkpt>
   <trkpt lat="51.512071" lon="-1.128148"><ele>43</ele></trkpt>
   <trkpt lat="51.512315" lon="-1.128359"><ele>47.75</ele></trkpt>
   <trkpt lat="51.512777" lon="-1.12873"><ele>48.25</ele></trkpt>
   <trkpt lat="51.513252" lon="-1.129091"><ele>47.25</ele></trkpt>
   <trkpt lat="51.513685" lon="-1.129408"><ele>48.25</ele></trkpt>
   <trkpt lat="51.514079" lon="-1.129688"><ele>48</ele></trkpt>
   <trkpt lat="51.514234" lon="-1.129789"><ele>47.5</ele></trkpt>
   <trkpt lat="51.514321" lon="-1.129842"><ele>46.75</ele></trkpt>
   <trkpt lat="51.515011" lon="-1.13028"><ele>48.75</ele></trkpt>
   <trkpt lat="51.515939" lon="-1.130823"><ele>48.75</ele></trkpt>
   <trkpt lat="51.516812" lon="-1.131278"><ele>48.75</ele></trkpt>
   <trkpt lat="51.517307" lon="-1.131525"><ele>49</ele></trkpt>
   <trkpt lat="51.517795" lon="-1.131747"><ele>49.25</ele></trkpt>
   <trkpt lat="51.518268" lon="-1.131953"><ele>49.75</ele></trkpt>
   <trkpt lat="51.518785" lon="-1.132157"><ele>49.25</ele></trkpt>
   <trkpt lat="51.520076" lon="-1.132611"><ele>49.75</ele></trkpt>
   <trkpt lat="51.520615" lon="-1.132786"><ele>49</ele></trkpt>
   <trkpt lat="51.521418" lon="-1.133069"><ele>50</ele></trkpt>
   <trkpt lat="51.522265" lon="-1.133351"><ele>50</ele></trkpt>
   <trkpt lat="51.522697" lon="-1.133481"><ele>51.25</ele></trkpt>
   <trkpt lat="51.523442" lon="-1.133664"><ele>51</ele></trkpt>
   <trkpt lat="51.524169" lon="-1.13377"><ele>52.5</ele></trkpt>
   <trkpt lat="51.525016" lon="-1.133871"><ele>50.25</ele></trkpt>
   <trkpt lat="51.525922" lon="-1.133934"><ele>50.75</ele></trkpt>
   <trkpt lat="51.526918" lon="-1.133955"><ele>51.5</ele></trkpt>
   <trkpt lat="51.5274" lon="-1.133947"><ele>52.25</ele></trkpt>
   <trkpt lat="51.528439" lon="-1.133893"><ele>51</ele></trkpt>
   <trkpt lat="51.529079" lon="-1.133827"><ele>47.5</ele></trkpt>
   <trkpt lat="51.52923" lon="-1.133809"><ele>46.5</ele></trkpt>
   <trkpt lat="51.529802" lon="-1.133746"><ele>49.25</ele></trkpt>
   <trkpt lat="51.530252" lon="-1.133675"><ele>50</ele></trkpt>
   <trkpt lat="51.531703" lon="-1.133417"><ele>51.75</ele></trkpt>
   <trkpt lat="51.53224" lon="-1.133304"><ele>50.75</ele></trkpt>
   <trkpt lat="51.53326" lon="-1.133125"><ele>51</ele></trkpt>
   <trkpt lat="51.534249" lon="-1.132983"><ele>51</ele></trkpt>
   <trkpt lat="51.535861" lon="-1.132791"><ele>50</ele></trkpt>
   <trkpt lat="51.536374" lon="-1.132748"><ele>50.25</ele></trkpt>
   <trkpt lat="51.536787" lon="-1.132724"><ele>50.75</ele></trkpt>
   <trkpt lat="51.537177" lon="-1.132717"><ele>51</ele></trkpt>
   <trkpt lat="51.537619" lon="-1.132726"><ele>50.5</ele></trkpt>
   <trkpt lat="51.53868" lon="-1.132785"><ele>50</ele></trkpt>
   <trkpt lat="51.539721" lon="-1.13287"><ele>51.5</ele></trkpt>
   <trkpt lat="51.540728" lon="-1.132987"><ele>49.5</ele></trkpt>
   <trkpt lat="51.541171" lon="-1.133055"><ele>49.75</ele></trkpt>
   <trkpt lat="51.54168" lon="-1.133141"><ele>48.5</ele></trkpt>
   <trkpt lat="51.542191" lon="-1.133242"><ele>48.75</ele></trkpt>
   <trkpt lat="51.543088" lon="-1.133448"><ele>48.75</ele></trkpt>
   <trkpt lat="51.544052" lon="-1.133708"><ele>49.5</ele></trkpt>
   <trkpt lat="51.544971" lon="-1.133987"><ele>47.5</ele></trkpt>
   <trkpt lat="51.545059" lon="-1.134017"><ele>47.5</ele></trkpt>
   <trkpt lat="51.545552" lon="-1.134185"><ele>49.75</ele></trkpt>
   <trkpt lat="51.546077" lon="-1.134377"><ele>50.25</ele></trkpt>
   <trkpt lat="51.546937" lon="-1.134719"><ele>49</ele></trkpt>
   <trkpt lat="51.547039" lon="-1.134765"><ele>49</ele></trkpt>
   <trkpt lat="51.547956" lon="-1.13517"><ele>49.5</ele></trkpt>
   <trkpt lat="51.548384" lon="-1.135371"><ele>49.5</ele></trkpt>
   <trkpt lat="51.549131" lon="-1.135744"><ele>48.25</ele></trkpt>
   <trkpt lat="51.549312" lon="-1.13584"><ele>49.75</ele></trkpt>
   <trkpt lat="51.549939" lon="-1.136169"><ele>50</ele></trkpt>
   <trkpt lat="51.550357" lon="-1.136401"><ele>50.5</ele></trkpt>
   <trkpt lat="51.551278" lon="-1.136939"><ele>50.75</ele></trkpt>
   <trkpt lat="51.55253" lon="-1.137736"><ele>50.25</ele></trkpt>
   <trkpt lat="51.553005" lon="-1.138061"><ele>50.75</ele></trkpt>
   <trkpt lat="51.55349" lon="-1.13841"><ele>49.5</ele></trkpt>
   <trkpt lat="51.554389" lon="-1.139093"><ele>49</ele></trkpt>
   <trkpt lat="51.555298" lon="-1.139831"><ele>49.75</ele></trkpt>
   <trkpt lat="51.555779" lon="-1.140241"><ele>50</ele></trkpt>
   <trkpt lat="51.556562" lon="-1.14092"><ele>49.5</ele></trkpt>
   <trkpt lat="51.557276" lon="-1.141582"><ele>49.75</ele></trkpt>
   <trkpt lat="51.557762" lon="-1.142056"><ele>47.75</ele></trkpt>
   <trkpt lat="51.558907" lon="-1.143211"><ele>47.75</ele></trkpt>
   <trkpt lat="51.55941" lon="-1.143738"><ele>50.25</ele></trkpt>
   <trkpt lat="51.560291" lon="-1.144712"><ele>50.5</ele></trkpt>
   <trkpt lat="51.561119" lon="-1.145681"><ele>50.75</ele></trkpt>
   <trkpt lat="51.561547" lon="-1.146195"><ele>51.75</ele></trkpt>
   <trkpt lat="51.562269" lon="-1.14707"><ele>52.5</ele></trkpt>
   <trkpt lat="51.562614" lon="-1.14751"><ele>54</ele></trkpt>
   <trkpt lat="51.562977" lon="-1.147934"><ele>53.5</ele></trkpt>
   <trkpt lat="51.563548" lon="-1.148646"><ele>53</ele></trkpt>
   <trkpt lat="51.56435" lon="-1.149712"><ele>53</ele></trkpt>
   <trkpt lat="51.564737" lon="-1.150254"><ele>52.75</ele></trkpt>
   <trkpt lat="51.565135" lon="-1.150831"><ele>54.75</ele></trkpt>
   <trkpt lat="51.565807" lon="-1.15184"><ele>54.75</ele></trkpt>
   <trkpt lat="51.566204" lon="-1.152448"><ele>55</ele></trkpt>
   <trkpt lat="51.567742" lon="-1.154843"><ele>52</ele></trkpt>
   <trkpt lat="51.568073" lon="-1.155335"><ele>52</ele></trkpt>
   <trkpt lat="51.568884" lon="-1.156489"><ele>51.75</ele></trkpt>
   <trkpt lat="51.569521" lon="-1.157369"><ele>50.75</ele></trkpt>
   <trkpt lat="51.569628" lon="-1.15752"><ele>50.5</ele></trkpt>
   <trkpt lat="51.57042" lon="-1.158594"><ele>51.75</ele></trkpt>
   <trkpt lat="51.571033" lon="-1.159426"><ele>51.75</ele></trkpt>
   <trkpt lat="51.57202" lon="-1.160741"><ele>51.75</ele></trkpt>
   <trkpt lat="51.573146" lon="-1.162206"><ele>52.5</ele></trkpt>
   <trkpt lat="51.574674" lon="-1.164151"><ele>52.25</ele></trkpt>
   <trkpt lat="51.575852" lon="-1.165641"><ele>52</ele></trkpt>
   <trkpt lat="51.576585" lon="-1.166582"><ele>52.75</ele></trkpt>
   <trkpt lat="51.577011" lon="-1.167116"><ele>52.75</ele></trkpt>
   <trkpt lat="51.577371" lon="-1.167587"><ele>53.25</ele></trkpt>
   <trkpt lat="51.579418" lon="-1.17019"><ele>54</ele></trkpt>
   <trkpt lat="51.580691" lon="-1.171802"><ele>54.25</ele></trkpt>
   <trkpt lat="51.581855" lon="-1.173279"><ele>53.75</ele></trkpt>
   <trkpt lat="51.583104" lon="-1.174882"><ele>53</ele></trkpt>
   <trkpt lat="51.584641" lon="-1.176912"><ele>52.5</ele></trkpt>
   <trkpt lat="51.585053" lon="-1.177477"><ele>53</ele></trkpt>
   <trkpt lat="51.585392" lon="-1.177952"><ele>52.25</ele></trkpt>
   <trkpt lat="51.586561" lon="-1.179655"><ele>52</ele></trkpt>
   <trkpt lat="51.586925" lon="-1.180198"><ele>52.75</ele></trkpt>
   <trkpt lat="51.587292" lon="-1.180754"><ele>52.75</ele></trkpt>
   <trkpt lat="51.588386" lon="-1.182454"><ele>52.75</ele></trkpt>
   <trkpt lat="51.588916" lon="-1.183317"><ele>52.25</ele></trkpt>
   <trkpt lat="51.588995" lon="-1.183443"><ele>51</ele></trkpt>
   <trkpt lat="51.590359" lon="-1.185814"><ele>52.5</ele></trkpt>
   <trkpt lat="51.591343" lon="-1.187613"><ele>52.5</ele></trkpt>
   <trkpt lat="51.59203" lon="-1.188933"><ele>53</ele></trkpt>
   <trkpt lat="51.592711" lon="-1.190265"><ele>54.5</ele></trkpt>
   <trkpt lat="51.592983" lon="-1.190827"><ele>55</ele></trkpt>
   <trkpt lat="51.593312" lon="-1.191484"><ele>55</ele></trkpt>
   <trkpt lat="51.594047" lon="-1.193008"><ele>57.5</ele></trkpt>
   <trkpt lat="51.594216" lon="-1.193358"><ele>56</ele></trkpt>
   <trkpt lat="51.594783" lon="-1.194608"><ele>56</ele></trkpt>
   <trkpt lat="51.595078" lon="-1.195298"><ele>56.25</ele></trkpt>
   <trkpt lat="51.595887" lon="-1.197216"><ele>56</ele></trkpt>
   <trkpt lat="51.596467" lon="-1.198641"><ele>56.75</ele></trkpt>
   <trkpt lat="51.596708" lon="-1.199249"><ele>56.25</ele></trkpt>
   <trkpt lat="51.597194" lon="-1.200532"><ele>55.75</ele></trkpt>
   <trkpt lat="51.597443" lon="-1.201213"><ele>56.75</ele></trkpt>
   <trkpt lat="51.5977" lon="-1.201942"><ele>57.25</ele></trkpt>
   <trkpt lat="51.598774" lon="-1.205123"><ele>56.75</ele></trkpt>
   <trkpt lat="51.598982" lon="-1.205764"><ele>56.5</ele></trkpt>
   <trkpt lat="51.599265" lon="-1.206589"><ele>56.5</ele></trkpt>
   <trkpt lat="51.59986" lon="-1.208499"><ele>57</ele></trkpt>
   <trkpt lat="51.600414" lon="-1.21015"><ele>56.5</ele></trkpt>
   <trkpt lat="51.601527" lon="-1.213401"><ele>55.25</ele></trkpt>
   <trkpt lat="51.601794" lon="-1.214204"><ele>55.25</ele></trkpt>
   <trkpt lat="51.602926" lon="-1.217531"><ele>54.5</ele></trkpt>
   <trkpt lat="51.603227" lon="-1.218357"><ele>54.5</ele></trkpt>
   <trkpt lat="51.603612" lon="-1.219386"><ele>55.75</ele></trkpt>
   <trkpt lat="51.604036" lon="-1.220629"><ele>55.25</ele></trkpt>
   <trkpt lat="51.604699" lon="-1.222585"><ele>55.75</ele></trkpt>
   <trkpt lat="51.604996" lon="-1.223464"><ele>55.75</ele></trkpt>
   <trkpt lat="51.605968" lon="-1.226383"><ele>54.75</ele></trkpt>
   <trkpt lat="51.606655" lon="-1.228482"><ele>52.75</ele></trkpt>
   <trkpt lat="51.606746" lon="-1.228768"><ele>52.5</ele></trkpt>
   <trkpt lat="51.607331" lon="-1.230559"><ele>54.75</ele></trkpt>
   <trkpt lat="51.607583" lon="-1.231312"><ele>55</ele></trkpt>
   <trkpt lat="51.608038" lon="-1.232718"><ele>56.25</ele></trkpt>
   <trkpt lat="51.608564" lon="-1.234315"><ele>56.25</ele></trkpt>
   <trkpt lat="51.608843" lon="-1.235081"><ele>56</ele></trkpt>
   <trkpt lat="51.609376" lon="-1.236704"><ele>56</ele></trkpt>
   <trkpt lat="51.609922" lon="-1.238379"><ele>56.75</ele></trkpt>
   <trkpt lat="51.610153" lon="-1.238992"><ele>57</ele></trkpt>
   <trkpt lat="51.610549" lon="-1.239973"><ele>57</ele></trkpt>
   <trkpt lat="51.610616" lon="-1.240115"><ele>56.5</ele></trkpt>
   <trkpt lat="51.610826" lon="-1.24052"><ele>57</ele></trkpt>
   <trkpt lat="51.611094" lon="-1.241023"><ele>57</ele></trkpt>
   <trkpt lat="51.611416" lon="-1.241554"><ele>56.75</ele></trkpt>
   <trkpt lat="51.611428" lon="-1.241575"><ele>56.75</ele></trkpt>
   <trkpt lat="51.611549" lon="-1.241841"><ele>57</ele></trkpt>
   <trkpt lat="51.611671" lon="-1.242039"><ele>56.75</ele></trkpt>
   <trkpt lat="51.611743" lon="-1.24214"><ele>56.75</ele></trkpt>
   <trkpt lat="51.611904" lon="-1.242347"><ele>56</ele></trkpt>
   <trkpt lat="51.61216" lon="-1.242725"><ele>56</ele></trkpt>
   <trkpt lat="51.612308" lon="-1.24298"><ele>56.5</ele></trkpt>
   <trkpt lat="51.612779" lon="-1.24383"><ele>56.75</ele></trkpt>
   <trkpt lat="51.612932" lon="-1.244072"><ele>56.5</ele></trkpt>
   <trkpt lat="51.613014" lon="-1.244176"><ele>55.75</ele></trkpt>
  </trkseg>
 </trk>
</gpx>