<?xml version="1.0" encoding="UTF-8"?>
<!-- track-length = 116481 filtered ascend = 327 plain-ascend = 2 cost=116481 energy=1.4kwh time=2h 35m 18s -->
<gpx 
 xmlns="http://www.topografix.com/GPX/1/1" 
 xmlns:xsi="http://www.w3.org/2001/XMLSchema-instance" 
 xsi:schemaLocation="http://www.topografix.com/GPX/1/1 http://www.topografix.com/GPX/1/1/gpx.xsd" 
 version="1.1" 
 creator="BRouter-Web 99.71.0">
 <trk>
  <name>Portsmouth-London</name>
  <link href="https://brouter.damsy.net/latest/#map=9/51.2335/-0.3873/standard&amp;lonlats=-0.113769,51.501343;-1.07666,50.798123&amp;profile=rail">
   <text>BRouter-Web</text>
  </link>
  <trkseg>
   <trkpt lat="51.501336" lon="-0.113756"><ele>4.25</ele></trkpt>
   <trkpt lat="51.501214" lon="-0.1139"><ele>4.25</ele></trkpt>
   <trkpt lat="51.501109" lon="-0.114013"><ele>4.25</ele></trkpt>
   <trkpt lat="51.500893" lon="-0.114217"><ele>4.25</ele></trkpt>
   <trkpt lat="51.50074" lon="-0.114333"><ele>4.25</ele></trkpt>
   <trkpt lat="51.500645" lon="-0.114395"><ele>4.25</ele></trkpt>
   <trkpt lat="51.500596" lon="-0.114427"><ele>4.25</ele></trkpt>
   <trkpt lat="51.500428" lon="-0.114534"><ele>4.25</ele></trkpt>
   <trkpt lat="51.500298" lon="-0.114604"><ele>4.25</ele></trkpt>
   <trkpt lat="51.500114" lon="-0.114669"><ele>4.25</ele></trkpt>
   <trkpt lat="51.499911" lon="-0.114714"><ele>4.25</ele></trkpt>
   <trkpt lat="51.499732" lon="-0.11473"><ele>4.25</ele></trkpt>
   <trkpt lat="51.499636" lon="-0.114724"><ele>4.25</ele></trkpt>
   <trkpt lat="51.499536" lon="-0.114705"><ele>4.25</ele></trkpt>
   <trkpt lat="51.499503" lon="-0.114695"><ele>4.25</ele></trkpt>
   <trkpt lat="51.49913" lon="-0.114616"><ele>4.25</ele></trkpt>
   <trkpt lat="51.498959" lon="-0.114574"><ele>4.25</ele></trkpt>
   <trkpt lat="51.498746" lon="-0.114538"><ele>4.25</ele></trkpt>
   <trkpt lat="51.498577" lon="-0.114525"><ele>4.25</ele></trkpt>
   <trkpt lat="51.49834" lon="-0.114531"><ele>4.25</ele></trkpt>
   <trkpt lat="51.498066" lon="-0.114585"><ele>4.25</ele></trkpt>
   <trkpt lat="51.497938" lon="-0.114615"><ele>4.25</ele></trkpt>
   <trkpt lat="51.497762" lon="-0.114672"><ele>4.25</ele></trkpt>
   <trkpt lat="51.496905" lon="-0.115034"><ele>4.25</ele></trkpt>
   <trkpt lat="51.496629" lon="-0.115094"><ele>4.25</ele></trkpt>
   <trkpt lat="51.496402" lon="-0.115205"><ele>4.25</ele></trkpt>
   <trkpt lat="51.496047" lon="-0.115402"><ele>4.25</ele></trkpt>
   <trkpt lat="51.495542" lon="-0.115749"><ele>4.25</ele></trkpt>
   <trkpt lat="51.495303" lon="-0.115908"><ele>4.25</ele></trkpt>
   <trkpt lat="51.494407" lon="-0.116544"><ele>4.25</ele></trkpt>
   <trkpt lat="51.494311" lon="-0.116618"><ele>4.25</ele></trkpt>
   <trkpt lat="51.494065" lon="-0.116808"><ele>4.25</ele></trkpt>
   <trkpt lat="51.493879" lon="-0.116969"><ele>4.25</ele></trkpt>
   <trkpt lat="51.493704" lon="-0.117134"><ele>4.25</ele></trkpt>
   <trkpt lat="51.493642" lon="-0.117195"><ele>4.25</ele></trkpt>
   <trkpt lat="51.493332" lon="-0.117522"><ele>4.25</ele></trkpt>
   <trkpt lat="51.493074" lon="-0.117821"><ele>4.25</ele></trkpt>
   <trkpt lat="51.492813" lon="-0.118131"><ele>4.25</ele></trkpt>
   <trkpt lat="51.492571" lon="-0.118438"><ele>4.25</ele></trkpt>
   <trkpt lat="51.492517" lon="-0.118505"><ele>4.25</ele></trkpt>
   <trkpt lat="51.492323" lon="-0.11877"><ele>4.25</ele></trkpt>
   <trkpt lat="51.491952" lon="-0.119308"><ele>4.25</ele></trkpt>
   <trkpt lat="51.491881" lon="-0.11942"><ele>4.25</ele></trkpt>
   <trkpt lat="51.491437" lon="-0.120154"><ele>4.25</ele></trkpt>
   <trkpt lat="51.491387" lon="-0.120237"><ele>4.25</ele></trkpt>
   <trkpt lat="51.491136" lon="-0.120635"><ele>4.25</ele></trkpt>
   <trkpt lat="51.490926" lon="-0.120936"><ele>4.25</ele></trkpt>
   <trkpt lat="51.490675" lon="-0.121247"><ele>4.25</ele></trkpt>
   <trkpt lat="51.4904" lon="-0.121537"><ele>4.25</ele></trkpt>
   <trkpt lat="51.490222" lon="-0.121702"><ele>4.25</ele></trkpt>
   <trkpt lat="51.489989" lon="-0.121883"><ele>4.25</ele></trkpt>
   <trkpt lat="51.489797" lon="-0.122009"><ele>4.25</ele></trkpt>
   <trkpt lat="51.489722" lon="-0.122053"><ele>4.25</ele></trkpt>
   <trkpt lat="51.489418" lon="-0.122194"><ele>4.25</ele></trkpt>
   <trkpt lat="51.489214" lon="-0.122257"><ele>4.25</ele></trkpt>
   <trkpt lat="51.488974" lon="-0.122305"><ele>4.25</ele></trkpt>
   <trkpt lat="51.488821" lon="-0.122326"><ele>4.25</ele></trkpt>
   <trkpt lat="51.488749" lon="-0.122333"><ele>4.25</ele></trkpt>
   <trkpt lat="51.488346" lon="-0.122366"><ele>4.25</ele></trkpt>
   <trkpt lat="51.48814" lon="-0.122423"><ele>4.25</ele></trkpt>
   <trkpt lat="51.487917" lon="-0.122454"><ele>4.25</ele></trkpt>
   <trkpt lat="51.487826" lon="-0.122458"><ele>4.25</ele></trkpt>
   <trkpt lat="51.48774" lon="-0.122462"><ele>4.25</ele></trkpt>
   <trkpt lat="51.486876" lon="-0.122517"><ele>4.25</ele></trkpt>
   <trkpt lat="51.486625" lon="-0.122541"><ele>4.25</ele></trkpt>
   <trkpt lat="51.486462" lon="-0.122568"><ele>4.25</ele></trkpt>
   <trkpt lat="51.486267" lon="-0.122606"><ele>4.25</ele></trkpt>
   <trkpt lat="51.485946" lon="-0.122703"><ele>4.25</ele></trkpt>
   <trkpt lat="51.485614" lon="-0.122829"><ele>4.25</ele></trkpt>
   <trkpt lat="51.485344" lon="-0.122968"><ele>4.25</ele></trkpt>
   <trkpt lat="51.484806" lon="-0.123318"><ele>4.25</ele></trkpt>
   <trkpt lat="51.484426" lon="-0.123604"><ele>4.25</ele></trkpt>
   <trkpt lat="51.484273" lon="-0.123731"><ele>4.25</ele></trkpt>
   <trkpt lat="51.484071" lon="-0.123913"><ele>4</ele></trkpt>
   <trkpt lat="51.483866" lon="-0.124119"><ele>4</ele></trkpt>
   <trkpt lat="51.483671" lon="-0.124335"><ele>4</ele></trkpt>
   <trkpt lat="51.483301" lon="-0.12482"><ele>4.5</ele></trkpt>
   <trkpt lat="51.48315" lon="-0.125052"><ele>4</ele></trkpt>
   <trkpt lat="51.483035" lon="-0.125247"><ele>4</ele></trkpt>
   <trkpt lat="51.482955" lon="-0.125388"><ele>3.75</ele></trkpt>
   <trkpt lat="51.482783" lon="-0.125724"><ele>3.5</ele></trkpt>
   <trkpt lat="51.482679" lon="-0.125945"><ele>3.5</ele></trkpt>
   <trkpt lat="51.482507" lon="-0.126356"><ele>3</ele></trkpt>
   <trkpt lat="51.482346" lon="-0.126818"><ele>3</ele></trkpt>
   <trkpt lat="51.482201" lon="-0.127301"><ele>3</ele></trkpt>
   <trkpt lat="51.482118" lon="-0.127591"><ele>3</ele></trkpt>
   <trkpt lat="51.482016" lon="-0.127948"><ele>3.25</ele></trkpt>
   <trkpt lat="51.481898" lon="-0.128325"><ele>3.5</ele></trkpt>
   <trkpt lat="51.481792" lon="-0.128649"><ele>3.25</ele></trkpt>
   <trkpt lat="51.4816" lon="-0.129189"><ele>2.75</ele></trkpt>
   <trkpt lat="51.481339" lon="-0.12988"><ele>2.75</ele></trkpt>
   <trkpt lat="51.480714" lon="-0.131418"><ele>3.5</ele></trkpt>
   <trkpt lat="51.480518" lon="-0.131936"><ele>3.75</ele></trkpt>
   <trkpt lat="51.480061" lon="-0.133204"><ele>3.75</ele></trkpt>
   <trkpt lat="51.479731" lon="-0.134145"><ele>4</ele></trkpt>
   <trkpt lat="51.479511" lon="-0.134813"><ele>4</ele></trkpt>
   <trkpt lat="51.479423" lon="-0.135107"><ele>4.25</ele></trkpt>
   <trkpt lat="51.479056" lon="-0.136411"><ele>7.5</ele></trkpt>
   <trkpt lat="51.478925" lon="-0.136863"><ele>7</ele></trkpt>
   <trkpt lat="51.478885" lon="-0.136997"><ele>6.75</ele></trkpt>
   <trkpt lat="51.478668" lon="-0.137705"><ele>6.5</ele></trkpt>
   <trkpt lat="51.47846" lon="-0.138332"><ele>6.75</ele></trkpt>
   <trkpt lat="51.478232" lon="-0.138935"><ele>6.25</ele></trkpt>
   <trkpt lat="51.477992" lon="-0.139512"><ele>5.5</ele></trkpt>
   <trkpt lat="51.477925" lon="-0.139672"><ele>3.75</ele></trkpt>
   <trkpt lat="51.477563" lon="-0.140503"><ele>3</ele></trkpt>
   <trkpt lat="51.47746" lon="-0.140746"><ele>3</ele></trkpt>
   <trkpt lat="51.47735" lon="-0.140994"><ele>3</ele></trkpt>
   <trkpt lat="51.476801" lon="-0.142257"><ele>2.25</ele></trkpt>
   <trkpt lat="51.476505" lon="-0.142936"><ele>2.5</ele></trkpt>
   <trkpt lat="51.476008" lon="-0.144061"><ele>3</ele></trkpt>
   <trkpt lat="51.475438" lon="-0.14538"><ele>3.5</ele></trkpt>
   <trkpt lat="51.475016" lon="-0.146325"><ele>2.25</ele></trkpt>
   <trkpt lat="51.474913" lon="-0.146561"><ele>2</ele></trkpt>
   <trkpt lat="51.474468" lon="-0.14762"><ele>2.25</ele></trkpt>
   <trkpt lat="51.474197" lon="-0.148286"><ele>2.75</ele></trkpt>
   <trkpt lat="51.473558" lon="-0.149781"><ele>7</ele></trkpt>
   <trkpt lat="51.473534" lon="-0.149837"><ele>7</ele></trkpt>
   <trkpt lat="51.473232" lon="-0.15046"><ele>7.25</ele></trkpt>
   <trkpt lat="51.473201" lon="-0.150536"><ele>7.5</ele></trkpt>
   <trkpt lat="51.471218" lon="-0.155187"><ele>7.25</ele></trkpt>
   <trkpt lat="51.471015" lon="-0.155656"><ele>7.5</ele></trkpt>
   <trkpt lat="51.470664" lon="-0.156517"><ele>7.25</ele></trkpt>
   <trkpt lat="51.470302" lon="-0.157389"><ele>7.5</ele></trkpt>
   <trkpt lat="51.470056" lon="-0.15798"><ele>8</ele></trkpt>
   <trkpt lat="51.46973" lon="-0.158738"><ele>3</ele></trkpt>
   <trkpt lat="51.468622" lon="-0.161293"><ele>9</ele></trkpt>
   <trkpt lat="51.467608" lon="-0.163605"><ele>7</ele></trkpt>
   <trkpt lat="51.465971" lon="-0.167375"><ele>10</ele></trkpt>
   <trkpt lat="51.465802" lon="-0.167748"><ele>10</ele></trkpt>
   <trkpt lat="51.465575" lon="-0.168225"><ele>10</ele></trkpt>
   <trkpt lat="51.465411" lon="-0.168558"><ele>10.25</ele></trkpt>
   <trkpt lat="51.465354" lon="-0.168674"><ele>10.5</ele></trkpt>
   <trkpt lat="51.465318" lon="-0.168724"><ele>10.75</ele></trkpt>
   <trkpt lat="51.465084" lon="-0.169056"><ele>10.75</ele></trkpt>
   <trkpt lat="51.464815" lon="-0.169508"><ele>11</ele></trkpt>
   <trkpt lat="51.464539" lon="-0.169916"><ele>11</ele></trkpt>
   <trkpt lat="51.464256" lon="-0.170285"><ele>11</ele></trkpt>
   <trkpt lat="51.464074" lon="-0.170501"><ele>11</ele></trkpt>
   <trkpt lat="51.463889" lon="-0.1707"><ele>11.5</ele></trkpt>
   <trkpt lat="51.463713" lon="-0.170879"><ele>11.5</ele></trkpt>
   <trkpt lat="51.463485" lon="-0.171092"><ele>12.25</ele></trkpt>
   <trkpt lat="51.46311" lon="-0.171397"><ele>11.75</ele></trkpt>
   <trkpt lat="51.462939" lon="-0.171523"><ele>11.5</ele></trkpt>
   <trkpt lat="51.462649" lon="-0.171715"><ele>12</ele></trkpt>
   <trkpt lat="51.462428" lon="-0.171837"><ele>12</ele></trkpt>
   <trkpt lat="51.462255" lon="-0.171933"><ele>12</ele></trkpt>
   <trkpt lat="51.461588" lon="-0.172264"><ele>12.25</ele></trkpt>
   <trkpt lat="51.46125" lon="-0.172436"><ele>14.25</ele></trkpt>
   <trkpt lat="51.459015" lon="-0.173435"><ele>15</ele></trkpt>
   <trkpt lat="51.458152" lon="-0.173849"><ele>14.5</ele></trkpt>
   <trkpt lat="51.457646" lon="-0.174115"><ele>15.5</ele></trkpt>
   <trkpt lat="51.457124" lon="-0.1744"><ele>15.75</ele></trkpt>
   <trkpt lat="51.456613" lon="-0.174709"><ele>15.5</ele></trkpt>
   <trkpt lat="51.455596" lon="-0.175357"><ele>17</ele></trkpt>
   <trkpt lat="51.454557" lon="-0.176096"><ele>16</ele></trkpt>
   <trkpt lat="51.453834" lon="-0.176676"><ele>16.25</ele></trkpt>
   <trkpt lat="51.452333" lon="-0.177948"><ele>18.5</ele></trkpt>
   <trkpt lat="51.452128" lon="-0.17814"><ele>18.5</ele></trkpt>
   <trkpt lat="51.451661" lon="-0.178603"><ele>17</ele></trkpt>
   <trkpt lat="51.449462" lon="-0.180825"><ele>17.25</ele></trkpt>
   <trkpt lat="51.446743" lon="-0.18348"><ele>15.5</ele></trkpt>
   <trkpt lat="51.44383" lon="-0.186236"><ele>15</ele></trkpt>
   <trkpt lat="51.443353" lon="-0.186687"><ele>15.75</ele></trkpt>
   <trkpt lat="51.442631" lon="-0.187336"><ele>14.25</ele></trkpt>
   <trkpt lat="51.442322" lon="-0.187642"><ele>14.25</ele></trkpt>
   <trkpt lat="51.442096" lon="-0.187879"><ele>12.5</ele></trkpt>
   <trkpt lat="51.441948" lon="-0.188026"><ele>14.25</ele></trkpt>
   <trkpt lat="51.440899" lon="-0.189199"><ele>15</ele></trkpt>
   <trkpt lat="51.44034" lon="-0.189775"><ele>9</ele></trkpt>
   <trkpt lat="51.440126" lon="-0.189958"><ele>11</ele></trkpt>
   <trkpt lat="51.439627" lon="-0.190417"><ele>14.75</ele></trkpt>
   <trkpt lat="51.439192" lon="-0.190769"><ele>15</ele></trkpt>
   <trkpt lat="51.438746" lon="-0.191115"><ele>15.25</ele></trkpt>
   <trkpt lat="51.437767" lon="-0.191805"><ele>15.25</ele></trkpt>
   <trkpt lat="51.435983" lon="-0.193071"><ele>15.5</ele></trkpt>
   <trkpt lat="51.434999" lon="-0.193741"><ele>15.25</ele></trkpt>
   <trkpt lat="51.434227" lon="-0.194283"><ele>15.25</ele></trkpt>
   <trkpt lat="51.432751" lon="-0.195293"><ele>17</ele></trkpt>
   <trkpt lat="51.431957" lon="-0.195831"><ele>17.25</ele></trkpt>
   <trkpt lat="51.430701" lon="-0.196661"><ele>18.25</ele></trkpt>
   <trkpt lat="51.429538" lon="-0.197667"><ele>19</ele></trkpt>
   <trkpt lat="51.429153" lon="-0.197938"><ele>19</ele></trkpt>
   <trkpt lat="51.427985" lon="-0.198723"><ele>19.25</ele></trkpt>
   <trkpt lat="51.427508" lon="-0.199067"><ele>19</ele></trkpt>
   <trkpt lat="51.427062" lon="-0.199424"><ele>19</ele></trkpt>
   <trkpt lat="51.426639" lon="-0.199741"><ele>20</ele></trkpt>
   <trkpt lat="51.425734" lon="-0.200481"><ele>20</ele></trkpt>
   <trkpt lat="51.424951" lon="-0.201157"><ele>20</ele></trkpt>
   <trkpt lat="51.424559" lon="-0.201547"><ele>20</ele></trkpt>
   <trkpt lat="51.424265" lon="-0.201873"><ele>20</ele></trkpt>
   <trkpt lat="51.423866" lon="-0.202352"><ele>20</ele></trkpt>
   <trkpt lat="51.423646" lon="-0.202659"><ele>20</ele></trkpt>
   <trkpt lat="51.423414" lon="-0.20299"><ele>20</ele></trkpt>
   <trkpt lat="51.423245" lon="-0.203257"><ele>20</ele></trkpt>
   <trkpt lat="51.423046" lon="-0.203576"><ele>20</ele></trkpt>
   <trkpt lat="51.4228" lon="-0.204002"><ele>20</ele></trkpt>
   <trkpt lat="51.422723" lon="-0.20414"><ele>20</ele></trkpt>
   <trkpt lat="51.422606" lon="-0.204351"><ele>20</ele></trkpt>
   <trkpt lat="51.422461" lon="-0.204608"><ele>20</ele></trkpt>
   <trkpt lat="51.422213" lon="-0.205001"><ele>19.75</ele></trkpt>
   <trkpt lat="51.421572" lon="-0.205995"><ele>19.25</ele></trkpt>
   <trkpt lat="51.421312" lon="-0.206365"><ele>19.5</ele></trkpt>
   <trkpt lat="51.420285" lon="-0.207804"><ele>19</ele></trkpt>
   <trkpt lat="51.419548" lon="-0.208913"><ele>19.75</ele></trkpt>
   <trkpt lat="51.418472" lon="-0.210562"><ele>20.5</ele></trkpt>
   <trkpt lat="51.418085" lon="-0.211136"><ele>19.25</ele></trkpt>
   <trkpt lat="51.416983" lon="-0.212836"><ele>19.25</ele></trkpt>
   <trkpt lat="51.416638" lon="-0.213379"><ele>19.25</ele></trkpt>
   <trkpt lat="51.416415" lon="-0.213748"><ele>19.5</ele></trkpt>
   <trkpt lat="51.415953" lon="-0.214439"><ele>19.25</ele></trkpt>
   <trkpt lat="51.414456" lon="-0.216724"><ele>18.75</ele></trkpt>
   <trkpt lat="51.4134" lon="-0.218361"><ele>18.25</ele></trkpt>
   <trkpt lat="51.412837" lon="-0.219318"><ele>17.5</ele></trkpt>
   <trkpt lat="51.41273" lon="-0.219509"><ele>16.75</ele></trkpt>
   <trkpt lat="51.412058" lon="-0.220852"><ele>17.75</ele></trkpt>
   <trkpt lat="51.41161" lon="-0.221842"><ele>17.75</ele></trkpt>
   <trkpt lat="51.411432" lon="-0.22226"><ele>18.25</ele></trkpt>
   <trkpt lat="51.411169" lon="-0.222915"><ele>18.25</ele></trkpt>
   <trkpt lat="51.410644" lon="-0.224362"><ele>17.75</ele></trkpt>
   <trkpt lat="51.410254" lon="-0.225546"><ele>17.5</ele></trkpt>
   <trkpt lat="51.410161" lon="-0.225857"><ele>16.25</ele></trkpt>
   <trkpt lat="51.409886" lon="-0.226829"><ele>16</ele></trkpt>
   <trkpt lat="51.409653" lon="-0.227749"><ele>17.75</ele></trkpt>
   <trkpt lat="51.409641" lon="-0.2278"><ele>17.5</ele></trkpt>
   <trkpt lat="51.409493" lon="-0.228406"><ele>16.25</ele></trkpt>
   <trkpt lat="51.409445" lon="-0.228603"><ele>16</ele></trkpt>
   <trkpt lat="51.409346" lon="-0.229041"><ele>17</ele></trkpt>
   <trkpt lat="51.409131" lon="-0.2301"><ele>16.25</ele></trkpt>
   <trkpt lat="51.408879" lon="-0.231413"><ele>18.75</ele></trkpt>
   <trkpt lat="51.408341" lon="-0.234171"><ele>16.75</ele></trkpt>
   <trkpt lat="51.408293" lon="-0.234422"><ele>17.25</ele></trkpt>
   <trkpt lat="51.408211" lon="-0.234845"><ele>15.25</ele></trkpt>
   <trkpt lat="51.408156" lon="-0.235126"><ele>15.5</ele></trkpt>
   <trkpt lat="51.406731" lon="-0.24254"><ele>19.5</ele></trkpt>
   <trkpt lat="51.406113" lon="-0.245565"><ele>18.75</ele></trkpt>
   <trkpt lat="51.405515" lon="-0.248642"><ele>18.75</ele></trkpt>
   <trkpt lat="51.404433" lon="-0.253936"><ele>19</ele></trkpt>
   <trkpt lat="51.403883" lon="-0.256701"><ele>17.25</ele></trkpt>
   <trkpt lat="51.40381" lon="-0.257078"><ele>15.75</ele></trkpt>
   <trkpt lat="51.403765" lon="-0.257309"><ele>17.5</ele></trkpt>
   <trkpt lat="51.403544" lon="-0.258409"><ele>17.5</ele></trkpt>
   <trkpt lat="51.403496" lon="-0.258645"><ele>17</ele></trkpt>
   <trkpt lat="51.403342" lon="-0.25941"><ele>18.75</ele></trkpt>
   <trkpt lat="51.402897" lon="-0.261754"><ele>17.25</ele></trkpt>
   <trkpt lat="51.402622" lon="-0.263102"><ele>17</ele></trkpt>
   <trkpt lat="51.402485" lon="-0.263823"><ele>18</ele></trkpt>
   <trkpt lat="51.402282" lon="-0.264851"><ele>18</ele></trkpt>
   <trkpt lat="51.402218" lon="-0.265172"><ele>17</ele></trkpt>
   <trkpt lat="51.40216" lon="-0.265465"><ele>16.5</ele></trkpt>
   <trkpt lat="51.401645" lon="-0.268039"><ele>16.75</ele></trkpt>
   <trkpt lat="51.401537" lon="-0.268564"><ele>15.75</ele></trkpt>
   <trkpt lat="51.400832" lon="-0.272059"><ele>19</ele></trkpt>
   <trkpt lat="51.400245" lon="-0.27502"><ele>17.25</ele></trkpt>
   <trkpt lat="51.400006" lon="-0.276178"><ele>19.25</ele></trkpt>
   <trkpt lat="51.3998" lon="-0.27727"><ele>17</ele></trkpt>
   <trkpt lat="51.399584" lon="-0.278274"><ele>15.75</ele></trkpt>
   <trkpt lat="51.399194" lon="-0.280188"><ele>17.25</ele></trkpt>
   <trkpt lat="51.399143" lon="-0.280438"><ele>16.75</ele></trkpt>
   <trkpt lat="51.399115" lon="-0.280578"><ele>16.5</ele></trkpt>
   <trkpt lat="51.399007" lon="-0.28114"><ele>16.75</ele></trkpt>
   <trkpt lat="51.398647" lon="-0.282906"><ele>19.25</ele></trkpt>
   <trkpt lat="51.398431" lon="-0.284016"><ele>18</ele></trkpt>
   <trkpt lat="51.398084" lon="-0.285822"><ele>19.75</ele></trkpt>
   <trkpt lat="51.397849" lon="-0.286985"><ele>19</ele></trkpt>
   <trkpt lat="51.39781" lon="-0.287187"><ele>19.5</ele></trkpt>
   <trkpt lat="51.397453" lon="-0.289048"><ele>22.25</ele></trkpt>
   <trkpt lat="51.39719" lon="-0.290338"><ele>23.25</ele></trkpt>
   <trkpt lat="51.396951" lon="-0.291464"><ele>22.25</ele></trkpt>
   <trkpt lat="51.396645" lon="-0.292739"><ele>23</ele></trkpt>
   <trkpt lat="51.396332" lon="-0.293906"><ele>24.25</ele></trkpt>
   <trkpt lat="51.395823" lon="-0.295654"><ele>23.75</ele></trkpt>
   <trkpt lat="51.395476" lon="-0.296794"><ele>27.25</ele></trkpt>
   <trkpt lat="51.394935" lon="-0.298243"><ele>25</ele></trkpt>
   <trkpt lat="51.394648" lon="-0.299039"><ele>25.75</ele></trkpt>
   <trkpt lat="51.394242" lon="-0.300115"><ele>23.75</ele></trkpt>
   <trkpt lat="51.39399" lon="-0.30075"><ele>23.25</ele></trkpt>
   <trkpt lat="51.393762" lon="-0.301309"><ele>22.75</ele></trkpt>
   <trkpt lat="51.39349" lon="-0.301918"><ele>22.5</ele></trkpt>
   <trkpt lat="51.393265" lon="-0.30247"><ele>21.25</ele></trkpt>
   <trkpt lat="51.392991" lon="-0.303143"><ele>20</ele></trkpt>
   <trkpt lat="51.392388" lon="-0.304545"><ele>19.75</ele></trkpt>
   <trkpt lat="51.39231" lon="-0.304725"><ele>19.5</ele></trkpt>
   <trkpt lat="51.391944" lon="-0.305663"><ele>20</ele></trkpt>
   <trkpt lat="51.391851" lon="-0.305881"><ele>19.75</ele></trkpt>
   <trkpt lat="51.391057" lon="-0.307743"><ele>18.5</ele></trkpt>
   <trkpt lat="51.390876" lon="-0.308211"><ele>16.25</ele></trkpt>
   <trkpt lat="51.390748" lon="-0.308542"><ele>16</ele></trkpt>
   <trkpt lat="51.390697" lon="-0.308667"><ele>16.75</ele></trkpt>
   <trkpt lat="51.390335" lon="-0.309461"><ele>17.5</ele></trkpt>
   <trkpt lat="51.390219" lon="-0.309745"><ele>18</ele></trkpt>
   <trkpt lat="51.389978" lon="-0.310254"><ele>18.75</ele></trkpt>
   <trkpt lat="51.389775" lon="-0.310734"><ele>17.75</ele></trkpt>
   <trkpt lat="51.389357" lon="-0.311765"><ele>18</ele></trkpt>
   <trkpt lat="51.388877" lon="-0.312893"><ele>18.75</ele></trkpt>
   <trkpt lat="51.387594" lon="-0.315966"><ele>16</ele></trkpt>
   <trkpt lat="51.387525" lon="-0.316133"><ele>16.5</ele></trkpt>
   <trkpt lat="51.386388" lon="-0.318856"><ele>16</ele></trkpt>
   <trkpt lat="51.386336" lon="-0.31899"><ele>15.25</ele></trkpt>
   <trkpt lat="51.386081" lon="-0.319623"><ele>17.25</ele></trkpt>
   <trkpt lat="51.385467" lon="-0.321284"><ele>15.5</ele></trkpt>
   <trkpt lat="51.38535" lon="-0.321637"><ele>16.25</ele></trkpt>
   <trkpt lat="51.385219" lon="-0.321992"><ele>16.5</ele></trkpt>
   <trkpt lat="51.384877" lon="-0.323075"><ele>15.25</ele></trkpt>
   <trkpt lat="51.384307" lon="-0.324996"><ele>15.25</ele></trkpt>
   <trkpt lat="51.38401" lon="-0.326123"><ele>15.25</ele></trkpt>
   <trkpt lat="51.383409" lon="-0.328498"><ele>13.25</ele></trkpt>
   <trkpt lat="51.383348" lon="-0.328746"><ele>14.75</ele></trkpt>
   <trkpt lat="51.383078" lon="-0.329838"><ele>15.5</ele></trkpt>
   <trkpt lat="51.382998" lon="-0.33016"><ele>14.5</ele></trkpt>
   <trkpt lat="51.382752" lon="-0.331021"><ele>15.5</ele></trkpt>
   <trkpt lat="51.382583" lon="-0.331688"><ele>14.5</ele></trkpt>
   <trkpt lat="51.382478" lon="-0.332026"><ele>15.5</ele></trkpt>
   <trkpt lat="51.382415" lon="-0.332204"><ele>14.25</ele></trkpt>
   <trkpt lat="51.382297" lon="-0.332504"><ele>15.25</ele></trkpt>
   <trkpt lat="51.382041" lon="-0.333004"><ele>14.75</ele></trkpt>
   <trkpt lat="51.381833" lon="-0.333316"><ele>12.75</ele></trkpt>
   <trkpt lat="51.381713" lon="-0.333496"><ele>13.5</ele></trkpt>
   <trkpt lat="51.381597" lon="-0.333662"><ele>14.5</ele></trkpt>
   <trkpt lat="51.381486" lon="-0.333795"><ele>14</ele></trkpt>
   <trkpt lat="51.381154" lon="-0.33413"><ele>14.25</ele></trkpt>
   <trkpt lat="51.380829" lon="-0.334475"><ele>14.5</ele></trkpt>
   <trkpt lat="51.380174" lon="-0.335143"><ele>12.75</ele></trkpt>
   <trkpt lat="51.37846" lon="-0.336946"><ele>12.75</ele></trkpt>
   <trkpt lat="51.378021" lon="-0.337371"><ele>13</ele></trkpt>
   <trkpt lat="51.377126" lon="-0.338293"><ele>14</ele></trkpt>
   <trkpt lat="51.376513" lon="-0.338954"><ele>14</ele></trkpt>
   <trkpt lat="51.37621" lon="-0.339239"><ele>14.5</ele></trkpt>
   <trkpt lat="51.3751" lon="-0.340404"><ele>15.5</ele></trkpt>
   <trkpt lat="51.374781" lon="-0.340715"><ele>15.5</ele></trkpt>
   <trkpt lat="51.373586" lon="-0.341978"><ele>15.75</ele></trkpt>
   <trkpt lat="51.371108" lon="-0.344541"><ele>17.5</ele></trkpt>
   <trkpt lat="51.370685" lon="-0.344994"><ele>17.5</ele></trkpt>
   <trkpt lat="51.370026" lon="-0.345627"><ele>19</ele></trkpt>
   <trkpt lat="51.369076" lon="-0.346433"><ele>19</ele></trkpt>
   <trkpt lat="51.36848" lon="-0.346894"><ele>20</ele></trkpt>
   <trkpt lat="51.368412" lon="-0.346943"><ele>20</ele></trkpt>
   <trkpt lat="51.368161" lon="-0.347109"><ele>20</ele></trkpt>
   <trkpt lat="51.367891" lon="-0.347261"><ele>19.75</ele></trkpt>
   <trkpt lat="51.367178" lon="-0.34762"><ele>19.5</ele></trkpt>
   <trkpt lat="51.366574" lon="-0.347876"><ele>21.5</ele></trkpt>
   <trkpt lat="51.366189" lon="-0.348014"><ele>22.5</ele></trkpt>
   <trkpt lat="51.36586" lon="-0.34812"><ele>22.75</ele></trkpt>
   <trkpt lat="51.365335" lon="-0.348246"><ele>24</ele></trkpt>
   <trkpt lat="51.365042" lon="-0.348307"><ele>23.75</ele></trkpt>
   <trkpt lat="51.364761" lon="-0.348353"><ele>23</ele></trkpt>
   <trkpt lat="51.364362" lon="-0.348394"><ele>22.25</ele></trkpt>
   <trkpt lat="51.363957" lon="-0.348412"><ele>22</ele></trkpt>
   <trkpt lat="51.363199" lon="-0.348416"><ele>22.75</ele></trkpt>
   <trkpt lat="51.36303" lon="-0.348423"><ele>22.5</ele></trkpt>
   <trkpt lat="51.362023" lon="-0.348417"><ele>25.5</ele></trkpt>
   <trkpt lat="51.361533" lon="-0.348387"><ele>26.25</ele></trkpt>
   <trkpt lat="51.361059" lon="-0.348392"><ele>27.25</ele></trkpt>
   <trkpt lat="51.359777" lon="-0.348384"><ele>29.25</ele></trkpt>
   <trkpt lat="51.356283" lon="-0.348394"><ele>30.75</ele></trkpt>
   <trkpt lat="51.355756" lon="-0.348417"><ele>29.5</ele></trkpt>
   <trkpt lat="51.355398" lon="-0.348443"><ele>27.75</ele></trkpt>
   <trkpt lat="51.354074" lon="-0.348627"><ele>25.75</ele></trkpt>
   <trkpt lat="51.353493" lon="-0.348737"><ele>23.75</ele></trkpt>
   <trkpt lat="51.352419" lon="-0.349004"><ele>23.5</ele></trkpt>
   <trkpt lat="51.351735" lon="-0.349216"><ele>25.75</ele></trkpt>
   <trkpt lat="51.351079" lon="-0.34944"><ele>26.75</ele></trkpt>
   <trkpt lat="51.350555" lon="-0.349639"><ele>26.25</ele></trkpt>
   <trkpt lat="51.349527" lon="-0.350066"><ele>30.5</ele></trkpt>
   <trkpt lat="51.348885" lon="-0.350361"><ele>28.5</ele></trkpt>
   <trkpt lat="51.348004" lon="-0.350815"><ele>29</ele></trkpt>
   <trkpt lat="51.347903" lon="-0.350869"><ele>29.5</ele></trkpt>
   <trkpt lat="51.347742" lon="-0.350957"><ele>30</ele></trkpt>
   <trkpt lat="51.347036" lon="-0.351372"><ele>31.75</ele></trkpt>
   <trkpt lat="51.346649" lon="-0.351615"><ele>32.75</ele></trkpt>
   <trkpt lat="51.346291" lon="-0.351845"><ele>33</ele></trkpt>
   <trkpt lat="51.345522" lon="-0.352381"><ele>35</ele></trkpt>
   <trkpt lat="51.344492" lon="-0.353141"><ele>37.75</ele></trkpt>
   <trkpt lat="51.34413" lon="-0.353424"><ele>38.25</ele></trkpt>
   <trkpt lat="51.343663" lon="-0.353846"><ele>38.25</ele></trkpt>
   <trkpt lat="51.343296" lon="-0.354184"><ele>36.5</ele></trkpt>
   <trkpt lat="51.342524" lon="-0.354935"><ele>36</ele></trkpt>
   <trkpt lat="51.341595" lon="-0.355879"><ele>36.75</ele></trkpt>
   <trkpt lat="51.341079" lon="-0.356438"><ele>38</ele></trkpt>
   <trkpt lat="51.340613" lon="-0.356967"><ele>38.25</ele></trkpt>
   <trkpt lat="51.340317" lon="-0.357317"><ele>37.75</ele></trkpt>
   <trkpt lat="51.340254" lon="-0.357389"><ele>37.75</ele></trkpt>
   <trkpt lat="51.339183" lon="-0.358662"><ele>43</ele></trkpt>
   <trkpt lat="51.33872" lon="-0.359225"><ele>44.5</ele></trkpt>
   <trkpt lat="51.338372" lon="-0.359665"><ele>45</ele></trkpt>
   <trkpt lat="51.338041" lon="-0.360064"><ele>45.5</ele></trkpt>
   <trkpt lat="51.337773" lon="-0.360429"><ele>46.5</ele></trkpt>
   <trkpt lat="51.337504" lon="-0.360758"><ele>46.75</ele></trkpt>
   <trkpt lat="51.337224" lon="-0.361085"><ele>46.5</ele></trkpt>
   <trkpt lat="51.336096" lon="-0.362525"><ele>47</ele></trkpt>
   <trkpt lat="51.335767" lon="-0.362961"><ele>47.75</ele></trkpt>
   <trkpt lat="51.335155" lon="-0.36388"><ele>47.75</ele></trkpt>
   <trkpt lat="51.334734" lon="-0.364577"><ele>46.5</ele></trkpt>
   <trkpt lat="51.334424" lon="-0.365137"><ele>45.75</ele></trkpt>
   <trkpt lat="51.334083" lon="-0.3658"><ele>45</ele></trkpt>
   <trkpt lat="51.333707" lon="-0.366565"><ele>44.25</ele></trkpt>
   <trkpt lat="51.333458" lon="-0.36705"><ele>43.5</ele></trkpt>
   <trkpt lat="51.332571" lon="-0.368817"><ele>42</ele></trkpt>
   <trkpt lat="51.332147" lon="-0.369591"><ele>41.5</ele></trkpt>
   <trkpt lat="51.331856" lon="-0.370048"><ele>40.5</ele></trkpt>
   <trkpt lat="51.331652" lon="-0.370337"><ele>40.75</ele></trkpt>
   <trkpt lat="51.331423" lon="-0.370639"><ele>40.75</ele></trkpt>
   <trkpt lat="51.331234" lon="-0.37088"><ele>40.25</ele></trkpt>
   <trkpt lat="51.33072" lon="-0.371423"><ele>40</ele></trkpt>
   <trkpt lat="51.330551" lon="-0.371585"><ele>40</ele></trkpt>
   <trkpt lat="51.330138" lon="-0.371932"><ele>39.75</ele></trkpt>
   <trkpt lat="51.329606" lon="-0.372306"><ele>39</ele></trkpt>
   <trkpt lat="51.329387" lon="-0.372446"><ele>39</ele></trkpt>
   <trkpt lat="51.329076" lon="-0.372608"><ele>38.5</ele></trkpt>
   <trkpt lat="51.328876" lon="-0.372701"><ele>38.75</ele></trkpt>
   <trkpt lat="51.328618" lon="-0.372806"><ele>38.75</ele></trkpt>
   <trkpt lat="51.328028" lon="-0.373057"><ele>37.75</ele></trkpt>
   <trkpt lat="51.326658" lon="-0.373532"><ele>38</ele></trkpt>
   <trkpt lat="51.326364" lon="-0.373643"><ele>38.25</ele></trkpt>
   <trkpt lat="51.326102" lon="-0.373746"><ele>39.25</ele></trkpt>
   <trkpt lat="51.325536" lon="-0.374012"><ele>39</ele></trkpt>
   <trkpt lat="51.325126" lon="-0.374256"><ele>37.75</ele></trkpt>
   <trkpt lat="51.324927" lon="-0.374409"><ele>37.25</ele></trkpt>
   <trkpt lat="51.324743" lon="-0.374537"><ele>36.75</ele></trkpt>
   <trkpt lat="51.324238" lon="-0.374947"><ele>35.75</ele></trkpt>
   <trkpt lat="51.32401" lon="-0.375163"><ele>35.25</ele></trkpt>
   <trkpt lat="51.323724" lon="-0.37546"><ele>34.25</ele></trkpt>
   <trkpt lat="51.323249" lon="-0.376019"><ele>33.5</ele></trkpt>
   <trkpt lat="51.322962" lon="-0.376409"><ele>33</ele></trkpt>
   <trkpt lat="51.322552" lon="-0.377029"><ele>33</ele></trkpt>
   <trkpt lat="51.322242" lon="-0.377539"><ele>32</ele></trkpt>
   <trkpt lat="51.321961" lon="-0.378046"><ele>32</ele></trkpt>
   <trkpt lat="51.321433" lon="-0.379073"><ele>31.25</ele></trkpt>
   <trkpt lat="51.321207" lon="-0.379573"><ele>32</ele></trkpt>
   <trkpt lat="51.321069" lon="-0.379857"><ele>32.25</ele></trkpt>
   <trkpt lat="51.320876" lon="-0.380291"><ele>30.5</ele></trkpt>
   <trkpt lat="51.320677" lon="-0.380785"><ele>33</ele></trkpt>
   <trkpt lat="51.320411" lon="-0.381554"><ele>31.5</ele></trkpt>
   <trkpt lat="51.32016" lon="-0.382326"><ele>31.5</ele></trkpt>
   <trkpt lat="51.319926" lon="-0.383098"><ele>29.5</ele></trkpt>
   <trkpt lat="51.319086" lon="-0.386125"><ele>26</ele></trkpt>
   <trkpt lat="51.318763" lon="-0.38724"><ele>25.75</ele></trkpt>
   <trkpt lat="51.318626" lon="-0.387638"><ele>25</ele></trkpt>
   <trkpt lat="51.318352" lon="-0.38834"><ele>25.75</ele></trkpt>
   <trkpt lat="51.318259" lon="-0.388581"><ele>25.25</ele></trkpt>
   <trkpt lat="51.318102" lon="-0.38895"><ele>25</ele></trkpt>
   <trkpt lat="51.317955" lon="-0.389275"><ele>25.25</ele></trkpt>
   <trkpt lat="51.317777" lon="-0.389646"><ele>25.5</ele></trkpt>
   <trkpt lat="51.317649" lon="-0.389894"><ele>25</ele></trkpt>
   <trkpt lat="51.317361" lon="-0.390421"><ele>24.25</ele></trkpt>
   <trkpt lat="51.317176" lon="-0.390734"><ele>24.25</ele></trkpt>
   <trkpt lat="51.316804" lon="-0.391305"><ele>24.25</ele></trkpt>
   <trkpt lat="51.316552" lon="-0.391653"><ele>24</ele></trkpt>
   <trkpt lat="51.316384" lon="-0.391937"><ele>24.75</ele></trkpt>
   <trkpt lat="51.316145" lon="-0.392232"><ele>24.5</ele></trkpt>
   <trkpt lat="51.315786" lon="-0.392637"><ele>24.25</ele></trkpt>
   <trkpt lat="51.315442" lon="-0.392996"><ele>23.25</ele></trkpt>
   <trkpt lat="51.314975" lon="-0.393421"><ele>24.25</ele></trkpt>
   <trkpt lat="51.314651" lon="-0.393684"><ele>24</ele></trkpt>
   <trkpt lat="51.314371" lon="-0.393883"><ele>23.5</ele></trkpt>
   <trkpt lat="51.313961" lon="-0.394152"><ele>24.25</ele></trkpt>
   <trkpt lat="51.312802" lon="-0.394866"><ele>22.5</ele></trkpt>
   <trkpt lat="51.312347" lon="-0.395152"><ele>23.25</ele></trkpt>
   <trkpt lat="51.311338" lon="-0.395791"><ele>25.5</ele></trkpt>
   <trkpt lat="51.310602" lon="-0.396288"><ele>24</ele></trkpt>
   <trkpt lat="51.310514" lon="-0.396357"><ele>24.25</ele></trkpt>
   <trkpt lat="51.310086" lon="-0.396671"><ele>27</ele></trkpt>
   <trkpt lat="51.309603" lon="-0.397051"><ele>29.25</ele></trkpt>
   <trkpt lat="51.30931" lon="-0.397309"><ele>30</ele></trkpt>
   <trkpt lat="51.30866" lon="-0.397905"><ele>30.25</ele></trkpt>
   <trkpt lat="51.308212" lon="-0.398349"><ele>30.25</ele></trkpt>
   <trkpt lat="51.307778" lon="-0.398804"><ele>30.25</ele></trkpt>
   <trkpt lat="51.307459" lon="-0.399159"><ele>30</ele></trkpt>
   <trkpt lat="51.307218" lon="-0.399442"><ele>30.75</ele></trkpt>
   <trkpt lat="51.306636" lon="-0.400152"><ele>29.75</ele></trkpt>
   <trkpt lat="51.305703" lon="-0.401354"><ele>35</ele></trkpt>
   <trkpt lat="51.305439" lon="-0.401657"><ele>30.75</ele></trkpt>
   <trkpt lat="51.305318" lon="-0.401812"><ele>30.5</ele></trkpt>
   <trkpt lat="51.304521" lon="-0.402891"><ele>30.5</ele></trkpt>
   <trkpt lat="51.304109" lon="-0.403427"><ele>31</ele></trkpt>
   <trkpt lat="51.303664" lon="-0.403957"><ele>30.25</ele></trkpt>
   <trkpt lat="51.300775" lon="-0.407698"><ele>34.5</ele></trkpt>
   <trkpt lat="51.297531" lon="-0.411911"><ele>38.5</ele></trkpt>
   <trkpt lat="51.297431" lon="-0.412048"><ele>38.5</ele></trkpt>
   <trkpt lat="51.294989" lon="-0.415202"><ele>42.5</ele></trkpt>
   <trkpt lat="51.29494" lon="-0.415265"><ele>42.5</ele></trkpt>
   <trkpt lat="51.293844" lon="-0.4167"><ele>46.5</ele></trkpt>
   <trkpt lat="51.293093" lon="-0.417662"><ele>48.5</ele></trkpt>
   <trkpt lat="51.292206" lon="-0.41884"><ele>50</ele></trkpt>
   <trkpt lat="51.291884" lon="-0.419292"><ele>51.5</ele></trkpt>
   <trkpt lat="51.291343" lon="-0.419979"><ele>51.5</ele></trkpt>
   <trkpt lat="51.290807" lon="-0.420679"><ele>52.5</ele></trkpt>
   <trkpt lat="51.290016" lon="-0.421717"><ele>52.25</ele></trkpt>
   <trkpt lat="51.289219" lon="-0.422743"><ele>53</ele></trkpt>
   <trkpt lat="51.288974" lon="-0.423004"><ele>53</ele></trkpt>
   <trkpt lat="51.287479" lon="-0.424924"><ele>54.5</ele></trkpt>
   <trkpt lat="51.286826" lon="-0.425794"><ele>56.5</ele></trkpt>
   <trkpt lat="51.284876" lon="-0.428309"><ele>59.75</ele></trkpt>
   <trkpt lat="51.284751" lon="-0.42846"><ele>60.25</ele></trkpt>
   <trkpt lat="51.281168" lon="-0.433167"><ele>67.5</ele></trkpt>
   <trkpt lat="51.279127" lon="-0.435758"><ele>65.5</ele></trkpt>
   <trkpt lat="51.278952" lon="-0.436003"><ele>62</ele></trkpt>
   <trkpt lat="51.278855" lon="-0.436134"><ele>61.75</ele></trkpt>
   <trkpt lat="51.278655" lon="-0.436403"><ele>64.25</ele></trkpt>
   <trkpt lat="51.277424" lon="-0.438318"><ele>63.25</ele></trkpt>
   <trkpt lat="51.276846" lon="-0.439309"><ele>64.25</ele></trkpt>
   <trkpt lat="51.276424" lon="-0.440064"><ele>64.75</ele></trkpt>
   <trkpt lat="51.275981" lon="-0.440933"><ele>65.5</ele></trkpt>
   <trkpt lat="51.275122" lon="-0.442809"><ele>66.25</ele></trkpt>
   <trkpt lat="51.274536" lon="-0.444254"><ele>66</ele></trkpt>
   <trkpt lat="51.273999" lon="-0.445758"><ele>65.75</ele></trkpt>
   <trkpt lat="51.273646" lon="-0.446842"><ele>63.25</ele></trkpt>
   <trkpt lat="51.273333" lon="-0.447912"><ele>61.75</ele></trkpt>
   <trkpt lat="51.273017" lon="-0.44906"><ele>61.5</ele></trkpt>
   <trkpt lat="51.272698" lon="-0.450345"><ele>60.25</ele></trkpt>
   <trkpt lat="51.272597" lon="-0.450774"><ele>58.25</ele></trkpt>
   <trkpt lat="51.272473" lon="-0.451352"><ele>61.25</ele></trkpt>
   <trkpt lat="51.272358" lon="-0.451894"><ele>59.5</ele></trkpt>
   <trkpt lat="51.272246" lon="-0.45249"><ele>61.75</ele></trkpt>
   <trkpt lat="51.272054" lon="-0.453623"><ele>62</ele></trkpt>
   <trkpt lat="51.271874" lon="-0.454787"><ele>62.25</ele></trkpt>
   <trkpt lat="51.270945" lon="-0.46126"><ele>56.5</ele></trkpt>
   <trkpt lat="51.270773" lon="-0.462527"><ele>57.25</ele></trkpt>
   <trkpt lat="51.2705" lon="-0.464586"><ele>57</ele></trkpt>
   <trkpt lat="51.270172" lon="-0.466809"><ele>55</ele></trkpt>
   <trkpt lat="51.269636" lon="-0.47081"><ele>58</ele></trkpt>
   <trkpt lat="51.269203" lon="-0.473002"><ele>60.5</ele></trkpt>
   <trkpt lat="51.268931" lon="-0.474174"><ele>62</ele></trkpt>
   <trkpt lat="51.268678" lon="-0.475212"><ele>64.5</ele></trkpt>
   <trkpt lat="51.268233" lon="-0.476875"><ele>68</ele></trkpt>
   <trkpt lat="51.267648" lon="-0.47883"><ele>70.75</ele></trkpt>
   <trkpt lat="51.267147" lon="-0.480622"><ele>68.5</ele></trkpt>
   <trkpt lat="51.26676" lon="-0.482429"><ele>62.25</ele></trkpt>
   <trkpt lat="51.266697" lon="-0.482763"><ele>63.25</ele></trkpt>
   <trkpt lat="51.266672" lon="-0.482898"><ele>63.75</ele></trkpt>
   <trkpt lat="51.266514" lon="-0.483736"><ele>60.5</ele></trkpt>
   <trkpt lat="51.266329" lon="-0.484862"><ele>62</ele></trkpt>
   <trkpt lat="51.265981" lon="-0.487436"><ele>58</ele></trkpt>
   <trkpt lat="51.265653" lon="-0.489955"><ele>57.25</ele></trkpt>
   <trkpt lat="51.264019" lon="-0.502853"><ele>55</ele></trkpt>
   <trkpt lat="51.263718" lon="-0.505251"><ele>58.25</ele></trkpt>
   <trkpt lat="51.26324" lon="-0.508952"><ele>46.75</ele></trkpt>
   <trkpt lat="51.263107" lon="-0.509813"><ele>46.25</ele></trkpt>
   <trkpt lat="51.262889" lon="-0.51097"><ele>44.5</ele></trkpt>
   <trkpt lat="51.262625" lon="-0.512136"><ele>44</ele></trkpt>
   <trkpt lat="51.262428" lon="-0.512918"><ele>45</ele></trkpt>
   <trkpt lat="51.262199" lon="-0.513685"><ele>46.5</ele></trkpt>
   <trkpt lat="51.261946" lon="-0.514455"><ele>46.75</ele></trkpt>
   <trkpt lat="51.26123" lon="-0.516493"><ele>48</ele></trkpt>
   <trkpt lat="51.26078" lon="-0.517813"><ele>50</ele></trkpt>
   <trkpt lat="51.260421" lon="-0.518877"><ele>52.25</ele></trkpt>
   <trkpt lat="51.260014" lon="-0.520489"><ele>52</ele></trkpt>
   <trkpt lat="51.259829" lon="-0.521281"><ele>54.75</ele></trkpt>
   <trkpt lat="51.259572" lon="-0.52249"><ele>56.5</ele></trkpt>
   <trkpt lat="51.259291" lon="-0.524137"><ele>56</ele></trkpt>
   <trkpt lat="51.258987" lon="-0.525838"><ele>54.5</ele></trkpt>
   <trkpt lat="51.258859" lon="-0.526649"><ele>51.75</ele></trkpt>
   <trkpt lat="51.258726" lon="-0.527409"><ele>49.75</ele></trkpt>
   <trkpt lat="51.258233" lon="-0.529887"><ele>49.75</ele></trkpt>
   <trkpt lat="51.257619" lon="-0.532312"><ele>50.75</ele></trkpt>
   <trkpt lat="51.257418" lon="-0.533005"><ele>49</ele></trkpt>
   <trkpt lat="51.2572" lon="-0.533713"><ele>49.75</ele></trkpt>
   <trkpt lat="51.257088" lon="-0.534043"><ele>47.25</ele></trkpt>
   <trkpt lat="51.256964" lon="-0.53442"><ele>49.25</ele></trkpt>
   <trkpt lat="51.2559" lon="-0.53729"><ele>47.5</ele></trkpt>
   <trkpt lat="51.255314" lon="-0.538635"><ele>48</ele></trkpt>
   <trkpt lat="51.254815" lon="-0.539666"><ele>46.5</ele></trkpt>
   <trkpt lat="51.254491" lon="-0.540294"><ele>47.25</ele></trkpt>
   <trkpt lat="51.254058" lon="-0.541092"><ele>47.25</ele></trkpt>
   <trkpt lat="51.252977" lon="-0.542892"><ele>49.5</ele></trkpt>
   <trkpt lat="51.251877" lon="-0.544654"><ele>51.25</ele></trkpt>
   <trkpt lat="51.251832" lon="-0.544725"><ele>51.25</ele></trkpt>
   <trkpt lat="51.251614" lon="-0.545067"><ele>52</ele></trkpt>
   <trkpt lat="51.249292" lon="-0.548783"><ele>55.5</ele></trkpt>
   <trkpt lat="51.248527" lon="-0.550038"><ele>55.5</ele></trkpt>
   <trkpt lat="51.247455" lon="-0.551701"><ele>56</ele></trkpt>
   <trkpt lat="51.247125" lon="-0.552212"><ele>55.75</ele></trkpt>
   <trkpt lat="51.246664" lon="-0.55296"><ele>56.25</ele></trkpt>
   <trkpt lat="51.246435" lon="-0.553309"><ele>56.5</ele></trkpt>
   <trkpt lat="51.246077" lon="-0.553853"><ele>57</ele></trkpt>
   <trkpt lat="51.245325" lon="-0.555079"><ele>58.25</ele></trkpt>
   <trkpt lat="51.244389" lon="-0.556471"><ele>56.75</ele></trkpt>
   <trkpt lat="51.24391" lon="-0.557081"><ele>56</ele></trkpt>
   <trkpt lat="51.243506" lon="-0.55756"><ele>56.5</ele></trkpt>
   <trkpt lat="51.243047" lon="-0.558073"><ele>54</ele></trkpt>
   <trkpt lat="51.242634" lon="-0.558478"><ele>55.25</ele></trkpt>
   <trkpt lat="51.241857" lon="-0.559372"><ele>56.25</ele></trkpt>
   <trkpt lat="51.241611" lon="-0.559717"><ele>54.5</ele></trkpt>
   <trkpt lat="51.241331" lon="-0.560219"><ele>55.5</ele></trkpt>
   <trkpt lat="51.241218" lon="-0.560489"><ele>57.25</ele></trkpt>
   <trkpt lat="51.241065" lon="-0.560927"><ele>55</ele></trkpt>
   <trkpt lat="51.240937" lon="-0.561357"><ele>57.25</ele></trkpt>
   <trkpt lat="51.240817" lon="-0.561888"><ele>52.5</ele></trkpt>
   <trkpt lat="51.240727" lon="-0.562343"><ele>56.75</ele></trkpt>
   <trkpt lat="51.240657" lon="-0.562837"><ele>57</ele></trkpt>
   <trkpt lat="51.240615" lon="-0.563374"><ele>54.75</ele></trkpt>
   <trkpt lat="51.240609" lon="-0.563871"><ele>53.75</ele></trkpt>
   <trkpt lat="51.240628" lon="-0.564227"><ele>54</ele></trkpt>
   <trkpt lat="51.240675" lon="-0.564792"><ele>53.5</ele></trkpt>
   <trkpt lat="51.240722" lon="-0.565169"><ele>51.75</ele></trkpt>
   <trkpt lat="51.240803" lon="-0.565604"><ele>50</ele></trkpt>
   <trkpt lat="51.240892" lon="-0.565973"><ele>51</ele></trkpt>
   <trkpt lat="51.240953" lon="-0.5662"><ele>51.5</ele></trkpt>
   <trkpt lat="51.241101" lon="-0.566653"><ele>50</ele></trkpt>
   <trkpt lat="51.241318" lon="-0.56716"><ele>50.5</ele></trkpt>
   <trkpt lat="51.241454" lon="-0.567441"><ele>50.25</ele></trkpt>
   <trkpt lat="51.241619" lon="-0.567739"><ele>49.25</ele></trkpt>
   <trkpt lat="51.242021" lon="-0.568387"><ele>48.75</ele></trkpt>
   <trkpt lat="51.242334" lon="-0.568894"><ele>48.25</ele></trkpt>
   <trkpt lat="51.24254" lon="-0.569309"><ele>46.75</ele></trkpt>
   <trkpt lat="51.242689" lon="-0.569747"><ele>44</ele></trkpt>
   <trkpt lat="51.242728" lon="-0.569881"><ele>43.5</ele></trkpt>
   <trkpt lat="51.242795" lon="-0.570162"><ele>42.25</ele></trkpt>
   <trkpt lat="51.243021" lon="-0.571223"><ele>39.5</ele></trkpt>
   <trkpt lat="51.243134" lon="-0.571757"><ele>41</ele></trkpt>
   <trkpt lat="51.244084" lon="-0.576291"><ele>37.75</ele></trkpt>
   <trkpt lat="51.244195" lon="-0.576828"><ele>36</ele></trkpt>
   <trkpt lat="51.244475" lon="-0.578169"><ele>38.5</ele></trkpt>
   <trkpt lat="51.244564" lon="-0.578705"><ele>33.75</ele></trkpt>
   <trkpt lat="51.244604" lon="-0.579097"><ele>34.25</ele></trkpt>
   <trkpt lat="51.244625" lon="-0.579484"><ele>34.5</ele></trkpt>
   <trkpt lat="51.244624" lon="-0.579724"><ele>34.5</ele></trkpt>
   <trkpt lat="51.244615" lon="-0.579968"><ele>34.75</ele></trkpt>
   <trkpt lat="51.244598" lon="-0.580205"><ele>35</ele></trkpt>
   <trkpt lat="51.244569" lon="-0.580423"><ele>35</ele></trkpt>
   <trkpt lat="51.2445" lon="-0.580763"><ele>35.25</ele></trkpt>
   <trkpt lat="51.244425" lon="-0.581048"><ele>37.25</ele></trkpt>
   <trkpt lat="51.244401" lon="-0.581134"><ele>36.5</ele></trkpt>
   <trkpt lat="51.244231" lon="-0.581586"><ele>35.75</ele></trkpt>
   <trkpt lat="51.244034" lon="-0.581976"><ele>34.5</ele></trkpt>
   <trkpt lat="51.243834" lon="-0.582265"><ele>35.75</ele></trkpt>
   <trkpt lat="51.243611" lon="-0.582526"><ele>36.75</ele></trkpt>
   <trkpt lat="51.243376" lon="-0.582722"><ele>37.5</ele></trkpt>
   <trkpt lat="51.243109" lon="-0.582884"><ele>38</ele></trkpt>
   <trkpt lat="51.242825" lon="-0.582993"><ele>38</ele></trkpt>
   <trkpt lat="51.242544" lon="-0.583039"><ele>37.75</ele></trkpt>
   <trkpt lat="51.24221" lon="-0.583036"><ele>37.75</ele></trkpt>
   <trkpt lat="51.241911" lon="-0.582997"><ele>37.75</ele></trkpt>
   <trkpt lat="51.241504" lon="-0.582884"><ele>38</ele></trkpt>
   <trkpt lat="51.240864" lon="-0.582644"><ele>37.5</ele></trkpt>
   <trkpt lat="51.240493" lon="-0.582543"><ele>38</ele></trkpt>
   <trkpt lat="51.239966" lon="-0.58231"><ele>37.25</ele></trkpt>
   <trkpt lat="51.23954" lon="-0.582168"><ele>37</ele></trkpt>
   <trkpt lat="51.239207" lon="-0.582037"><ele>37</ele></trkpt>
   <trkpt lat="51.238786" lon="-0.581866"><ele>37</ele></trkpt>
   <trkpt lat="51.238232" lon="-0.581599"><ele>37</ele></trkpt>
   <trkpt lat="51.238146" lon="-0.581558"><ele>37</ele></trkpt>
   <trkpt lat="51.237368" lon="-0.581108"><ele>37</ele></trkpt>
   <trkpt lat="51.236523" lon="-0.5806"><ele>37</ele></trkpt>
   <trkpt lat="51.236291" lon="-0.58048"><ele>37</ele></trkpt>
   <trkpt lat="51.236025" lon="-0.580363"><ele>37</ele></trkpt>
   <trkpt lat="51.235753" lon="-0.580287"><ele>37</ele></trkpt>
   <trkpt lat="51.235367" lon="-0.580209"><ele>37</ele></trkpt>
   <trkpt lat="51.234996" lon="-0.580135"><ele>37</ele></trkpt>
   <trkpt lat="51.234903" lon="-0.580116"><ele>37</ele></trkpt>
   <trkpt lat="51.234369" lon="-0.579993"><ele>42.25</ele></trkpt>
   <trkpt lat="51.227485" lon="-0.578559"><ele>44.75</ele></trkpt>
   <trkpt lat="51.225188" lon="-0.578072"><ele>44</ele></trkpt>
   <trkpt lat="51.224111" lon="-0.577871"><ele>50.25</ele></trkpt>
   <trkpt lat="51.223367" lon="-0.57771"><ele>39.25</ele></trkpt>
   <trkpt lat="51.222937" lon="-0.57763"><ele>37.5</ele></trkpt>
   <trkpt lat="51.222361" lon="-0.577548"><ele>37.5</ele></trkpt>
   <trkpt lat="51.22202" lon="-0.577532"><ele>35.5</ele></trkpt>
   <trkpt lat="51.221543" lon="-0.577524"><ele>37.5</ele></trkpt>
   <trkpt lat="51.221095" lon="-0.577557"><ele>37.5</ele></trkpt>
   <trkpt lat="51.220708" lon="-0.577607"><ele>36.25</ele></trkpt>
   <trkpt lat="51.220374" lon="-0.577669"><ele>36</ele></trkpt>
   <trkpt lat="51.220054" lon="-0.57775"><ele>36.5</ele></trkpt>
   <trkpt lat="51.219479" lon="-0.577905"><ele>37</ele></trkpt>
   <trkpt lat="51.218742" lon="-0.578202"><ele>36.25</ele></trkpt>
   <trkpt lat="51.217856" lon="-0.578617"><ele>36.5</ele></trkpt>
   <trkpt lat="51.216878" lon="-0.579144"><ele>36.25</ele></trkpt>
   <trkpt lat="51.215988" lon="-0.579667"><ele>36.25</ele></trkpt>
   <trkpt lat="51.215227" lon="-0.58015"><ele>36.25</ele></trkpt>
   <trkpt lat="51.214619" lon="-0.580562"><ele>36.25</ele></trkpt>
   <trkpt lat="51.213488" lon="-0.58135"><ele>36.5</ele></trkpt>
   <trkpt lat="51.213019" lon="-0.581741"><ele>37</ele></trkpt>
   <trkpt lat="51.211486" lon="-0.583103"><ele>37.25</ele></trkpt>
   <trkpt lat="51.211029" lon="-0.583533"><ele>37.5</ele></trkpt>
   <trkpt lat="51.210558" lon="-0.584018"><ele>38</ele></trkpt>
   <trkpt lat="51.210049" lon="-0.584632"><ele>38</ele></trkpt>
   <trkpt lat="51.209442" lon="-0.585316"><ele>38</ele></trkpt>
   <trkpt lat="51.208641" lon="-0.58627"><ele>37.75</ele></trkpt>
   <trkpt lat="51.207657" lon="-0.587506"><ele>38.5</ele></trkpt>
   <trkpt lat="51.206138" lon="-0.589692"><ele>39</ele></trkpt>
   <trkpt lat="51.205696" lon="-0.590386"><ele>39</ele></trkpt>
   <trkpt lat="51.202734" lon="-0.595411"><ele>40</ele></trkpt>
   <trkpt lat="51.200054" lon="-0.599982"><ele>41.75</ele></trkpt>
   <trkpt lat="51.199255" lon="-0.60135"><ele>41.5</ele></trkpt>
   <trkpt lat="51.19859" lon="-0.602414"><ele>42</ele></trkpt>
   <trkpt lat="51.197923" lon="-0.603358"><ele>43</ele></trkpt>
   <trkpt lat="51.197162" lon="-0.604379"><ele>44</ele></trkpt>
   <trkpt lat="51.196195" lon="-0.605668"><ele>44.25</ele></trkpt>
   <trkpt lat="51.196069" lon="-0.605842"><ele>44</ele></trkpt>
   <trkpt lat="51.195733" lon="-0.60625"><ele>44.75</ele></trkpt>
   <trkpt lat="51.195386" lon="-0.60662"><ele>44.75</ele></trkpt>
   <trkpt lat="51.194954" lon="-0.607009"><ele>45</ele></trkpt>
   <trkpt lat="51.193905" lon="-0.607835"><ele>45.25</ele></trkpt>
   <trkpt lat="51.19347" lon="-0.608254"><ele>46</ele></trkpt>
   <trkpt lat="51.193051" lon="-0.608737"><ele>46.75</ele></trkpt>
   <trkpt lat="51.192819" lon="-0.609044"><ele>46.75</ele></trkpt>
   <trkpt lat="51.192179" lon="-0.610009"><ele>46.5</ele></trkpt>
   <trkpt lat="51.191843" lon="-0.610642"><ele>49.25</ele></trkpt>
   <trkpt lat="51.191456" lon="-0.611493"><ele>49.25</ele></trkpt>
   <trkpt lat="51.190782" lon="-0.613193"><ele>42.75</ele></trkpt>
   <trkpt lat="51.190423" lon="-0.614028"><ele>39.5</ele></trkpt>
   <trkpt lat="51.190188" lon="-0.614501"><ele>39.5</ele></trkpt>
   <trkpt lat="51.190086" lon="-0.614698"><ele>40.75</ele></trkpt>
   <trkpt lat="51.189414" lon="-0.615889"><ele>39.75</ele></trkpt>
   <trkpt lat="51.189198" lon="-0.616241"><ele>40</ele></trkpt>
   <trkpt lat="51.188604" lon="-0.61709"><ele>40.75</ele></trkpt>
   <trkpt lat="51.188211" lon="-0.617566"><ele>38</ele></trkpt>
   <trkpt lat="51.188023" lon="-0.617777"><ele>41.75</ele></trkpt>
   <trkpt lat="51.187889" lon="-0.617919"><ele>41</ele></trkpt>
   <trkpt lat="51.187644" lon="-0.618155"><ele>43</ele></trkpt>
   <trkpt lat="51.18741" lon="-0.618359"><ele>43.75</ele></trkpt>
   <trkpt lat="51.187134" lon="-0.618587"><ele>44.25</ele></trkpt>
   <trkpt lat="51.186976" lon="-0.618696"><ele>44.75</ele></trkpt>
   <trkpt lat="51.186513" lon="-0.61899"><ele>45.5</ele></trkpt>
   <trkpt lat="51.185768" lon="-0.619415"><ele>45</ele></trkpt>
   <trkpt lat="51.185282" lon="-0.619776"><ele>46</ele></trkpt>
   <trkpt lat="51.184788" lon="-0.620211"><ele>46</ele></trkpt>
   <trkpt lat="51.184346" lon="-0.620683"><ele>46.5</ele></trkpt>
   <trkpt lat="51.183986" lon="-0.621139"><ele>45.75</ele></trkpt>
   <trkpt lat="51.183545" lon="-0.621717"><ele>45</ele></trkpt>
   <trkpt lat="51.183056" lon="-0.622482"><ele>45.75</ele></trkpt>
   <trkpt lat="51.18264" lon="-0.6231"><ele>45.5</ele></trkpt>
   <trkpt lat="51.182154" lon="-0.623781"><ele>46.75</ele></trkpt>
   <trkpt lat="51.182063" lon="-0.623895"><ele>46.75</ele></trkpt>
   <trkpt lat="51.181954" lon="-0.624032"><ele>48</ele></trkpt>
   <trkpt lat="51.181648" lon="-0.624375"><ele>48.75</ele></trkpt>
   <trkpt lat="51.181232" lon="-0.624761"><ele>46</ele></trkpt>
   <trkpt lat="51.180987" lon="-0.624994"><ele>44.75</ele></trkpt>
   <trkpt lat="51.180337" lon="-0.62548"><ele>46.5</ele></trkpt>
   <trkpt lat="51.179711" lon="-0.625848"><ele>46.75</ele></trkpt>
   <trkpt lat="51.179251" lon="-0.626076"><ele>46.5</ele></trkpt>
   <trkpt lat="51.178666" lon="-0.626254"><ele>47</ele></trkpt>
   <trkpt lat="51.177802" lon="-0.626488"><ele>47.25</ele></trkpt>
   <trkpt lat="51.177339" lon="-0.62665"><ele>47.75</ele></trkpt>
   <trkpt lat="51.176792" lon="-0.626889"><ele>47</ele></trkpt>
   <trkpt lat="51.176187" lon="-0.627265"><ele>46.75</ele></trkpt>
   <trkpt lat="51.175716" lon="-0.627634"><ele>47</ele></trkpt>
   <trkpt lat="51.174522" lon="-0.628758"><ele>48.75</ele></trkpt>
   <trkpt lat="51.17396" lon="-0.629325"><ele>48.25</ele></trkpt>
   <trkpt lat="51.173485" lon="-0.629791"><ele>49.25</ele></trkpt>
   <trkpt lat="51.17294" lon="-0.630356"><ele>51.75</ele></trkpt>
   <trkpt lat="51.171691" lon="-0.63156"><ele>53</ele></trkpt>
   <trkpt lat="51.171186" lon="-0.632006"><ele>51</ele></trkpt>
   <trkpt lat="51.170323" lon="-0.632652"><ele>53</ele></trkpt>
   <trkpt lat="51.169713" lon="-0.633125"><ele>57.5</ele></trkpt>
   <trkpt lat="51.169096" lon="-0.633588"><ele>57.25</ele></trkpt>
   <trkpt lat="51.168469" lon="-0.634011"><ele>59.25</ele></trkpt>
   <trkpt lat="51.16789" lon="-0.634381"><ele>60</ele></trkpt>
   <trkpt lat="51.164787" lon="-0.636076"><ele>60.25</ele></trkpt>
   <trkpt lat="51.163183" lon="-0.636919"><ele>59.75</ele></trkpt>
   <trkpt lat="51.163015" lon="-0.637007"><ele>59.25</ele></trkpt>
   <trkpt lat="51.155823" lon="-0.640829"><ele>61.75</ele></trkpt>
   <trkpt lat="51.155384" lon="-0.641006"><ele>61.5</ele></trkpt>
   <trkpt lat="51.154891" lon="-0.641183"><ele>63.25</ele></trkpt>
   <trkpt lat="51.154209" lon="-0.641357"><ele>65</ele></trkpt>
   <trkpt lat="51.153637" lon="-0.64145"><ele>66</ele></trkpt>
   <trkpt lat="51.152972" lon="-0.641469"><ele>67.25</ele></trkpt>
   <trkpt lat="51.152313" lon="-0.641395"><ele>67.75</ele></trkpt>
   <trkpt lat="51.150251" lon="-0.641001"><ele>71.75</ele></trkpt>
   <trkpt lat="51.149678" lon="-0.640946"><ele>72.75</ele></trkpt>
   <trkpt lat="51.149216" lon="-0.640953"><ele>72.5</ele></trkpt>
   <trkpt lat="51.148747" lon="-0.641014"><ele>73.5</ele></trkpt>
   <trkpt lat="51.147201" lon="-0.641334"><ele>73.5</ele></trkpt>
   <trkpt lat="51.146214" lon="-0.641496"><ele>73.75</ele></trkpt>
   <trkpt lat="51.145312" lon="-0.641593"><ele>75.25</ele></trkpt>
   <trkpt lat="51.143953" lon="-0.641662"><ele>78.5</ele></trkpt>
   <trkpt lat="51.142368" lon="-0.641615"><ele>76.5</ele></trkpt>
   <trkpt lat="51.142168" lon="-0.641599"><ele>75.5</ele></trkpt>
   <trkpt lat="51.141328" lon="-0.641567"><ele>80</ele></trkpt>
   <trkpt lat="51.140804" lon="-0.641572"><ele>81.25</ele></trkpt>
   <trkpt lat="51.14023" lon="-0.64162"><ele>83.25</ele></trkpt>
   <trkpt lat="51.139852" lon="-0.641671"><ele>84.5</ele></trkpt>
   <trkpt lat="51.139346" lon="-0.641764"><ele>86.75</ele></trkpt>
   <trkpt lat="51.138744" lon="-0.641923"><ele>87.75</ele></trkpt>
   <trkpt lat="51.137915" lon="-0.642259"><ele>88.5</ele></trkpt>
   <trkpt lat="51.137355" lon="-0.642513"><ele>89.25</ele></trkpt>
   <trkpt lat="51.13669" lon="-0.642872"><ele>92.5</ele></trkpt>
   <trkpt lat="51.136164" lon="-0.64324"><ele>90.25</ele></trkpt>
   <trkpt lat="51.13566" lon="-0.643629"><ele>89</ele></trkpt>
   <trkpt lat="51.134803" lon="-0.644363"><ele>90.25</ele></trkpt>
   <trkpt lat="51.134209" lon="-0.644826"><ele>88.75</ele></trkpt>
   <trkpt lat="51.133944" lon="-0.645079"><ele>88</ele></trkpt>
   <trkpt lat="51.133651" lon="-0.645385"><ele>87.25</ele></trkpt>
   <trkpt lat="51.133097" lon="-0.646016"><ele>86.25</ele></trkpt>
   <trkpt lat="51.132683" lon="-0.646534"><ele>85.5</ele></trkpt>
   <trkpt lat="51.132252" lon="-0.647145"><ele>84</ele></trkpt>
   <trkpt lat="51.13188" lon="-0.647707"><ele>83.75</ele></trkpt>
   <trkpt lat="51.131428" lon="-0.648545"><ele>83</ele></trkpt>
   <trkpt lat="51.130958" lon="-0.649457"><ele>79</ele></trkpt>
   <trkpt lat="51.130445" lon="-0.65063"><ele>76.25</ele></trkpt>
   <trkpt lat="51.129236" lon="-0.654055"><ele>76.25</ele></trkpt>
   <trkpt lat="51.128866" lon="-0.655063"><ele>78.25</ele></trkpt>
   <trkpt lat="51.128546" lon="-0.655838"><ele>77.25</ele></trkpt>
   <trkpt lat="51.128187" lon="-0.656667"><ele>76.75</ele></trkpt>
   <trkpt lat="51.127877" lon="-0.65726"><ele>75</ele></trkpt>
   <trkpt lat="51.127459" lon="-0.657993"><ele>74</ele></trkpt>
   <trkpt lat="51.127077" lon="-0.658595"><ele>74.5</ele></trkpt>
   <trkpt lat="51.12664" lon="-0.659206"><ele>75.75</ele></trkpt>
   <trkpt lat="51.126257" lon="-0.659708"><ele>74.75</ele></trkpt>
   <trkpt lat="51.125797" lon="-0.66026"><ele>76.25</ele></trkpt>
   <trkpt lat="51.124004" lon="-0.66235"><ele>80.25</ele></trkpt>
   <trkpt lat="51.122377" lon="-0.664231"><ele>82</ele></trkpt>
   <trkpt lat="51.120799" lon="-0.666077"><ele>85.75</ele></trkpt>
   <trkpt lat="51.120029" lon="-0.667001"><ele>86.5</ele></trkpt>
   <trkpt lat="51.119534" lon="-0.66767"><ele>87.75</ele></trkpt>
   <trkpt lat="51.119218" lon="-0.668142"><ele>87</ele></trkpt>
   <trkpt lat="51.119141" lon="-0.668257"><ele>87</ele></trkpt>
   <trkpt lat="51.119094" lon="-0.668327"><ele>87.25</ele></trkpt>
   <trkpt lat="51.118635" lon="-0.669115"><ele>90</ele></trkpt>
   <trkpt lat="51.11824" lon="-0.669867"><ele>88.5</ele></trkpt>
   <trkpt lat="51.117964" lon="-0.670488"><ele>88.75</ele></trkpt>
   <trkpt lat="51.11765" lon="-0.671273"><ele>88.5</ele></trkpt>
   <trkpt lat="51.117378" lon="-0.672055"><ele>89</ele></trkpt>
   <trkpt lat="51.117132" lon="-0.672876"><ele>90.5</ele></trkpt>
   <trkpt lat="51.116914" lon="-0.673728"><ele>93.75</ele></trkpt>
   <trkpt lat="51.116705" lon="-0.674708"><ele>94</ele></trkpt>
   <trkpt lat="51.116348" lon="-0.676518"><ele>95.5</ele></trkpt>
   <trkpt lat="51.116264" lon="-0.676923"><ele>94.25</ele></trkpt>
   <trkpt lat="51.116075" lon="-0.677723"><ele>98.5</ele></trkpt>
   <trkpt lat="51.115851" lon="-0.678583"><ele>100.75</ele></trkpt>
   <trkpt lat="51.115594" lon="-0.679487"><ele>102.75</ele></trkpt>
   <trkpt lat="51.115343" lon="-0.68031"><ele>103.75</ele></trkpt>
   <trkpt lat="51.114843" lon="-0.681729"><ele>102.75</ele></trkpt>
   <trkpt lat="51.114307" lon="-0.683073"><ele>102</ele></trkpt>
   <trkpt lat="51.114055" lon="-0.683647"><ele>102.25</ele></trkpt>
   <trkpt lat="51.113771" lon="-0.684235"><ele>102</ele></trkpt>
   <trkpt lat="51.113471" lon="-0.684809"><ele>102.5</ele></trkpt>
   <trkpt lat="51.113297" lon="-0.685124"><ele>105.5</ele></trkpt>
   <trkpt lat="51.112938" lon="-0.685756"><ele>104.75</ele></trkpt>
   <trkpt lat="51.112604" lon="-0.686288"><ele>105.75</ele></trkpt>
   <trkpt lat="51.112221" lon="-0.686876"><ele>107.5</ele></trkpt>
   <trkpt lat="51.111802" lon="-0.687453"><ele>108.5</ele></trkpt>
   <trkpt lat="51.111308" lon="-0.688054"><ele>110.5</ele></trkpt>
   <trkpt lat="51.110666" lon="-0.688802"><ele>112.75</ele></trkpt>
   <trkpt lat="51.109108" lon="-0.690891"><ele>116</ele></trkpt>
   <trkpt lat="51.108422" lon="-0.691926"><ele>118.5</ele></trkpt>
   <trkpt lat="51.10769" lon="-0.693166"><ele>114.75</ele></trkpt>
   <trkpt lat="51.107035" lon="-0.694444"><ele>114</ele></trkpt>
   <trkpt lat="51.106933" lon="-0.694629"><ele>115.75</ele></trkpt>
   <trkpt lat="51.106414" lon="-0.695539"><ele>119.5</ele></trkpt>
   <trkpt lat="51.105913" lon="-0.696403"><ele>119.75</ele></trkpt>
   <trkpt lat="51.105454" lon="-0.697111"><ele>121.5</ele></trkpt>
   <trkpt lat="51.105009" lon="-0.697747"><ele>122.75</ele></trkpt>
   <trkpt lat="51.104527" lon="-0.698382"><ele>121</ele></trkpt>
   <trkpt lat="51.104014" lon="-0.698991"><ele>123</ele></trkpt>
   <trkpt lat="51.103091" lon="-0.699951"><ele>125</ele></trkpt>
   <trkpt lat="51.100567" lon="-0.702282"><ele>128.75</ele></trkpt>
   <trkpt lat="51.099605" lon="-0.703121"><ele>131.5</ele></trkpt>
   <trkpt lat="51.097952" lon="-0.704565"><ele>135.5</ele></trkpt>
   <trkpt lat="51.097041" lon="-0.705387"><ele>138.5</ele></trkpt>
   <trkpt lat="51.095218" lon="-0.707039"><ele>142.25</ele></trkpt>
   <trkpt lat="51.094442" lon="-0.707823"><ele>142.5</ele></trkpt>
   <trkpt lat="51.093488" lon="-0.708903"><ele>145.5</ele></trkpt>
   <trkpt lat="51.093003" lon="-0.709512"><ele>146</ele></trkpt>
   <trkpt lat="51.092727" lon="-0.709908"><ele>146.5</ele></trkpt>
   <trkpt lat="51.092486" lon="-0.710254"><ele>145.25</ele></trkpt>
   <trkpt lat="51.092133" lon="-0.71079"><ele>146.5</ele></trkpt>
   <trkpt lat="51.091803" lon="-0.711349"><ele>146.25</ele></trkpt>
   <trkpt lat="51.091497" lon="-0.711932"><ele>146.75</ele></trkpt>
   <trkpt lat="51.09119" lon="-0.712609"><ele>146.5</ele></trkpt>
   <trkpt lat="51.090853" lon="-0.713397"><ele>143.5</ele></trkpt>
   <trkpt lat="51.090225" lon="-0.715072"><ele>141.25</ele></trkpt>
   <trkpt lat="51.090045" lon="-0.715601"><ele>140.75</ele></trkpt>
   <trkpt lat="51.089667" lon="-0.716687"><ele>139.75</ele></trkpt>
   <trkpt lat="51.089531" lon="-0.717076"><ele>139.25</ele></trkpt>
   <trkpt lat="51.089276" lon="-0.717899"><ele>139</ele></trkpt>
   <trkpt lat="51.089157" lon="-0.718283"><ele>139</ele></trkpt>
   <trkpt lat="51.088789" lon="-0.719491"><ele>138.25</ele></trkpt>
   <trkpt lat="51.088314" lon="-0.721191"><ele>136.75</ele></trkpt>
   <trkpt lat="51.088162" lon="-0.721733"><ele>134.25</ele></trkpt>
   <trkpt lat="51.088073" lon="-0.722072"><ele>135.25</ele></trkpt>
   <trkpt lat="51.088037" lon="-0.722219"><ele>135.75</ele></trkpt>
   <trkpt lat="51.087805" lon="-0.723011"><ele>135.5</ele></trkpt>
   <trkpt lat="51.087504" lon="-0.72432"><ele>134.5</ele></trkpt>
   <trkpt lat="51.086938" lon="-0.726881"><ele>132.5</ele></trkpt>
   <trkpt lat="51.086537" lon="-0.729073"><ele>127.75</ele></trkpt>
   <trkpt lat="51.086328" lon="-0.73028"><ele>129.25</ele></trkpt>
   <trkpt lat="51.086123" lon="-0.731637"><ele>130</ele></trkpt>
   <trkpt lat="51.085944" lon="-0.732889"><ele>130</ele></trkpt>
   <trkpt lat="51.085795" lon="-0.734121"><ele>127.75</ele></trkpt>
   <trkpt lat="51.085629" lon="-0.735746"><ele>125.5</ele></trkpt>
   <trkpt lat="51.085594" lon="-0.73614"><ele>126.75</ele></trkpt>
   <trkpt lat="51.085526" lon="-0.737398"><ele>125.5</ele></trkpt>
   <trkpt lat="51.085499" lon="-0.738109"><ele>124.75</ele></trkpt>
   <trkpt lat="51.085495" lon="-0.738847"><ele>123.5</ele></trkpt>
   <trkpt lat="51.085505" lon="-0.739919"><ele>120.25</ele></trkpt>
   <trkpt lat="51.085508" lon="-0.740258"><ele>121</ele></trkpt>
   <trkpt lat="51.085561" lon="-0.743766"><ele>118.75</ele></trkpt>
   <trkpt lat="51.08557" lon="-0.744051"><ele>119</ele></trkpt>
   <trkpt lat="51.085647" lon="-0.749045"><ele>113.75</ele></trkpt>
   <trkpt lat="51.085649" lon="-0.749173"><ele>113.5</ele></trkpt>
   <trkpt lat="51.08571" lon="-0.753084"><ele>118.75</ele></trkpt>
   <trkpt lat="51.085709" lon="-0.753991"><ele>116</ele></trkpt>
   <trkpt lat="51.085677" lon="-0.755018"><ele>110</ele></trkpt>
   <trkpt lat="51.085546" lon="-0.757413"><ele>112.75</ele></trkpt>
   <trkpt lat="51.085453" lon="-0.758673"><ele>111.25</ele></trkpt>
   <trkpt lat="51.085353" lon="-0.759873"><ele>109</ele></trkpt>
   <trkpt lat="51.085278" lon="-0.760581"><ele>110.75</ele></trkpt>
   <trkpt lat="51.085184" lon="-0.761313"><ele>109.25</ele></trkpt>
   <trkpt lat="51.08507" lon="-0.761973"><ele>109.5</ele></trkpt>
   <trkpt lat="51.084934" lon="-0.762676"><ele>110.5</ele></trkpt>
   <trkpt lat="51.084763" lon="-0.763408"><ele>110.25</ele></trkpt>
   <trkpt lat="51.084617" lon="-0.763982"><ele>110</ele></trkpt>
   <trkpt lat="51.084453" lon="-0.764572"><ele>109.75</ele></trkpt>
   <trkpt lat="51.084246" lon="-0.765216"><ele>108.75</ele></trkpt>
   <trkpt lat="51.084021" lon="-0.765848"><ele>109.75</ele></trkpt>
   <trkpt lat="51.080014" lon="-0.775881"><ele>106.75</ele></trkpt>
   <trkpt lat="51.079942" lon="-0.776063"><ele>107</ele></trkpt>
   <trkpt lat="51.079494" lon="-0.777245"><ele>105.25</ele></trkpt>
   <trkpt lat="51.07929" lon="-0.777859"><ele>104.25</ele></trkpt>
   <trkpt lat="51.07909" lon="-0.778525"><ele>105.75</ele></trkpt>
   <trkpt lat="51.078913" lon="-0.779168"><ele>107.25</ele></trkpt>
   <trkpt lat="51.078749" lon="-0.779858"><ele>105.25</ele></trkpt>
   <trkpt lat="51.078601" lon="-0.780587"><ele>108.75</ele></trkpt>
   <trkpt lat="51.078475" lon="-0.781319"><ele>104.75</ele></trkpt>
   <trkpt lat="51.078396" lon="-0.781823"><ele>104</ele></trkpt>
   <trkpt lat="51.078355" lon="-0.782092"><ele>106.25</ele></trkpt>
   <trkpt lat="51.078146" lon="-0.783953"><ele>114.5</ele></trkpt>
   <trkpt lat="51.078058" lon="-0.78467"><ele>111</ele></trkpt>
   <trkpt lat="51.077949" lon="-0.785356"><ele>114.25</ele></trkpt>
   <trkpt lat="51.077809" lon="-0.786118"><ele>113</ele></trkpt>
   <trkpt lat="51.077681" lon="-0.786764"><ele>113.75</ele></trkpt>
   <trkpt lat="51.077384" lon="-0.788052"><ele>112.75</ele></trkpt>
   <trkpt lat="51.077214" lon="-0.788685"><ele>112</ele></trkpt>
   <trkpt lat="51.07702" lon="-0.789358"><ele>111.25</ele></trkpt>
   <trkpt lat="51.076828" lon="-0.789967"><ele>111</ele></trkpt>
   <trkpt lat="51.076619" lon="-0.790576"><ele>112</ele></trkpt>
   <trkpt lat="51.076419" lon="-0.791134"><ele>112.75</ele></trkpt>
   <trkpt lat="51.076162" lon="-0.791796"><ele>113.75</ele></trkpt>
   <trkpt lat="51.075729" lon="-0.792842"><ele>114</ele></trkpt>
   <trkpt lat="51.075515" lon="-0.793312"><ele>113.75</ele></trkpt>
   <trkpt lat="51.075227" lon="-0.793886"><ele>114.75</ele></trkpt>
   <trkpt lat="51.074717" lon="-0.794848"><ele>115.5</ele></trkpt>
   <trkpt lat="51.074499" lon="-0.795216"><ele>115.5</ele></trkpt>
   <trkpt lat="51.073827" lon="-0.796265"><ele>115</ele></trkpt>
   <trkpt lat="51.072513" lon="-0.798161"><ele>113</ele></trkpt>
   <trkpt lat="51.071203" lon="-0.800132"><ele>112.5</ele></trkpt>
   <trkpt lat="51.067036" lon="-0.80629"><ele>103.75</ele></trkpt>
   <trkpt lat="51.066979" lon="-0.806377"><ele>104.5</ele></trkpt>
   <trkpt lat="51.066325" lon="-0.807333"><ele>107</ele></trkpt>
   <trkpt lat="51.065261" lon="-0.808927"><ele>104</ele></trkpt>
   <trkpt lat="51.065032" lon="-0.809257"><ele>102.5</ele></trkpt>
   <trkpt lat="51.063205" lon="-0.811974"><ele>102.5</ele></trkpt>
   <trkpt lat="51.06256" lon="-0.813005"><ele>104.5</ele></trkpt>
   <trkpt lat="51.06222" lon="-0.813635"><ele>106</ele></trkpt>
   <trkpt lat="51.0619" lon="-0.81427"><ele>106.5</ele></trkpt>
   <trkpt lat="51.061553" lon="-0.814997"><ele>108</ele></trkpt>
   <trkpt lat="51.061214" lon="-0.815756"><ele>107.25</ele></trkpt>
   <trkpt lat="51.060902" lon="-0.816571"><ele>105.5</ele></trkpt>
   <trkpt lat="51.060613" lon="-0.817352"><ele>105.25</ele></trkpt>
   <trkpt lat="51.060282" lon="-0.818328"><ele>103.75</ele></trkpt>
   <trkpt lat="51.060063" lon="-0.819071"><ele>101.25</ele></trkpt>
   <trkpt lat="51.059805" lon="-0.820069"><ele>102.75</ele></trkpt>
   <trkpt lat="51.059584" lon="-0.821016"><ele>104.25</ele></trkpt>
   <trkpt lat="51.058795" lon="-0.82484"><ele>102.5</ele></trkpt>
   <trkpt lat="51.058041" lon="-0.828426"><ele>101</ele></trkpt>
   <trkpt lat="51.055689" lon="-0.83986"><ele>101.5</ele></trkpt>
   <trkpt lat="51.055553" lon="-0.84064"><ele>102</ele></trkpt>
   <trkpt lat="51.055382" lon="-0.841826"><ele>102</ele></trkpt>
   <trkpt lat="51.055324" lon="-0.842394"><ele>101.5</ele></trkpt>
   <trkpt lat="51.055278" lon="-0.84305"><ele>101.75</ele></trkpt>
   <trkpt lat="51.055233" lon="-0.843971"><ele>101.75</ele></trkpt>
   <trkpt lat="51.055214" lon="-0.844746"><ele>101.75</ele></trkpt>
   <trkpt lat="51.055219" lon="-0.845606"><ele>103</ele></trkpt>
   <trkpt lat="51.055273" lon="-0.846899"><ele>103</ele></trkpt>
   <trkpt lat="51.055314" lon="-0.847389"><ele>104</ele></trkpt>
   <trkpt lat="51.055381" lon="-0.848"><ele>105.75</ele></trkpt>
   <trkpt lat="51.055492" lon="-0.848841"><ele>104.25</ele></trkpt>
   <trkpt lat="51.055742" lon="-0.850499"><ele>104</ele></trkpt>
   <trkpt lat="51.055833" lon="-0.851191"><ele>101</ele></trkpt>
   <trkpt lat="51.05591" lon="-0.851942"><ele>104.5</ele></trkpt>
   <trkpt lat="51.055961" lon="-0.852731"><ele>106</ele></trkpt>
   <trkpt lat="51.055991" lon="-0.854015"><ele>104.75</ele></trkpt>
   <trkpt lat="51.055981" lon="-0.854949"><ele>102</ele></trkpt>
   <trkpt lat="51.055936" lon="-0.85599"><ele>98.5</ele></trkpt>
   <trkpt lat="51.055838" lon="-0.857197"><ele>95</ele></trkpt>
   <trkpt lat="51.055715" lon="-0.858078"><ele>94.75</ele></trkpt>
   <trkpt lat="51.055629" lon="-0.858623"><ele>92.25</ele></trkpt>
   <trkpt lat="51.055531" lon="-0.85919"><ele>92</ele></trkpt>
   <trkpt lat="51.055473" lon="-0.859504"><ele>91.75</ele></trkpt>
   <trkpt lat="51.055295" lon="-0.860303"><ele>90.5</ele></trkpt>
   <trkpt lat="51.054906" lon="-0.861731"><ele>86.75</ele></trkpt>
   <trkpt lat="51.05439" lon="-0.863259"><ele>86.75</ele></trkpt>
   <trkpt lat="51.054123" lon="-0.864028"><ele>86.5</ele></trkpt>
   <trkpt lat="51.053836" lon="-0.864924"><ele>86.25</ele></trkpt>
   <trkpt lat="51.053405" lon="-0.866555"><ele>84.25</ele></trkpt>
   <trkpt lat="51.052906" lon="-0.868612"><ele>80.25</ele></trkpt>
   <trkpt lat="51.052666" lon="-0.869629"><ele>79.5</ele></trkpt>
   <trkpt lat="51.052636" lon="-0.869755"><ele>78.75</ele></trkpt>
   <trkpt lat="51.051266" lon="-0.875399"><ele>74.25</ele></trkpt>
   <trkpt lat="51.050853" lon="-0.877111"><ele>75.5</ele></trkpt>
   <trkpt lat="51.050616" lon="-0.878073"><ele>73.25</ele></trkpt>
   <trkpt lat="51.050351" lon="-0.879103"><ele>71.5</ele></trkpt>
   <trkpt lat="51.050085" lon="-0.880089"><ele>69.75</ele></trkpt>
   <trkpt lat="51.049875" lon="-0.880791"><ele>69.25</ele></trkpt>
   <trkpt lat="51.049635" lon="-0.881574"><ele>69.25</ele></trkpt>
   <trkpt lat="51.049198" lon="-0.882858"><ele>68.75</ele></trkpt>
   <trkpt lat="51.048845" lon="-0.883822"><ele>68.5</ele></trkpt>
   <trkpt lat="51.048238" lon="-0.885273"><ele>66.25</ele></trkpt>
   <trkpt lat="51.047855" lon="-0.886126"><ele>65</ele></trkpt>
   <trkpt lat="51.047505" lon="-0.886884"><ele>64.75</ele></trkpt>
   <trkpt lat="51.047091" lon="-0.887703"><ele>62.75</ele></trkpt>
   <trkpt lat="51.046719" lon="-0.888382"><ele>62.5</ele></trkpt>
   <trkpt lat="51.046286" lon="-0.889136"><ele>62.5</ele></trkpt>
   <trkpt lat="51.045893" lon="-0.889774"><ele>63.5</ele></trkpt>
   <trkpt lat="51.045003" lon="-0.891165"><ele>63</ele></trkpt>
   <trkpt lat="51.044581" lon="-0.891738"><ele>63.25</ele></trkpt>
   <trkpt lat="51.043822" lon="-0.892737"><ele>63</ele></trkpt>
   <trkpt lat="51.043312" lon="-0.893344"><ele>61.75</ele></trkpt>
   <trkpt lat="51.042805" lon="-0.893889"><ele>61.75</ele></trkpt>
   <trkpt lat="51.042445" lon="-0.894292"><ele>61</ele></trkpt>
   <trkpt lat="51.042108" lon="-0.894646"><ele>62.25</ele></trkpt>
   <trkpt lat="51.040924" lon="-0.895782"><ele>60</ele></trkpt>
   <trkpt lat="51.040876" lon="-0.895827"><ele>60</ele></trkpt>
   <trkpt lat="51.035308" lon="-0.901092"><ele>60.75</ele></trkpt>
   <trkpt lat="51.034131" lon="-0.902179"><ele>57.75</ele></trkpt>
   <trkpt lat="51.034074" lon="-0.90223"><ele>57.75</ele></trkpt>
   <trkpt lat="51.032522" lon="-0.903701"><ele>59.25</ele></trkpt>
   <trkpt lat="51.03211" lon="-0.904067"><ele>58.25</ele></trkpt>
   <trkpt lat="51.031334" lon="-0.904667"><ele>57.75</ele></trkpt>
   <trkpt lat="51.030975" lon="-0.904887"><ele>57.5</ele></trkpt>
   <trkpt lat="51.030592" lon="-0.905101"><ele>57.25</ele></trkpt>
   <trkpt lat="51.030244" lon="-0.905262"><ele>57.75</ele></trkpt>
   <trkpt lat="51.028834" lon="-0.90587"><ele>60</ele></trkpt>
   <trkpt lat="51.028466" lon="-0.906064"><ele>60.25</ele></trkpt>
   <trkpt lat="51.028128" lon="-0.906262"><ele>61.25</ele></trkpt>
   <trkpt lat="51.027403" lon="-0.906755"><ele>56.75</ele></trkpt>
   <trkpt lat="51.026936" lon="-0.907141"><ele>55.5</ele></trkpt>
   <trkpt lat="51.026849" lon="-0.907213"><ele>55.75</ele></trkpt>
   <trkpt lat="51.026253" lon="-0.907764"><ele>55.75</ele></trkpt>
   <trkpt lat="51.025903" lon="-0.908108"><ele>55.5</ele></trkpt>
   <trkpt lat="51.025461" lon="-0.90861"><ele>54.25</ele></trkpt>
   <trkpt lat="51.025408" lon="-0.908674"><ele>54</ele></trkpt>
   <trkpt lat="51.024782" lon="-0.909405"><ele>59.5</ele></trkpt>
   <trkpt lat="51.024295" lon="-0.910071"><ele>58.25</ele></trkpt>
   <trkpt lat="51.023936" lon="-0.910607"><ele>56.5</ele></trkpt>
   <trkpt lat="51.023424" lon="-0.911424"><ele>57</ele></trkpt>
   <trkpt lat="51.023034" lon="-0.912107"><ele>58.25</ele></trkpt>
   <trkpt lat="51.022687" lon="-0.912744"><ele>58.75</ele></trkpt>
   <trkpt lat="51.022407" lon="-0.913319"><ele>57.5</ele></trkpt>
   <trkpt lat="51.022138" lon="-0.913941"><ele>55.25</ele></trkpt>
   <trkpt lat="51.021033" lon="-0.916663"><ele>53.75</ele></trkpt>
   <trkpt lat="51.020622" lon="-0.917549"><ele>56.25</ele></trkpt>
   <trkpt lat="51.020284" lon="-0.918212"><ele>60</ele></trkpt>
   <trkpt lat="51.019954" lon="-0.918815"><ele>61.5</ele></trkpt>
   <trkpt lat="51.019271" lon="-0.919975"><ele>62.75</ele></trkpt>
   <trkpt lat="51.018295" lon="-0.921656"><ele>59.75</ele></trkpt>
   <trkpt lat="51.018192" lon="-0.921828"><ele>60.5</ele></trkpt>
   <trkpt lat="51.016117" lon="-0.925371"><ele>64.5</ele></trkpt>
   <trkpt lat="51.013825" lon="-0.929262"><ele>68</ele></trkpt>
   <trkpt lat="51.012616" lon="-0.931306"><ele>72.75</ele></trkpt>
   <trkpt lat="51.010451" lon="-0.935025"><ele>68</ele></trkpt>
   <trkpt lat="51.009681" lon="-0.936334"><ele>70.75</ele></trkpt>
   <trkpt lat="51.009283" lon="-0.936997"><ele>71.25</ele></trkpt>
   <trkpt lat="51.008848" lon="-0.937749"><ele>71.5</ele></trkpt>
   <trkpt lat="51.008096" lon="-0.939021"><ele>71</ele></trkpt>
   <trkpt lat="51.007006" lon="-0.940873"><ele>69</ele></trkpt>
   <trkpt lat="51.006973" lon="-0.940928"><ele>69</ele></trkpt>
   <trkpt lat="51.00578" lon="-0.942956"><ele>67.25</ele></trkpt>
   <trkpt lat="51.005384" lon="-0.943629"><ele>65.75</ele></trkpt>
   <trkpt lat="51.00528" lon="-0.943802"><ele>67</ele></trkpt>
   <trkpt lat="51.004729" lon="-0.944677"><ele>67.75</ele></trkpt>
   <trkpt lat="51.004484" lon="-0.945043"><ele>67.5</ele></trkpt>
   <trkpt lat="51.003899" lon="-0.945834"><ele>68</ele></trkpt>
   <trkpt lat="51.003571" lon="-0.946251"><ele>68.5</ele></trkpt>
   <trkpt lat="51.00281" lon="-0.94714"><ele>67</ele></trkpt>
   <trkpt lat="51.002491" lon="-0.947469"><ele>66.75</ele></trkpt>
   <trkpt lat="51.002181" lon="-0.947768"><ele>65.25</ele></trkpt>
   <trkpt lat="51.001618" lon="-0.948274"><ele>64</ele></trkpt>
   <trkpt lat="51.001193" lon="-0.948613"><ele>64.5</ele></trkpt>
   <trkpt lat="51.000351" lon="-0.949236"><ele>62.25</ele></trkpt>
   <trkpt lat="51.000275" lon="-0.949289"><ele>61.5</ele></trkpt>
   <trkpt lat="50.999372" lon="-0.949856"><ele>65.75</ele></trkpt>
   <trkpt lat="50.988848" lon="-0.9565"><ele>80</ele></trkpt>
   <trkpt lat="50.988332" lon="-0.956803"><ele>79.25</ele></trkpt>
   <trkpt lat="50.98796" lon="-0.956999"><ele>80.25</ele></trkpt>
   <trkpt lat="50.987819" lon="-0.957062"><ele>79.25</ele></trkpt>
   <trkpt lat="50.987212" lon="-0.957312"><ele>81.5</ele></trkpt>
   <trkpt lat="50.986583" lon="-0.957506"><ele>81.75</ele></trkpt>
   <trkpt lat="50.985807" lon="-0.95766"><ele>82.5</ele></trkpt>
   <trkpt lat="50.985381" lon="-0.957706"><ele>84</ele></trkpt>
   <trkpt lat="50.985093" lon="-0.957724"><ele>85</ele></trkpt>
   <trkpt lat="50.984784" lon="-0.95773"><ele>86</ele></trkpt>
   <trkpt lat="50.984493" lon="-0.95772"><ele>86</ele></trkpt>
   <trkpt lat="50.984144" lon="-0.957693"><ele>86.5</ele></trkpt>
   <trkpt lat="50.983568" lon="-0.957614"><ele>87</ele></trkpt>
   <trkpt lat="50.982853" lon="-0.957461"><ele>87.75</ele></trkpt>
   <trkpt lat="50.982427" lon="-0.957322"><ele>89.25</ele></trkpt>
   <trkpt lat="50.981886" lon="-0.957119"><ele>89.25</ele></trkpt>
   <trkpt lat="50.981012" lon="-0.956742"><ele>89</ele></trkpt>
   <trkpt lat="50.979291" lon="-0.955851"><ele>92.5</ele></trkpt>
   <trkpt lat="50.977997" lon="-0.955137"><ele>90.25</ele></trkpt>
   <trkpt lat="50.977455" lon="-0.95481"><ele>89.5</ele></trkpt>
   <trkpt lat="50.976856" lon="-0.954387"><ele>90</ele></trkpt>
   <trkpt lat="50.976262" lon="-0.953951"><ele>91</ele></trkpt>
   <trkpt lat="50.97543" lon="-0.953322"><ele>91.75</ele></trkpt>
   <trkpt lat="50.975305" lon="-0.95322"><ele>91.25</ele></trkpt>
   <trkpt lat="50.974886" lon="-0.952844"><ele>91.5</ele></trkpt>
   <trkpt lat="50.97442" lon="-0.95239"><ele>91.75</ele></trkpt>
   <trkpt lat="50.973977" lon="-0.951902"><ele>92.25</ele></trkpt>
   <trkpt lat="50.973661" lon="-0.951502"><ele>90.5</ele></trkpt>
   <trkpt lat="50.973482" lon="-0.951275"><ele>91.5</ele></trkpt>
   <trkpt lat="50.972914" lon="-0.950558"><ele>91.5</ele></trkpt>
   <trkpt lat="50.972427" lon="-0.949965"><ele>93.5</ele></trkpt>
   <trkpt lat="50.97205" lon="-0.94953"><ele>95</ele></trkpt>
   <trkpt lat="50.97156" lon="-0.948966"><ele>96.25</ele></trkpt>
   <trkpt lat="50.97113" lon="-0.948513"><ele>97.5</ele></trkpt>
   <trkpt lat="50.970729" lon="-0.948185"><ele>98.5</ele></trkpt>
   <trkpt lat="50.970236" lon="-0.947848"><ele>99.75</ele></trkpt>
   <trkpt lat="50.969666" lon="-0.947549"><ele>101.25</ele></trkpt>
   <trkpt lat="50.969138" lon="-0.947316"><ele>102.5</ele></trkpt>
   <trkpt lat="50.968422" lon="-0.947074"><ele>104.25</ele></trkpt>
   <trkpt lat="50.967666" lon="-0.946896"><ele>106</ele></trkpt>
   <trkpt lat="50.966085" lon="-0.946596"><ele>106.25</ele></trkpt>
   <trkpt lat="50.965644" lon="-0.946544"><ele>107.25</ele></trkpt>
   <trkpt lat="50.964568" lon="-0.946471"><ele>108.25</ele></trkpt>
   <trkpt lat="50.964126" lon="-0.946491"><ele>109.25</ele></trkpt>
   <trkpt lat="50.963672" lon="-0.946546"><ele>109</ele></trkpt>
   <trkpt lat="50.962853" lon="-0.946753"><ele>107.75</ele></trkpt>
   <trkpt lat="50.962059" lon="-0.946933"><ele>104.5</ele></trkpt>
   <trkpt lat="50.961638" lon="-0.946994"><ele>103.5</ele></trkpt>
   <trkpt lat="50.961242" lon="-0.946997"><ele>102</ele></trkpt>
   <trkpt lat="50.961162" lon="-0.946991"><ele>101.75</ele></trkpt>
   <trkpt lat="50.96093" lon="-0.946984"><ele>102</ele></trkpt>
   <trkpt lat="50.960593" lon="-0.946954"><ele>102.75</ele></trkpt>
   <trkpt lat="50.96027" lon="-0.946895"><ele>104</ele></trkpt>
   <trkpt lat="50.959874" lon="-0.946783"><ele>105</ele></trkpt>
   <trkpt lat="50.95942" lon="-0.9466"><ele>103.25</ele></trkpt>
   <trkpt lat="50.958964" lon="-0.946388"><ele>101.75</ele></trkpt>
   <trkpt lat="50.958511" lon="-0.946137"><ele>98.5</ele></trkpt>
   <trkpt lat="50.958226" lon="-0.946004"><ele>97</ele></trkpt>
   <trkpt lat="50.957364" lon="-0.945709"><ele>97.75</ele></trkpt>
   <trkpt lat="50.957009" lon="-0.945669"><ele>98</ele></trkpt>
   <trkpt lat="50.956665" lon="-0.945656"><ele>97.75</ele></trkpt>
   <trkpt lat="50.956333" lon="-0.945696"><ele>97</ele></trkpt>
   <trkpt lat="50.955963" lon="-0.94576"><ele>95.75</ele></trkpt>
   <trkpt lat="50.955512" lon="-0.945873"><ele>94.75</ele></trkpt>
   <trkpt lat="50.955092" lon="-0.946058"><ele>93.5</ele></trkpt>
   <trkpt lat="50.954819" lon="-0.946219"><ele>92.5</ele></trkpt>
   <trkpt lat="50.954461" lon="-0.946454"><ele>92</ele></trkpt>
   <trkpt lat="50.954184" lon="-0.946665"><ele>91.75</ele></trkpt>
   <trkpt lat="50.953857" lon="-0.946985"><ele>91.5</ele></trkpt>
   <trkpt lat="50.953559" lon="-0.947324"><ele>91</ele></trkpt>
   <trkpt lat="50.953248" lon="-0.947764"><ele>90</ele></trkpt>
   <trkpt lat="50.952745" lon="-0.948435"><ele>90.25</ele></trkpt>
   <trkpt lat="50.95251" lon="-0.948722"><ele>89.25</ele></trkpt>
   <trkpt lat="50.952216" lon="-0.949052"><ele>88.5</ele></trkpt>
   <trkpt lat="50.95192" lon="-0.949335"><ele>88.5</ele></trkpt>
   <trkpt lat="50.951606" lon="-0.949582"><ele>87.5</ele></trkpt>
   <trkpt lat="50.951282" lon="-0.949813"><ele>87.75</ele></trkpt>
   <trkpt lat="50.951026" lon="-0.949979"><ele>87.25</ele></trkpt>
   <trkpt lat="50.950736" lon="-0.950127"><ele>86.75</ele></trkpt>
   <trkpt lat="50.95048" lon="-0.950216"><ele>87.5</ele></trkpt>
   <trkpt lat="50.950139" lon="-0.950309"><ele>87.5</ele></trkpt>
   <trkpt lat="50.949818" lon="-0.950409"><ele>87.5</ele></trkpt>
   <trkpt lat="50.949488" lon="-0.95046"><ele>88</ele></trkpt>
   <trkpt lat="50.949085" lon="-0.950443"><ele>88.25</ele></trkpt>
   <trkpt lat="50.948716" lon="-0.95037"><ele>87</ele></trkpt>
   <trkpt lat="50.948357" lon="-0.950283"><ele>85</ele></trkpt>
   <trkpt lat="50.948072" lon="-0.950186"><ele>82.75</ele></trkpt>
   <trkpt lat="50.94732" lon="-0.949845"><ele>83.5</ele></trkpt>
   <trkpt lat="50.946957" lon="-0.949722"><ele>83.75</ele></trkpt>
   <trkpt lat="50.9466" lon="-0.949626"><ele>85</ele></trkpt>
   <trkpt lat="50.946296" lon="-0.949593"><ele>83.5</ele></trkpt>
   <trkpt lat="50.946029" lon="-0.94958"><ele>81.5</ele></trkpt>
   <trkpt lat="50.945712" lon="-0.949576"><ele>79.25</ele></trkpt>
   <trkpt lat="50.945392" lon="-0.949607"><ele>78.5</ele></trkpt>
   <trkpt lat="50.945102" lon="-0.949663"><ele>79.5</ele></trkpt>
   <trkpt lat="50.944807" lon="-0.94976"><ele>79.5</ele></trkpt>
   <trkpt lat="50.944495" lon="-0.949894"><ele>79.25</ele></trkpt>
   <trkpt lat="50.944197" lon="-0.950047"><ele>79.5</ele></trkpt>
   <trkpt lat="50.943689" lon="-0.950363"><ele>78.5</ele></trkpt>
   <trkpt lat="50.943373" lon="-0.950583"><ele>77.5</ele></trkpt>
   <trkpt lat="50.942986" lon="-0.950819"><ele>77</ele></trkpt>
   <trkpt lat="50.942763" lon="-0.95094"><ele>75.75</ele></trkpt>
   <trkpt lat="50.942379" lon="-0.951103"><ele>76</ele></trkpt>
   <trkpt lat="50.941585" lon="-0.951366"><ele>74.5</ele></trkpt>
   <trkpt lat="50.941132" lon="-0.951455"><ele>72.75</ele></trkpt>
   <trkpt lat="50.940865" lon="-0.951484"><ele>72.25</ele></trkpt>
   <trkpt lat="50.940429" lon="-0.9515"><ele>72.5</ele></trkpt>
   <trkpt lat="50.940104" lon="-0.951492"><ele>72.25</ele></trkpt>
   <trkpt lat="50.939572" lon="-0.951436"><ele>72.5</ele></trkpt>
   <trkpt lat="50.938009" lon="-0.951213"><ele>69.75</ele></trkpt>
   <trkpt lat="50.933981" lon="-0.950678"><ele>64.5</ele></trkpt>
   <trkpt lat="50.926814" lon="-0.949711"><ele>56.75</ele></trkpt>
   <trkpt lat="50.926317" lon="-0.949629"><ele>56.5</ele></trkpt>
   <trkpt lat="50.925857" lon="-0.949525"><ele>56.25</ele></trkpt>
   <trkpt lat="50.925382" lon="-0.949371"><ele>55.75</ele></trkpt>
   <trkpt lat="50.924922" lon="-0.949183"><ele>56</ele></trkpt>
   <trkpt lat="50.924018" lon="-0.94874"><ele>54.75</ele></trkpt>
   <trkpt lat="50.923558" lon="-0.948536"><ele>54.5</ele></trkpt>
   <trkpt lat="50.923059" lon="-0.948346"><ele>54.75</ele></trkpt>
   <trkpt lat="50.922571" lon="-0.948177"><ele>54</ele></trkpt>
   <trkpt lat="50.922077" lon="-0.948059"><ele>54</ele></trkpt>
   <trkpt lat="50.921455" lon="-0.94796"><ele>53.5</ele></trkpt>
   <trkpt lat="50.92063" lon="-0.947925"><ele>52.25</ele></trkpt>
   <trkpt lat="50.920522" lon="-0.947922"><ele>52</ele></trkpt>
   <trkpt lat="50.919532" lon="-0.948016"><ele>52.75</ele></trkpt>
   <trkpt lat="50.918861" lon="-0.948175"><ele>52.25</ele></trkpt>
   <trkpt lat="50.918269" lon="-0.948333"><ele>52.75</ele></trkpt>
   <trkpt lat="50.917954" lon="-0.948441"><ele>53.25</ele></trkpt>
   <trkpt lat="50.913839" lon="-0.949816"><ele>51.5</ele></trkpt>
   <trkpt lat="50.913204" lon="-0.95002"><ele>50</ele></trkpt>
   <trkpt lat="50.912859" lon="-0.950119"><ele>49.75</ele></trkpt>
   <trkpt lat="50.912552" lon="-0.950186"><ele>48.75</ele></trkpt>
   <trkpt lat="50.911872" lon="-0.950285"><ele>46.75</ele></trkpt>
   <trkpt lat="50.911545" lon="-0.950323"><ele>44.75</ele></trkpt>
   <trkpt lat="50.911161" lon="-0.950366"><ele>44.5</ele></trkpt>
   <trkpt lat="50.910629" lon="-0.950387"><ele>44</ele></trkpt>
   <trkpt lat="50.910062" lon="-0.950393"><ele>43.5</ele></trkpt>
   <trkpt lat="50.909423" lon="-0.95036"><ele>43.5</ele></trkpt>
   <trkpt lat="50.908809" lon="-0.950261"><ele>43.5</ele></trkpt>
   <trkpt lat="50.907104" lon="-0.949932"><ele>42.5</ele></trkpt>
   <trkpt lat="50.906541" lon="-0.949869"><ele>41.5</ele></trkpt>
   <trkpt lat="50.905815" lon="-0.949843"><ele>41</ele></trkpt>
   <trkpt lat="50.905103" lon="-0.949824"><ele>40.5</ele></trkpt>
   <trkpt lat="50.904174" lon="-0.949888"><ele>39</ele></trkpt>
   <trkpt lat="50.903774" lon="-0.949942"><ele>41.25</ele></trkpt>
   <trkpt lat="50.903259" lon="-0.950036"><ele>41.5</ele></trkpt>
   <trkpt lat="50.902815" lon="-0.950135"><ele>40.75</ele></trkpt>
   <trkpt lat="50.902334" lon="-0.950269"><ele>42.75</ele></trkpt>
   <trkpt lat="50.901639" lon="-0.9505"><ele>42.75</ele></trkpt>
   <trkpt lat="50.900566" lon="-0.950886"><ele>42.25</ele></trkpt>
   <trkpt lat="50.899479" lon="-0.95139"><ele>41</ele></trkpt>
   <trkpt lat="50.898504" lon="-0.9519"><ele>40</ele></trkpt>
   <trkpt lat="50.897711" lon="-0.952326"><ele>39.25</ele></trkpt>
   <trkpt lat="50.896972" lon="-0.952828"><ele>39.5</ele></trkpt>
   <trkpt lat="50.896527" lon="-0.953182"><ele>40</ele></trkpt>
   <trkpt lat="50.895857" lon="-0.953759"><ele>41.25</ele></trkpt>
   <trkpt lat="50.895397" lon="-0.954172"><ele>41.25</ele></trkpt>
   <trkpt lat="50.895166" lon="-0.954399"><ele>40.5</ele></trkpt>
   <trkpt lat="50.894936" lon="-0.954641"><ele>39</ele></trkpt>
   <trkpt lat="50.893462" lon="-0.956413"><ele>39.5</ele></trkpt>
   <trkpt lat="50.893292" lon="-0.956586"><ele>39</ele></trkpt>
   <trkpt lat="50.892874" lon="-0.956969"><ele>39</ele></trkpt>
   <trkpt lat="50.892675" lon="-0.957125"><ele>38.5</ele></trkpt>
   <trkpt lat="50.892488" lon="-0.957243"><ele>38</ele></trkpt>
   <trkpt lat="50.892256" lon="-0.957377"><ele>38.5</ele></trkpt>
   <trkpt lat="50.891948" lon="-0.957538"><ele>37.75</ele></trkpt>
   <trkpt lat="50.891715" lon="-0.957637"><ele>37.5</ele></trkpt>
   <trkpt lat="50.891294" lon="-0.957761"><ele>37</ele></trkpt>
   <trkpt lat="50.890871" lon="-0.957864"><ele>36.75</ele></trkpt>
   <trkpt lat="50.890444" lon="-0.957889"><ele>36.25</ele></trkpt>
   <trkpt lat="50.890233" lon="-0.95789"><ele>36</ele></trkpt>
   <trkpt lat="50.890021" lon="-0.957866"><ele>36</ele></trkpt>
   <trkpt lat="50.889549" lon="-0.957776"><ele>36</ele></trkpt>
   <trkpt lat="50.889079" lon="-0.957645"><ele>36.75</ele></trkpt>
   <trkpt lat="50.888717" lon="-0.957476"><ele>36.5</ele></trkpt>
   <trkpt lat="50.888375" lon="-0.957272"><ele>36.25</ele></trkpt>
   <trkpt lat="50.888052" lon="-0.957034"><ele>36.5</ele></trkpt>
   <trkpt lat="50.887343" lon="-0.95646"><ele>34.5</ele></trkpt>
   <trkpt lat="50.886976" lon="-0.956181"><ele>34.25</ele></trkpt>
   <trkpt lat="50.886604" lon="-0.955958"><ele>33</ele></trkpt>
   <trkpt lat="50.886204" lon="-0.955733"><ele>32.5</ele></trkpt>
   <trkpt lat="50.885835" lon="-0.955556"><ele>32.75</ele></trkpt>
   <trkpt lat="50.885392" lon="-0.955365"><ele>31.75</ele></trkpt>
   <trkpt lat="50.884915" lon="-0.955202"><ele>31</ele></trkpt>
   <trkpt lat="50.884397" lon="-0.95506"><ele>30.75</ele></trkpt>
   <trkpt lat="50.883851" lon="-0.954963"><ele>30.25</ele></trkpt>
   <trkpt lat="50.883423" lon="-0.954909"><ele>29.25</ele></trkpt>
   <trkpt lat="50.882877" lon="-0.954888"><ele>29</ele></trkpt>
   <trkpt lat="50.882147" lon="-0.954915"><ele>28.5</ele></trkpt>
   <trkpt lat="50.881585" lon="-0.954982"><ele>28.5</ele></trkpt>
   <trkpt lat="50.880981" lon="-0.955108"><ele>27.75</ele></trkpt>
   <trkpt lat="50.880701" lon="-0.955186"><ele>27.5</ele></trkpt>
   <trkpt lat="50.880618" lon="-0.955207"><ele>27.5</ele></trkpt>
   <trkpt lat="50.879832" lon="-0.955481"><ele>26.25</ele></trkpt>
   <trkpt lat="50.87942" lon="-0.955663"><ele>26.25</ele></trkpt>
   <trkpt lat="50.878512" lon="-0.956135"><ele>25.5</ele></trkpt>
   <trkpt lat="50.875689" lon="-0.957986"><ele>23.75</ele></trkpt>
   <trkpt lat="50.861839" lon="-0.966858"><ele>18.25</ele></trkpt>
   <trkpt lat="50.861029" lon="-0.967342"><ele>17.5</ele></trkpt>
   <trkpt lat="50.860373" lon="-0.967754"><ele>16.75</ele></trkpt>
   <trkpt lat="50.858001" lon="-0.969279"><ele>16</ele></trkpt>
   <trkpt lat="50.856895" lon="-0.96999"><ele>14.75</ele></trkpt>
   <trkpt lat="50.856635" lon="-0.97018"><ele>14.5</ele></trkpt>
   <trkpt lat="50.856409" lon="-0.97037"><ele>14.5</ele></trkpt>
   <trkpt lat="50.856" lon="-0.970784"><ele>14</ele></trkpt>
   <trkpt lat="50.855835" lon="-0.970978"><ele>13.75</ele></trkpt>
   <trkpt lat="50.855643" lon="-0.971242"><ele>14</ele></trkpt>
   <trkpt lat="50.855476" lon="-0.971493"><ele>13.75</ele></trkpt>
   <trkpt lat="50.85532" lon="-0.971749"><ele>13.5</ele></trkpt>
   <trkpt lat="50.855165" lon="-0.972033"><ele>13</ele></trkpt>
   <trkpt lat="50.855004" lon="-0.972355"><ele>13</ele></trkpt>
   <trkpt lat="50.85486" lon="-0.972676"><ele>13</ele></trkpt>
   <trkpt lat="50.854742" lon="-0.973"><ele>13</ele></trkpt>
   <trkpt lat="50.854523" lon="-0.973669"><ele>12.5</ele></trkpt>
   <trkpt lat="50.854423" lon="-0.974043"><ele>12</ele></trkpt>
   <trkpt lat="50.854355" lon="-0.97435"><ele>12</ele></trkpt>
   <trkpt lat="50.854289" lon="-0.97469"><ele>12</ele></trkpt>
   <trkpt lat="50.854235" lon="-0.975023"><ele>12.75</ele></trkpt>
   <trkpt lat="50.854192" lon="-0.975323"><ele>12</ele></trkpt>
   <trkpt lat="50.854163" lon="-0.975646"><ele>11.75</ele></trkpt>
   <trkpt lat="50.854149" lon="-0.975941"><ele>11.5</ele></trkpt>
   <trkpt lat="50.85414" lon="-0.976414"><ele>10.75</ele></trkpt>
   <trkpt lat="50.854181" lon="-0.977024"><ele>11</ele></trkpt>
   <trkpt lat="50.854202" lon="-0.977501"><ele>11</ele></trkpt>
   <trkpt lat="50.854222" lon="-0.977797"><ele>11</ele></trkpt>
   <trkpt lat="50.854241" lon="-0.978363"><ele>10.25</ele></trkpt>
   <trkpt lat="50.854278" lon="-0.978875"><ele>10</ele></trkpt>
   <trkpt lat="50.854392" lon="-0.980154"><ele>10</ele></trkpt>
   <trkpt lat="50.854432" lon="-0.980729"><ele>10</ele></trkpt>
   <trkpt lat="50.854491" lon="-0.981521"><ele>9.75</ele></trkpt>
   <trkpt lat="50.854635" lon="-0.983306"><ele>10</ele></trkpt>
   <trkpt lat="50.854767" lon="-0.985122"><ele>9</ele></trkpt>
   <trkpt lat="50.854877" lon="-0.986858"><ele>10</ele></trkpt>
   <trkpt lat="50.854889" lon="-0.987085"><ele>10</ele></trkpt>
   <trkpt lat="50.85491" lon="-0.987854"><ele>9.75</ele></trkpt>
   <trkpt lat="50.854952" lon="-0.988707"><ele>9</ele></trkpt>
   <trkpt lat="50.854958" lon="-0.989141"><ele>9</ele></trkpt>
   <trkpt lat="50.854944" lon="-0.990102"><ele>9</ele></trkpt>
   <trkpt lat="50.854925" lon="-0.990591"><ele>9</ele></trkpt>
   <trkpt lat="50.854854" lon="-0.991592"><ele>8</ele></trkpt>
   <trkpt lat="50.854798" lon="-0.992102"><ele>7.5</ele></trkpt>
   <trkpt lat="50.854715" lon="-0.992773"><ele>7.75</ele></trkpt>
   <trkpt lat="50.854563" lon="-0.993728"><ele>6.25</ele></trkpt>
   <trkpt lat="50.854536" lon="-0.99388"><ele>6.75</ele></trkpt>
   <trkpt lat="50.854404" lon="-0.99456"><ele>7.75</ele></trkpt>
   <trkpt lat="50.854275" lon="-0.995141"><ele>8</ele></trkpt>
   <trkpt lat="50.854105" lon="-0.995789"><ele>7.75</ele></trkpt>
   <trkpt lat="50.853969" lon="-0.996259"><ele>8</ele></trkpt>
   <trkpt lat="50.853847" lon="-0.99668"><ele>8</ele></trkpt>
   <trkpt lat="50.853682" lon="-0.9972"><ele>8.25</ele></trkpt>
   <trkpt lat="50.853473" lon="-0.997797"><ele>8</ele></trkpt>
   <trkpt lat="50.853124" lon="-0.998703"><ele>7</ele></trkpt>
   <trkpt lat="50.852785" lon="-0.999483"><ele>7</ele></trkpt>
   <trkpt lat="50.852443" lon="-1.000209"><ele>6.5</ele></trkpt>
   <trkpt lat="50.852414" lon="-1.000268"><ele>6.5</ele></trkpt>
   <trkpt lat="50.848373" lon="-1.00832"><ele>5</ele></trkpt>
   <trkpt lat="50.848107" lon="-1.008887"><ele>4</ele></trkpt>
   <trkpt lat="50.847855" lon="-1.009458"><ele>4</ele></trkpt>
   <trkpt lat="50.847484" lon="-1.010374"><ele>4</ele></trkpt>
   <trkpt lat="50.847116" lon="-1.011386"><ele>3.5</ele></trkpt>
   <trkpt lat="50.846814" lon="-1.012336"><ele>4.75</ele></trkpt>
   <trkpt lat="50.846581" lon="-1.013126"><ele>5.25</ele></trkpt>
   <trkpt lat="50.84633" lon="-1.014072"><ele>4</ele></trkpt>
   <trkpt lat="50.840644" lon="-1.035847"><ele>2</ele></trkpt>
   <trkpt lat="50.840605" lon="-1.035998"><ele>2.25</ele></trkpt>
   <trkpt lat="50.840018" lon="-1.038258"><ele>2.5</ele></trkpt>
   <trkpt lat="50.838968" lon="-1.042272"><ele>2.75</ele></trkpt>
   <trkpt lat="50.838826" lon="-1.042812"><ele>2</ele></trkpt>
   <trkpt lat="50.838473" lon="-1.044284"><ele>2</ele></trkpt>
   <trkpt lat="50.838042" lon="-1.045882"><ele>2</ele></trkpt>
   <trkpt lat="50.837878" lon="-1.046428"><ele>3</ele></trkpt>
   <trkpt lat="50.837672" lon="-1.047067"><ele>2</ele></trkpt>
   <trkpt lat="50.837451" lon="-1.047698"><ele>2</ele></trkpt>
   <trkpt lat="50.837188" lon="-1.048396"><ele>2</ele></trkpt>
   <trkpt lat="50.836903" lon="-1.049086"><ele>2</ele></trkpt>
   <trkpt lat="50.836611" lon="-1.049746"><ele>2</ele></trkpt>
   <trkpt lat="50.836307" lon="-1.05038"><ele>2.25</ele></trkpt>
   <trkpt lat="50.836032" lon="-1.050913"><ele>2.5</ele></trkpt>
   <trkpt lat="50.835741" lon="-1.051446"><ele>2.75</ele></trkpt>
   <trkpt lat="50.83542" lon="-1.05201"><ele>4.25</ele></trkpt>
   <trkpt lat="50.835093" lon="-1.052557"><ele>2.25</ele></trkpt>
   <trkpt lat="50.834811" lon="-1.052999"><ele>2.75</ele></trkpt>
   <trkpt lat="50.834524" lon="-1.053427"><ele>4</ele></trkpt>
   <trkpt lat="50.834362" lon="-1.053656"><ele>5.25</ele></trkpt>
   <trkpt lat="50.834299" lon="-1.053754"><ele>5.75</ele></trkpt>
   <trkpt lat="50.834054" lon="-1.054074"><ele>5.5</ele></trkpt>
   <trkpt lat="50.833873" lon="-1.054289"><ele>5.25</ele></trkpt>
   <trkpt lat="50.833455" lon="-1.054783"><ele>5</ele></trkpt>
   <trkpt lat="50.833194" lon="-1.055072"><ele>4.75</ele></trkpt>
   <trkpt lat="50.833089" lon="-1.055181"><ele>4.75</ele></trkpt>
   <trkpt lat="50.832477" lon="-1.055766"><ele>4.5</ele></trkpt>
   <trkpt lat="50.832338" lon="-1.055895"><ele>4.5</ele></trkpt>
   <trkpt lat="50.832004" lon="-1.056208"><ele>2.75</ele></trkpt>
   <trkpt lat="50.831496" lon="-1.056636"><ele>2.75</ele></trkpt>
   <trkpt lat="50.830861" lon="-1.057124"><ele>2.5</ele></trkpt>
   <trkpt lat="50.82988" lon="-1.057839"><ele>3</ele></trkpt>
   <trkpt lat="50.82903" lon="-1.058396"><ele>3</ele></trkpt>
   <trkpt lat="50.828705" lon="-1.058591"><ele>3</ele></trkpt>
   <trkpt lat="50.828286" lon="-1.058821"><ele>3.75</ele></trkpt>
   <trkpt lat="50.827672" lon="-1.059123"><ele>3</ele></trkpt>
   <trkpt lat="50.827274" lon="-1.059289"><ele>2.75</ele></trkpt>
   <trkpt lat="50.826894" lon="-1.05943"><ele>3</ele></trkpt>
   <trkpt lat="50.826406" lon="-1.059589"><ele>3</ele></trkpt>
   <trkpt lat="50.825956" lon="-1.059713"><ele>3</ele></trkpt>
   <trkpt lat="50.825567" lon="-1.059794"><ele>3</ele></trkpt>
   <trkpt lat="50.824766" lon="-1.05994"><ele>3.5</ele></trkpt>
   <trkpt lat="50.819835" lon="-1.0608"><ele>4</ele></trkpt>
   <trkpt lat="50.812871" lon="-1.062015"><ele>5</ele></trkpt>
   <trkpt lat="50.812101" lon="-1.062154"><ele>5</ele></trkpt>
   <trkpt lat="50.811839" lon="-1.062209"><ele>5</ele></trkpt>
   <trkpt lat="50.811165" lon="-1.062382"><ele>5</ele></trkpt>
   <trkpt lat="50.810721" lon="-1.062523"><ele>5</ele></trkpt>
   <trkpt lat="50.810286" lon="-1.06269"><ele>5</ele></trkpt>
   <trkpt lat="50.809666" lon="-1.062965"><ele>4.5</ele></trkpt>
   <trkpt lat="50.809273" lon="-1.063161"><ele>4</ele></trkpt>
   <trkpt lat="50.808782" lon="-1.063432"><ele>4.25</ele></trkpt>
   <trkpt lat="50.808072" lon="-1.063861"><ele>4</ele></trkpt>
   <trkpt lat="50.806937" lon="-1.064587"><ele>5</ele></trkpt>
   <trkpt lat="50.80159" lon="-1.067925"><ele>6.5</ele></trkpt>
   <trkpt lat="50.79956" lon="-1.069195"><ele>6</ele></trkpt>
   <trkpt lat="50.799137" lon="-1.069476"><ele>6</ele></trkpt>
   <trkpt lat="50.798502" lon="-1.069906"><ele>6.25</ele></trkpt>
   <trkpt lat="50.798211" lon="-1.07012"><ele>5.5</ele></trkpt>
   <trkpt lat="50.797999" lon="-1.070304"><ele>5.75</ele></trkpt>
   <trkpt lat="50.797792" lon="-1.070517"><ele>5.75</ele></trkpt>
   <trkpt lat="50.797604" lon="-1.070744"><ele>5.25</ele></trkpt>
   <trkpt lat="50.797442" lon="-1.070961"><ele>5.25</ele></trkpt>
   <trkpt lat="50.797264" lon="-1.071251"><ele>5.5</ele></trkpt>
   <trkpt lat="50.797104" lon="-1.07154"><ele>5.5</ele></trkpt>
   <trkpt lat="50.796965" lon="-1.071837"><ele>5</ele></trkpt>
   <trkpt lat="50.796856" lon="-1.072108"><ele>5.25</ele></trkpt>
   <trkpt lat="50.796742" lon="-1.072417"><ele>5.25</ele></trkpt>
   <trkpt lat="50.796644" lon="-1.072738"><ele>5</ele></trkpt>
   <trkpt lat="50.79656" lon="-1.073069"><ele>5.5</ele></trkpt>
   <trkpt lat="50.796472" lon="-1.073453"><ele>4.75</ele></trkpt>
   <trkpt lat="50.79641" lon="-1.073769"><ele>5</ele></trkpt>
   <trkpt lat="50.796348" lon="-1.074134"><ele>4.75</ele></trkpt>
   <trkpt lat="50.796286" lon="-1.074551"><ele>4.75</ele></trkpt>
   <trkpt lat="50.796247" lon="-1.074911"><ele>4.75</ele></trkpt>
   <trkpt lat="50.796225" lon="-1.075254"><ele>4.75</ele></trkpt>
   <trkpt lat="50.796217" lon="-1.075639"><ele>5.25</ele></trkpt>
   <trkpt lat="50.796237" lon="-1.076104"><ele>6.25</ele></trkpt>
   <trkpt lat="50.796275" lon="-1.076502"><ele>6.5</ele></trkpt>
   <trkpt lat="50.79632" lon="-1.07683"><ele>6</ele></trkpt>
   <trkpt lat="50.796374" lon="-1.077125"><ele>4.5</ele></trkpt>
   <trkpt lat="50.796474" lon="-1.077575"><ele>5.75</ele></trkpt>
  </trkseg>
 </trk>
</gpx>